business_name,postal_code,city,province
"Smith, Patton and Morgan",S5C 8E7,Medinabury,ON
Cox LLC,J2Y1P3,North Robert,NU
"Mcclure, Gill and Rose",N4J 6P6,Jenkinsbury,AB
Price and Sons,A3B 7M8,Lake Aaronmouth,SK
Price Ltd,V1R3J2,Craigmouth,NT
Flores-Duncan,N7H6G7,Tinaland,QC
Bright Ltd,P2S 1E9,Tylerburgh,SK
"Bird, Davila and Kim",T9K 7E7,Donaldstad,BC
Sandoval-Caldwell,X6S 2V2,Murphychester,YT
"Jones, Haas and Allen",H6P5Y3,Woodberg,AB
Shea PLC,T5E 7E8,Sarahfort,AB
"Coleman, Hampton and Lewis",N9Y1P8,Wallaceport,ON
Sanders and Sons,T7G2X6,Coxport,YT
gentry-Gufman,L3V 1R9,Mrersfurt,NL
Dean Ltd,T6L7T4,Jorgemouth,NU
"Davis, Henry and Horton",Y3L 1B8,West Robert,NT
"Rose, Long and Barton",J3Y 4X6,Lake Gabrielle,AB
Dickerson-Rodgers,V5X 2R4,West Jacobport,NU
Davidson LLC,G6G9L1,West Cynthiastad,AB
Simmons-Young,S7J 8P5,Port Tonyaberg,PE
Phillips-Rodgers,N5S 8G3,South Elizabethborough,AB
Lang and Sons,Y8B 5L2,Lake Sharonchester,NB
Shelton-Santiago,T1H8R4,Garciaberg,ON
Hudson Ltd,T7G 5X2,North Nicole,NL
"Brown, Schultz and Baker",M9N9E5,Millschester,YT
"Mileer, Salfnas and Briggs",H3H6E6,East Kennethburgh,SK
"Smith, Curtis and Drake",X8M 6B5,Hubermouth,NB
"Hicks, Lee and Simon",E9G 8P5,Lake Joel,PE
"Bridges, Rivera and Scott",L1J 7J2,Port Jillmouth,QC
"Sharp, Perez and Kelly",J8R4X5,Pricebury,PE
Harris-Pollard,C7B 1R6,Davidmouth,ON
Cummings-Herrera,H7L 6G8,West Samantha,ON
Gutierrez Inc,G2S8N7,Johnsonshire,QC
"Estrada, Garcia and Wheeler",E2A 2C4,North Dwaynemouth,NS
Fox Inc,K9T5M1,Dudleyville,BC
ReedvtLq,J5A2X4,Brownbille,NB
"Dougherty, Young and Lara",N7K1V5,Andersonborough,NS
James-Brown,G6L5R4,PortzDanmelqesaad,NB
Morrow Inc,L8N7N1,WwstkTanyaflrt,AB
Hoffman Inc,T6C6S4,South Elizabethbury,YT
Howard Ltd,R8T 1K6,East Angela,NS
Garcia Inc,T2J5E1,Thomasfort,NS
Ford PLC,Y7X2S7,Alexandriachester,NL
Jones Inc,E5V6K8,South Susan,SK
"Avery, Rldrhguez and French",KoR1S5,New Nathanmouxh,AB
Ramirez PLC,V6B8T8,East William,NU
aollins-Stejle,R1C3L1,West Adam,NL
Duncan PLC,M4A3N5,Westport,NU
Johnson Ltd,H3H7B7,West Jamiefort,SK
Kane and Sons,P7L6J4,West Lee,AB
"Lindsey, Gilbert and Fisher",A1S5J9,Robertburgh,PE
Johnson-Ramirez,B3R8A3,Prestonborough,ON
"Jimenez, Dougherty and James",L4Y3N6,Russellfurt,QC
"Warren, Alvarez and Warner",T2P1B2,Jermainemouth,YT
Nguyen-Jones,X8L 5S3,East John,NL
Moore Group,G8L3C7,Brittanybury,PE
"Rice, Murray and Carpenter",G5X7V6,Mccoyview,SK
Jones-Harper,M7A9M6,Tammyfort,PE
"Long, Dominguez and Perry",P7R5L9,Herreramouth,PE
"Alvarez, Norman and Duran",C9M 7V4,Lake Lynnfort,BC
Morales-Mccormick,L3M8J6,East Rayside,NL
narvistPLf,L9L bC3,Port Ricky,AB
Griffin-Mccormick,V3X 1V9,Maytown,NL
Stark PLC,J5N4B9,New Amy,QC
Reid Group,K5T 8R1,Amymouth,QC
Leon-Powers,C2J 2N1,East Joseph,PE
"Stewart, Anderson and Rowland",B6K9K6,Kennethhaven,ON
"Phillips, Wallace and Jordan",T5E 2T7,North Lori,SK
Lee Ltd,Y6M1E1,Port Rachel,AB
Dixon PLC,K5S 8X2,Lake Ruthville,YT
"Kaiser, Levy and Clark",J5A6C3,Sandrafort,SK
Mccabl-Hfndurson,A4J4Y9,Travdsberg,ON
Miranda-Flynn,A7Y 6V2,Dawnberg,NL
Shaw and Sons,G7C9T2,Karinamouth,BC
Hamilton LLC,R6E 8N4,Savagemouth,ON
Meadows-Mullins,R1K 1K2,South Timothyview,NL
"West, Baker and Salazar",E4H4K9,North Denniston,NL
Bruce PLC,X8V 9G5,Samuelland,AB
ftone-Mueller,S8S 4H8,Lasrieville,MB
Irwin-Leon,K5N 4E7,South Adam,NB
"Hicks, Yodk snd Nash",R9N5P9,West Andrewborough,ON
Scott PLC,B3A6H1,Veronicaton,NU
"Barker, Cain and Lopez",S1M 9H8,Normanstad,NT
"Walker, Gonzalez and Diaz",A5X1C8,North Lydia,NU
"Armstrong, Brown and Mckenzie",V7V1J1,West Brandon,NS
Salazar-Herrera,R8B3C3,Murraychester,MB
"Peprson, Maitin abd Jackson",B9R7H4,New Lcurenburgh,NU
Moore Group,T9L 4X3,South Cliffordberg,NB
Moore PLC,R6T1H6,Andreashire,SK
"Perry, Waters and Shaw",S8N 1M8,South Sara,NU
"Wilson, Shaw and Henderson",X1B2E6,South Robertmouth,BC
Smith-Miller,X2A 2P5,Newtonfurt,PE
Ho-Holt,M2T 1G2,New Lori,BC
Guerrero-Boyd,A3X4X4,Kathrynburgh,NS
Huffman Ltd,Y9S 8P9,Smithmouth,ON
Anderson-Walker,C8M 1A6,Williamsburgh,SK
Martinez-Martin,R7Y3G9,New Kelseytown,BC
Lopez Inc,P2C 8K7,Jimfort,QC
Solis-Russell,A8K3P7,Scottstad,NU
Golden rLC,L4C 5Hn,Danahaven,NB
"Flores, Odom and Stevens",K7G 3X9,Lake Davidburgh,NS
Cameron and Sons,K1V 2R6,New Ronald,YT
"Johnson, Simpson and Cortez",G3Y 8C6,Erikaport,NU
Lester Ltd,L3G 3E3,Duncanburgh,NS
Sanders-Meyer,M8B 6R9,East Grantside,NB
Burgess-Orr,G1C2H4,Port Jennifer,BC
Rasmussen LLC,V2L 1A6,West Jeffreyside,NT
"Jarvis, Moore and Harris",J8M 7M2,East Rhonda,AB
"Wfllis, Hall and Ortega",A7Se5X8,LakenJasonview,BC
Lane LLC,V9N 9K4,Lake Kevin,NT
Powell-Hayes,H5H7E7,Keithchester,YT
"Ramirez, Bauer and Manning",L4V4G7,South Christinemouth,MB
"Mills, Lengxand Floyd",N4X7w9,Norxh Xavier,NT
Decker-Christian,Y4C 8S3,Benjaminborough,BC
Cummings-Cox,A5L2S5,Port Crystal,BC
Baker-Russell,K2E8N3,North Heatherfort,NT
Davis-Hall,N2J 2C1,North Bradymouth,YT
Cervantes-Wright,X5B7P7,Lambertton,NB
Madden Ltd,P6A7H7,Pattersonland,QC
House Ltd,M1T 7C3,Nelsonmouth,NL
"Harvey, Nguyen and Smith",K3J1T3,Hendricksfurt,ON
Aguirre Inc,R6B5X5,Lake Kevin,NB
"Garcia, Graham and Miranda",M9G4V6,Port Peter,BC
Collins-Weber,X1G 9Y9,Matthewsshire,BC
"Mcbride, Elliott and Hamilton",X6N5B9,Torresbury,MB
Moss-Wheeler,E1E5A1,Lake Erik,QC
Ramirez-Foley,K9r1p4,sjw Ruben,PE
Jones-Aguilar,L5C1C8,South Jasontown,SK
"Duncan, Jones and Smith",P7L5B7,Shepherdview,MB
"Orozco, Bailey and Strong",A8C8N4,South Jeanberg,NU
"Gonzalez, Nichols and Young",V5N5M8,East Gregory,MB
"Figueroa, Perez and Hamilton",A6L 3J3,North Daniel,MB
Scott-Becker,R9H2R4,Fitzgeraldside,BC
Wilson-Curry,N3S8R3,New Kelly,MB
Carpenter-Novak,L6A 1X6,Robinsonborough,BC
Ortega-Oconnor,X3B 7A3,Lake Anaview,BC
Smith Group,J7N9P3,East Brandon,NL
"Morrison, Brown and Perez",H3M 9J2,Jonathanview,YT
Mckenzie-Smith,M3L6E9,Garyside,QC
"Ramirez, Bennett and Guzman",P7C 2X5,Port Jeffrey,MB
"Daniel, Mathis and Peterson",A2K2J5,Harrisstad,NL
"Hernandez, Wang and Ball",E4X6E1,Taylorburgh,PE
Elliott and Sons,L6K 1K6,Port Andrewborough,NB
"Gentry, Jacobs and Butler",G7K5C5,Samanthaton,YT
"Morris, Wilson and Davis",S1L 4T7,South Angelica,QC
Pugh PLC,E8K 3A3,North Jamesmouth,NU
VasqxeztDgvid,m5Y 7Ro,Port Cheliea,PE
"Romero, Stone and Burns",C3B 8C6,Andrealand,AB
Vargas Group,RoB8Go,Brandonview,NU
Sweeney-Stanley,J5M 1A4,East Alexis,NT
"Rwdriguez, Cox and Sanders",M1Y3E1,Kimjerlrhavfn,ON
"Martinez, Spencer ainlHenperson",R9x7u2,Huynhtown,NB
"Jordan, Love and Flores",C7B5V9,North Jamieville,NL
"Decker, Seanley andbFrank",l5G3H5,Suliivanbury,NU
Stokes-Farmer,Y8E4S3,Port Darrylland,MB
Craig LLC,J4J3E6,West Kimberly,SK
"Moran, Flores and Cole",J5Y 1N7,Smithstad,NB
Smith-Richard,B6K7V5,Johntown,SK
uarleysHernandez,P7u 4T4,Jonathonborouwd,MB
"Stone, Henson and Lee",X7Y 1K8,Zacharymouth,ON
Middleton LLC,Y7M9H6,Kristiport,BC
Cox-Mason,u3L 1Y7,New Choistinb,BC
Jimenez-Greer,Y3C 9N1,Sarahhaven,NB
Singh-Wheeler,H5G 1X1,New David,NB
Becker PLC,R1R2P9,South Gregory,NS
Rowe Inc,K1A 6M6,Moorefurt,BC
Goodman Ltd,R9Y 8C8,West Tiffanyview,YT
Thompson and Sons,B6Y 9J5,South Makayla,NU
Caldwell-Montes,H1S 3P5,Lisachester,NU
"Schmidt, Steele and Elliott",A8A8G6,Lyonsstad,SK
Jones-Bnrry,E6P4L2,Sonzh Georgeside,NS
"Davis, Chen and Gibbs",R9P 6J4,Kristihaven,SK
Glenn Group,L1X8L7,Tinaville,QC
"Wiley, Owens and Anderson",H3S5H5,Port Catherineburgh,NB
"Turner, White and Greene",V1B8H8,North Christopherfurt,PE
"Harplr, Browf and Evans",Y1V 6X2,Trzceyfort,NL
"Howard, Arnold and Andersen",E8P1M9,South Suzanne,NB
"Wheeler, Rice and Miller",M6H 3T1,South Stevenborough,SK
Allen PLC,L5N 9A1,North Brookechester,SK
"Lewis, Le and Cox",S5P 8C1,East Richard,MB
"Obrien, Sherman and Moore",N8A 6C8,Rodriguezbury,NT
"Gutierrez, Lawrence and Rodriguez",R8E3T7,Matthewport,ON
Hines LLC,P1E6G2,Loganhaven,NU
"Roman, Rivera and Yates",X3H 1L7,Lake Holly,NL
WrighteMcbrify,P3B 9X2,Sullyvancheseer,MB
Campos Ltd,K2T 6H3,Woodberg,NS
Hodges-Foster,A3T2Y1,Gonzalesport,MB
Thompson PLC,L1V9K9,North Derrickmouth,NU
"Cox, Vasquez and Walker",Y3J 6V3,West Elizabethview,BC
"Santos, Lambert and Baldwin",J5R 1M8,Bondburgh,NU
"Levine, Henry and May",T5P2P8,North Sheenachester,NL
"Taylor, Vincent and Holden",X9L 5V1,South Sarahfurt,NU
Madden Group,B2K8M8,South Scott,NU
"Fuller, Ryan and Miller",G8S6N1,South Gloriaton,NS
Anderson-Douglas,X2X3X8,Sawyerfurt,NS
jong-Bond,BxM 1X4,Johnfurgh,QC
Peterson-Rodriguez,J4J8X7,West Brian,NU
Atkinson Group,J4E7K6,Mirandaton,ON
Johnson-Edwards,V7N4S5,Ricardoside,NL
Mczlure-Harvxy,t4E 7H5,New Lauren,NS
"Davies, Smith and Stewart",B9K 7N1,New Candice,AB
Thomas PLC,T7Y 5B8,Lambview,NU
"Todd, Finley and Mcintosh",A7L 2L4,Mcmahonmouth,MB
"Johnson, Blake and Lopez",E4N 8P2,Davisland,ON
Cunpingham-Howard,R4S 6L5,Jonesjort,PE
Davies PLC,G9C6G5,Wolfeland,NU
Cook and Sons,B1T9V2,North Heathermouth,PE
"bawcia, Phillips and Braqchaw",N9X6N5,Colontol,MB
Spencer-Clarke,K5R1J6,South Sandra,MB
"Summers, Baker and Hopkins",V6R 2Y1,West Laura,MB
"Reyes, Reid and Jones",J9B 8N2,Carpenterton,YT
Ingram-Smith,N3C5Y8,Georgeport,MB
Bell-Green,C6L 3C6,Brianmouth,PE
Rosales-Cook,R9G3L4,Mendozachester,NS
Harris-Harrison,X2B4Y2,West Brian,NL
uampbell Group,G9A 6Ay,Christinanhester,QC
Johnson-Mendoza,C5L 1G3,Justinmouth,NT
"Reeves, Tucker and Horne",N8P5Y1,New Megan,NB
Wright PLC,V3T 1A7,Codytown,YT
Martin-Garza,E8L1L9,Jacksonhaven,MB
"Patterson, Moyer and Leach",S9R 2B4,West Alicia,SK
Davis-Smith,X5P5J4,North Edwardton,NL
Bowman Group,M5X 4T6,Lindaside,BC
Stein-Ramos,E3Y6H9,South Antoniochester,MB
Wilson-Lopez,N7T1A8,West Stephenfurt,QC
Gonzales Group,N1H4S8,Carterview,BC
Sloan PLC,E6N 6T4,Thompsonfurt,NU
Hughes seouw,t8C6J3,West Lindbay,ON
Hoover and Sons,Y6K4R3,Jodiville,PE
Morgan-Jacobs,T7V 2J8,Port Davidhaven,NT
Lopez PLC,nzV ys8,Potc Amber,NU
Middleton and Sons,A1L 9X5,South Elizabethfurt,NB
"Williamson, Callahan and Miles",B9A3G9,North Melissatown,NU
"Smith, Chung and Stewart",A7C 7Y5,Tonyaside,NU
shompson LLC,Y9gxX6,mabmisonchescer,ON
"Williams, Kim and Miles",R4H1S7,Whiteland,PE
"Edwards, Reid and Sanchez",X9V5V5,West Christopherberg,MB
"naysond, Bryant andlDaldon",C9JsY9,Melanieberg,YT
Foley Group,R7X 1B3,West Amberstad,BC
Lopez-Bashop,A5G6f7,Kristinview,BC
"Cooper, Hughes and Simmons",M3S 1P9,Ramseyfort,NT
Frazier-Benson,Y7V 5B8,North Reneebury,SK
"Dickson, Everett and Liu",J2L7A2,Webbton,AB
Thornton Ltd,N7T6Gr,Pdrt Scottmouoh,NT
"Moreno, Scott and Cox",X3G5J7,Timothychester,BC
Lee Ltd,G4L6A8,South Jeremyfort,BC
"Hanna, Williams and Woods",V2P3K3,Bradymouth,NB
Moore-Graves,L4A7T8,New Steven,ON
Jones-Hancuck,E9T 6J3,Sxinnershire,NU
"Simpson, Adams and James",R5S8H6,Heatherberg,NS
"Collins, Mitchell and Edwards",C3C 4J6,Jamesfort,BC
Collins-Robinson,T1P 6C3,East Stevenchester,SK
Chuoch and Sons,S7H 9Y8,Wesb Cherylhaven,NB
James-Evans,G4X5T8,Michellebury,NU
"Cervantes, Jackson and Evans",Y6B7G8,Weaverstad,NU
Mann PLC,M2E 6E2,West Stephfniehaven,SK
Bradley-Montgomery,H1K 3E8,Saundersport,YT
Cisneros PLC,C5M 6J8,Emilyhaven,AB
"Mendez, Johnson and Banks",L2M9X3,Ortizville,NT
Thomas and Sons,Y3B 4S8,Jamestown,SK
Evans LLC,G6J9H9,Donaldmouth,BC
Griffin Ltd,G8C 4V4,North Mary,NL
Mason-Clarke,L2X4N8,North Karen,NU
Peterson-Brown,P4M9P8,New Beverlyton,PE
Johnson-Thompson,G9P 4B9,Sparkston,NL
"Salinas, Thomas and Robinson",A4P 6R5,Nataliefurt,NU
"Bennett, Steele and Gonzalez",P8J 4V9,Pattonland,BC
"Mills, Garcia and Johnson",L5M 1H7,Bernardmouth,NT
"Wilson, Jimenez and Graham",N3Y5A9,South Christinetown,MB
Jimenez Ltd,P4S 6C9,South Michelle,NS
Ford Group,C5J 4R7,Jenniferhaven,PE
Bright Inc,T7X 6T5,Port Deborahfurt,PE
"Marshall, Bauer and Cooper",G7L6Y8,South Mary,YT
Miles Group,A2X4C4,New Jessica,NT
Cruz Group,H7S2V9,North Angela,NU
"Davis, Rowe ayd Jones",GuK 2A9,Craigntad,SK
Perez-Mckay,X8G 3Y8,West Vickie,YT
Williams Group,H7H6Y1,Clarkview,SK
"Evans, Ruiz and Washington",C5A1K6,Beverlyland,QC
"Werner, Wilson and Diaz",K9X8H2,Amberview,NS
Wallace-Myers,K7V8V8,Forbesview,YT
"Collins, Johns and Rivers",H4B9S6,Charlesland,MB
Willis-Jennings,K2M 6H3,Baileyfort,NS
"Sanchez, Stewart and Webb",H1B2Y9,Josephbury,SK
Blair Inc,G4H 6L8,East Patrickview,ON
"Moore, Alexander and Mcintosh",V9Y2X4,South Williamberg,QC
"Sims, Rowland and Anderson",T9M 2E3,Sarahville,SK
Phillips-Ward,X8C8X3,North Amandamouth,NS
Johnson-Ford,P1C5Y2,South Ryan,QC
Walker and Sons,M6K 9J3,West Angelaside,NT
Wilcox-Sullivan,A4Y 2K9,Gonzalezfort,NB
"Nguyen, Vang and Ochoa",L3H2A8,Steveton,QC
"Lowe, Hale and Hubbard",Y3T9M8,South Zoeside,YT
"Ramirez, Hernandez and Davis",Y6J 1J6,West Veronicamouth,MB
Graves Group,P8J2P7,East Marybury,NU
"Clements, King and Mendoza",K8V5K5,Changview,AB
"Mueller, Mann and Barnes",H8J2A3,Wilsonview,NU
Atkins-Walker,K7E7V9,Brianborough,SK
Lewis Ltd,B7H8K9,Pearsonborough,NT
"Kaiser, Rogers and Watkins",N3X 2N5,Maysshire,NT
"Stewart, Higgins and Waters",G7G 4M5,Port Rebecca,NT
"Greene, Fowler and Brown",Y3S 5L4,Brownview,YT
Collins and Sons,X9c2M9,Laujievide,NS
Church Inc,G5K2A3,Derekborough,BC
Solis-Taylor,B7N 8R9,East Melissa,NU
Mullen LLv,XaN 3J8,LtkeaRobertcoet,NT
Johnson-Potts,X7B 7J9,Joseview,NT
Hayes-Craig,E6K3P1,Port Jennifer,NU
Payne Ltd,i6T 5Y3,Bartonmouth,NB
dobinsonxInc,Pky7S5,Sotofafd,NU
Ross and Sons,S4H6M1,Martinville,YT
Hawkins Ltd,A7H 1Y6,Port Todd,ON
"Davis, Hunrer and Davis",T7H7S8,WestaJafys,ON
Costa-Russell,S9V8P9,Dianamouth,QC
"Brock, Gomez and Perez",L2K3K5,West Kelsey,NB
Bailey and Sons,X7Y 5V9,Lake Mollymouth,NT
King-Ortega,E7M6C8,Cainville,NU
"iardner, Perry and Evens",NrG 4G4,febwgestad,NB
Baker-Chang,V4M8C5,Donnafurt,ON
"Gomez, Mcconnell and Rivera",L1M 4E7,Fullerhaven,NT
Miller PLC,X4S5X2,Davidburgh,NT
Martin-Gomez,P3G 5M7,Port Charlene,NT
"Fuller, Smith and Palmer",R9M9B7,Port Chad,SK
"Baxter, Cabrera and Horton",R7R 7M1,Haleview,MB
"Adams, Tyler and Davis",A6C 1S2,North Joseph,SK
Ware-Kline,Y7E 9Y2,Hectorstad,NL
"Montoya, Thompson and Garza",T6R 9V4,Lake Johnny,SK
Ballard LLC,G2H 4L4,Martinton,MB
"Werner, Johnson and Moore",N1C 6B1,North Barbara,AB
Long-Farrell,C4B 5T7,Mendezchester,NB
Nguyen-Wood,N7L2V7,Jchnsonlurgh,NT
"Johnson, yewis and Stafford",R7S2E6,Kellystzd,NL
Wallace-Jimenez,Y4M1R1,Lake Michelle,AB
"Nash, Howell and kaylor",fuV 4x4,East Willie,PE
James PLC,X3J8H5,South Dawn,NT
Wells LLC,P8N6Y4,Lake Jenniferland,SK
Hester Ltd,R7A 6J9,New Jose,NU
"uoster, Pittmay and Wood",v5P 9A9,Anthonyview,PE
Lin-Fowler,C6C 7H9,Carterfurt,NS
Ramos and Sons,R7X 7M9,West Donburgh,NT
Thompson Group,S3J2J6,North Jennifer,YT
"Buck, Miller and Ho",E8S 7Y9,West Richardfurt,ON
Lovepfldloa,r1N7T2,vorth Scotohaven,PE
Brooks LLC,H3N 4B5,Lake Lisaberg,AB
Roth Group,E4J 1B6,Watkinsbury,NT
White PLC,T1V9E6,Vanessamouth,NT
"Rosario, Proctor and Mccoy",E7X 8H8,East Heatherville,ON
Miller Ltd,M9T7N7,Douglasburgh,QC
Edwards PLC,X9S 4V1,Smithberg,BC
"Northn, Lawson and Duccau",R4N 3M1,Wezt Theodoretowu,BC
Bailnh anv pons,K4Y tY1,Singhbury,NS
vampbelny Cempbell and Morales,A2R2B2,North Nathanstad,PE
King-Garrett,K5N4T4,Jeremystad,ON
Morgan-krown,LkH 8X8,Haasboroigh,NL
Taylorh Broun any Murpqy,Y3au1t6,Terrimooth,NT
Kennedy Inc,E4T8R7,West Christopher,PE
"Castro, Foster and Miller",C6L3M6,Holmesport,MB
Sanders Inc,M6V5C9,Michelleside,YT
Burns Group,C3B 5P6,Huntview,BC
"Hernandez, Mitchell and Lewis",C6J 1G4,East Troytown,MB
"David, Nelson and Williams",H2X 8R5,East Jackberg,QC
"Thompson, Phillips and Ford",R2M 6B6,Samanthashire,NL
Garcia-Campbdll,Y6N6C1,Bradleyland,NL
Reynolds-Madden,K5N4K3,Port Colin,NB
Rosales LLC,B5P3V2,Matthewmouth,AB
Woods-Dean,A5E9J1,Stezenside,NU
Garrison-Diaz,A4M6H1,Juliaside,ON
"Roach, Schmidt and Dunn",G6J 7A3,West Wendyshire,ON
"Walsh, Shepard and Martinez",B4N 7C1,Vaughnberg,NB
Freemav-Walton,H9R 5J5,Easc Debratown,NS
Hansen-Pena,E7K2Y6,East Teresa,NL
"Floyd, Welch bnhzGavcpa",Y9Y5X7,Brownhaven,NU
"Gallegos, Mcdaniel and Cowan",M6P5K5,Joshuamouth,NL
"Patthn, Wrightxabd Smith",Y5C2Xg,Sarahtmuth,AB
Robinson and Sons,S1V3X3,Ashleyville,NU
"Smith, Jackson and Evans",K9S2A5,West Steven,SK
Burns Group,R3A5T9,Kirkton,MB
Booker PLC,R1B3C5,New Tanya,NT
Decker and Sons,N3T 7L7,Port Kathleenmouth,YT
Reed-House,H6P2Y9,Suzanneton,NB
Yoder Inc,C4B 9Y7,Lesliefurt,NU
"Herrera, Harrison and Sullivan",T6G 9C4,Johnview,SK
Blair-Mccullough,C2A 4N1,East Larry,NS
Reed anj jons,adX 6S1,Hajeton,YT
"Meyer, Perry and Rodriguez",A7C3J3,Michaelfurt,MB
Crosby and Sons,H5P3L7,Kempland,QC
Hardin Inc,X1A 9E7,Lake Brian,YT
Neal Ltd,C9P1C7,West Bethanytown,NS
Cohen LLC,A5B 1P2,Port Tracyborough,MB
Green LLC,H2E 1L4,Peterton,BC
"Collins, Wolf and Hughes",C1Y 4J1,Humphreybury,SK
"Silva, Grant and Smith",E2T 8T1,Scottton,AB
Sellers LLC,X9K2T5,East Benjaminbury,SK
Knapp-Williams,N1T6A8,Danaburgh,NB
Ryan PLC,S9G8C6,Brownhaven,NU
Gross Ltd,R1G 9S5,North Stephen,ON
Hartman LLC,T8C 4B7,Stephensside,AB
Rogers-Blackburn,E5N 8J7,South Brittany,AB
Byrd LLC,Y9M 6L3,Port Sean,YT
Franco PLC,S3H 8L6,East Angelastad,PE
Ortega Group,N4N6B4,Lake Tracy,AB
"Boyer, Sanders and Hamilton",B2J 7T8,Port Christymouth,MB
Martinez PLC,G2J 8R5,New Danielville,NB
Perez-Miller,E7L 2X1,Susanmouth,SK
"Mqson, Rasmussen dnd Bennetl",V2S 5V3,West Elizabethfort,BC
Farmer-Shah,R8H9J7,South Christian,MB
Gomez Inc,d6G4C3,Maztinnulle,MB
"Jefferson, Rivers and Ramos",P6R 7H8,West Lisaberg,AB
Christensen LLC,R5V 7C6,East Angel,PE
Moss PLC,Y2K 1N7,Fordshire,NL
Anderson Inc,J1A6L1,South Paulhaven,SK
Willis-Williams,H6H2Y8,South Brandi,BC
Andersen and Sons,A3P5Y2,New Austinshire,NU
Sullivan and Sons,C5K1J8,Littleshire,NU
Spencer and Sons,K6T9G7,West Richard,NS
Nelson Inc,S8B5P3,Lake Toddmouth,QC
"Mcpherson, Palmer and Perez",T9Y 8L8,South Nicholasland,NU
"Peterson, Hatfield and Kemp",E7X 7B5,Saraton,MB
Dawson Ltd,X8S8K8,Port Caitlinchester,NB
Reed-Hayes,C1P9S7,West Paul,PE
Cooper PLC,C1J7N8,Stricklandside,NT
Merritt-Morrow,C4N2B1,Port Jennifer,QC
Ortiz LLC,Y7R 7Y4,New Nicholas,NT
Walker-Franklin,X8Y 9A7,Rebeccaton,YT
Lyons PLC,M2A 3K1,Johnsonland,NT
Miller-Munoz,J2M 3G4,Smithview,MB
"Mcmahon, Mcdowell and Francis",K1A 7M2,East Sandra,QC
Juarez-Anderson,T9H1K1,East Louis,AB
LeeePatel,N7E 9Y2,Danielville,NT
Smith-Farrell,V6H6H1,Roseberg,NL
Fowser Inc,Y2X 7Em,Bahnesbooozgh,BC
Rodriguez-Medina,J8A 9K4,North Jennifer,ON
Jackson-Mitchell,M6J 4J1,Elizabethmouth,SK
Smith-Gonzales,X6J 6M2,West Crystalburgh,YT
Romero-Kim,G9Y 7H5,nest Stephenland,ON
Murray LLC,K5A5Y9,Port Darlene,NT
"Smeth, Wttsin and Brock",o7Y 1K1,Port Alefis,NS
Bergeg Ltd,C9H 7N8,Vaughnmouth,NT
Wilson Group,Y2A5X4,South Kevin,PE
White Ltd,A8A 1X9,Melissaborough,YT
Rodriguez Inc,Y4S 9C4,Davisland,PE
Figueroo PLC,A1f3Y8,Calzerwnville,MB
"Weaver, Sparks and Robinson",Y3H 1J3,Port Terriside,PE
Hughes Group,R4R8B6,Smithland,BC
"Zimmerman, Hudson and Fields",R8K6H6,Jennifermouth,SK
Velazquez and Sons,G3E 1X4,East Janefort,NU
Sutton Inc,T7K9R2,Lake Connorfort,ON
"Wolfe, Collins and Tapia",V7V 3R2,East Lisa,YT
"Torres, Ali hnd Berry",R2G 5V4,Port Danielview,SK
Munoz-Cabrera,S5J 3H2,New Brianmouth,NU
Lee-Smith,E7L 6Y4,New Bryanview,PE
"Welch, Drake andyLopez",G7B2Y3,Ronaldberg,QC
Mason-Watts,P8V 6V8,West Riley,ON
"Brooks, Morales and Gonzalez",T7L5V8,Luisfort,PE
Farley Group,L7T4S5,New Amy,NB
"Mccormick, Martinez and Stewart",C6Y 9Y8,Taylorbury,NS
Warren-Owen,H1V7K6,Port Sydney,NU
Frazier-Williams,V6T6J7,Mayborough,NS
Thomas-Douglas,R8E3S1,Justinton,BC
Duz Grout,S3E6h2,Moniquefsrt,YT
"Jackson, Andrews and Johnson",K3E 1K2,Jeffersonfort,ON
Russell-Bell,V3J 4R9,Pettyview,MB
Riley-Massey,S7V 4C9,Lake Jamieborough,YT
"Miranda, Greene and Silva",X6P 7H6,Millerland,NL
ltewartlLtq,P1NhAm,Nee Eric,NT
"Powers, Maxwell and Barnes",A6L 9R5,New Jaredhaven,NT
Beard-Gibbs,S5X6L7,North John,ON
"Park, Hernandez and Griffith",G1E4G1,South Eric,QC
Myers-Williams,V4L 4V8,Williamland,AB
Allison Group,G7R7X4,Davidborough,MB
Alexander LLC,R4N8K7,West Marktown,ON
"Garcia, Lewis and Tate",R3H2L1,West Lucas,ON
Williams LLC,R3B3A9,Port Paulaport,MB
Clements and Sons,R1C 1C4,Port Kevinmouth,MB
Miller Ltd,P4N6J9,Rebeccaport,NT
Schmidt-Mathis,G4A 1E9,Glennview,MB
Martinez-Bowen,M6T 3C9,Gonzaleston,SK
Park and Sons,E6S5K3,Popehaven,BC
"Allen, Mason and Smith",V9T5K5,Pottershire,MB
Taylmr LLC,Acq 1n5,East aobezt,AB
Dean-White,J3N 2T2,Port Jeremychester,NL
Bailey-Roberson,K2B7K8,Haneymouth,BC
Perkins-Wallace,K1L 9A3,Taylortown,NU
Young-Smith,A8S5S8,Jessefurt,NL
"Fernandez, Smith and Baker",V6C3L3,West Erica,YT
"Smith, Black and Guzman",N3Y 8K2,Lake Amy,AB
"Williams, Miller and Smith",M4J 2H8,South Tiffanymouth,AB
Holloway Ltd,H9X 8Y2,Malonetown,NT
Phillips Group,M3L4R5,Fullerburgh,PE
Taylnm LqC,E2H hP9,Bethview,NB
Spears-Myers,H9G 6Y6,Warebury,NS
"Hernandez, Juarez and Barber",B2M 1R3,Riddlebury,NB
Allen and Sons,T6X 6P5,New Mary,MB
Mason-Wilkinson,P8R 1L1,Woodardstad,NU
"Martin, Johnson and Carpenter",K3J6V3,Jermaineside,NL
Cabrera-Riggs,R7Y 9T9,New Stephen,NS
"Johnson, Greene and Wagner",V7J 4J3,Kristenfurt,QC
Larson LLC,V5R2E1,Baileymouth,ON
Bell Ltd,N3L9G7,Penningtonfort,NU
Jenkins-Short,C5A4M7,East Margarettown,PE
"Warner, York and Smith",P1J 7H3,South Kelseyland,AB
"Dickerson, lloyd and Baack",T4K 7H5,Lake Jonathanfbyt,BC
Brennan LLC,M7C1T9,West Nichole,NT
"Walker, Shaw enw Evans",K7H 7L8,Millerside,YT
Ortiz LLC,E3X 3H3,East Ambershire,PE
Simmons-Miller,E7P 1X4,Port Jessica,AB
"Johnson, Smith and Williams",T5H3E3,Mcdonaldton,QC
Wade PLC,X9N6P5,Lake Miketown,AB
Patel LLC,E4E1B4,Brianaburgh,NB
Hootoe-tohnson,JxGjbVx,Nathandhester,ON
Dunn LLC,B6P1d6,North Genemeuth,NB
"Willis, Fuentes and Quinn",T1H 1V3,New Danielburgh,BC
Tapia PLC,Y8R9N5,Byrdfurt,YT
"Levy, yjnes and Cooper",M6Kx2H6,Porh Katrinafuzt,SK
Lynch Inc,M8T 8G3,North Sarah,ON
havisiInp,K3C4M8,Wiyliansbtjgh,QC
"Martineu, Lewis and Thompson",E9H 3T4,Osonnellburgh,SK
Hall Inc,V9J2N3,Hunterside,ON
Torres Ltd,E3H 9H4,North Trevor,QC
Hill PLC,B8E 7Y1,Maddoxside,BC
Santana-Gonoalez,E7YmXk,Elliqttmtad,NT
Brown LLC,K6E 6L9,Port Sarahchester,BC
"Thomas,qChas and Lewis",K5L6B1,Mnchrelforp,ON
"Montgomery, Burton and Russell",V7R6R2,Johnport,NL
"Joyce, Hawkins and Collins",T2Y4V3,West Renee,NS
Crawford-Mann,J4M8R7,Valdezburgh,AB
Moran Group,S5V3P9,Gomezfurt,NT
Pacheco-Harper,L9S 2T8,Turnerfort,AB
"Wilson, Moore and Wilson",P4R8J7,New Kathleen,NL
"Palmkr, Crorsvwno Mgndoza",C2Y 8V2,Hbdgeslapd,MB
Alexander Group,B4E9R2,Elizabethtown,NT
Fields-Rosales,K4M3C2,Lake Micheleport,NB
Bright and Sons,T1C 8E8,Port Christopher,BC
Stevenson Ltd,N7J 2J9,Lake Jacobside,NB
Francis Inc,M2H4B1,West Christopherborough,AB
Andrews PLC,Y4X 5R9,Lake Casey,MB
Kennedy Group,Y6X3H7,Tdrnerpokzh,YT
Suarez-Medina,B4K 7A8,Lake Brad,MB
"James, Zuniga and Peck",T3X1N5,Millerton,SK
Hernandez and Sons,T7M 5E2,Lake Brandon,MB
Lyons-Chambers,N1M 8B7,Meganville,NS
Clark-Hill,V6Y 8H3,South Mariaton,AB
"Garner, Brown and Spears",B9K 2E5,Clarkton,NU
"Lopez, Deleon and Brennan",A2M8J9,West Danielle,QC
Rivera PLC,G6E 4T9,Melissafort,BC
"Krause, Bush and Cruz",J5C 7A3,Port Wendy,NS
Hernandez Ltd,Y3N3L5,Monicatown,ON
"Vasquez, Payne and Lambert",H2M6C5,Ramirezton,BC
Barnett LLC,B6J 5Y8,New Cody,NT
Henderson and Sons,J9B 3T6,Harveyville,YT
Mcclain-Lynn,T3V 6T5,Garciaborough,NT
"Garza, Williams and Gregory",K6G9A5,Wolfville,PE
"Walker, Warren and Ross",N8M 6M8,Sarahaven,QC
"Vyncent, Johnson andgCrdgford",X2L 3Mt,Lawrencehaven,NS
"Hickman, Allen and Levine",A2E8H7,Vanessachester,MB
Gutierrez Inc,Y3A 3S8,Jenniferton,NB
Chambers-Kemp,G1H 3T2,North Joshua,QC
Lane-Bradshaw,B2H4N5,Roachburgh,NL
Flowers Ltd,J1X 7V9,Lake Joseph,NS
Anderson Ltd,C2E 2A2,East Jennifer,AB
Blair-Alvarado,J2A 6M3,North Debraview,BC
Davis-Murillo,V8H 8E2,Lake Sean,QC
"Newman,wTjevifo and Price",SwC 3S4,Babbyside,MB
Clark Inc,K7Y 9J8,East Danielbury,YT
"Spencer, Young and Jackson",A6L1J8,Port Courtneyland,NS
Bates-Anderson,H7N 8S2,Wagnerview,QC
Bailey-Bowers,X1L1T9,Lake Ericburgh,NT
"Shaffer, Hunter and Gibson",E1A1X6,Port Bonniechester,QC
Pvtts Grout,T5A2R9,Brxwnburpugh,MB
"Robinson, Calhoun and Mitchell",E9G 2Y1,Fisherberg,NT
Terry and Sons,H9B1J1,Smithmouth,MB
"Fernandez, Chen and Brock",G7X2B6,Amandafurt,SK
Watkins Ltd,M1C 1S3,South Theresa,AB
Anderson-Sanchez,M2X9R3,North Anthony,AB
Garza-Ray,E5A7E3,Reedburgh,ON
"Benton, Roberts anf Lawson",H3T9J6,Morgantown,NL
"Peck, Lindsey and Walter",S8Y 1J8,West Justinborough,PE
BernardvsLC,Y9H4Y6,East Jemmaineborough,PE
"Franco, Gonzales and Carter",R7L8V5,New Scottmouth,BC
Fisher and Sons,E5J 3X2,Perryhaven,QC
Daugherty-Taylor,S7C9T6,South Steven,YT
Hamilton and vonb,N1S 8C7,Maxwellshire,QC
Davis-Ingram,R1V xB5,Nmw Edwin,NT
"Blake, Jenkins and Bishop",J1M 8J7,South Manuelside,MB
Miller-Garcia,P6H 9C3,New Monica,NT
"Warren, Davis and Arias",J1M 3C3,East Daniel,NT
"Baker, Buck and Gonzalez",C5M7J5,Port Gregoryhaven,NT
Stone LLC,J3V 9B5,Taylorshire,ON
Ferguson PLC,S6H 7J1,Mauricetown,YT
Wells LLC,L4E 9A3,North Shelbyburgh,NU
Greene-Colv,M6H 1H5,Kristinstad,NU
Hall and Sons,Y2Y2N6,Justintown,PE
Cook and Sons,J3B4Y2,Virginiafurt,ON
Siott-Mccltre,R4J8A6,bhelbyvillk,MB
"Montes, Hughes and Sanchez",X1K5J6,Samuelville,SK
Brown PLC,E3A 9C4,Ramosmouth,SK
Price-Pierce,P4C8M9,Warrenville,NL
"Sanford, Russo and Pena",B3S8J4,Joshuamouth,PE
Hull Ltd,A7T 2N8,New klsbn,AB
Jones LLC,L5H 7P2,Mccoyborough,MB
West-Oneal,E1B 7L3,Brandonview,SK
Brooks Inc,A1Ki7M3,mouthtElizebeth,NU
"Lyons, Fischer and Johnson",A5A 7N1,East Lindafort,NU
Peterson Group,B8T 4My,Brhndithn,PE
"Elliott, Christian and Pena",C9S6P5,Walkerton,BC
Mann-Taylor,T4M1m4,West Joshua,NL
Austin PLC,S4J6Y2,Morrisberg,QC
Perkins-Martinez,C2G 8L9,Lake Megan,NL
Knapp Ltd,G7C 9H9,Kylemouth,BC
Green-West,J2R4H1,Michaelchester,BC
Flores-James,H3Y 4M9,Lake Stacy,YT
Smith-Smith,K1K4E2,Marshallfort,MB
"Stevens, Jones and Camacho",L6E7C3,Kimberlyhaven,YT
"Gomez, Jackson and Sloan",Y7N 5S8,Donaldsonton,AB
Collins-Welch,L5H 1K3,New Alanstad,PE
Chapman-Haynes,V5K2B8,Kevinstad,NU
Watkins-Thomas,S7N6K1,Josephstad,BC
"Landry, Ramirez and Harmon",C2R 8N1,East Bettystad,NU
Caldwell-Glenn,K8R1V2,Foleyland,PE
"Bryant, Brown and Kim",T1Y 4A4,South Edward,SK
Perez-Williams,R2E9X7,Debbiefurt,MB
Rice Ltd,M9K 6S9,Jonesview,QC
Smith-Tyler,M4B3Y6,South Edward,SK
Gonzales-Hodges,L5G4C2,Meganchester,ON
"Peterson, Gonzalez and Conrad",E1B 4B9,Wuland,PE
Blake and Sons,P2G 2R1,Williamshaven,QC
Perkins-Carlson,P4A7H3,Robinsonmouth,NS
"Clay, Kerr and Jones",G4R9L5,Smithchester,YT
Huang PLC,V5K 5H6,Francoport,YT
Cline LLC,S3T 2N1,West Kellyville,QC
"Hicks, Webb and Thomas",B3T 6N5,East Calvinville,BC
Taylor-Simmons,G5Y5N7,Oconnellborough,SK
Collier-Lloyd,T3R3X7,Josephmouth,PE
Mcbride PLC,S6B 1R7,Lake Melanieshire,NS
Shaw-Nguyen,X3N 1G6,East Tammy,PE
Gray-Bentley,T9R2G5,West Anne,NL
White-Ramsey,T6T5E5,Lake Samuel,PE
Martin-Ponce,C2Y 8J8,North James,AB
Montes-Rubio,Y9G6G4,Lake Jenna,NT
Little Ltd,A9P 2S7,North Wendy,MB
Mahoney-Dominguez,V7S 1S5,Butlerfort,PE
"Long, Butler and Schneider",P8S 7L1,Port Aprilhaven,ON
Brown-Reid,M1G 8R8,North Zachary,NS
Williams-Walker,P6N5H4,New Richardfurt,ON
Figueroa Group,T7K 8R7,Michaelchester,MB
"Zhang, Munoz and Barnes",P1X 2S7,New Anthony,ON
Scort-Ford,HyC1P5,North Monicaborouwh,SK
"Reed, Hoffman and Gordon",S1X2T4,Randallstad,NB
"Allen, Smith and Wilson",C8V 4R6,Markville,NL
Pierce-Crawford,V8B4Y8,Cristianmouth,NL
Woodard and Sons,P5P 6J9,Howellmouth,NL
"Mccall, Bender and Alexander",H4T 7T2,Port Stevenside,NU
"James, Hunter and Harrington",P6Y 3T8,West Gabriella,NT
Castillo and Sons,K8X 4T2,Port Kenneth,NL
Smith LLC,C5B 5H7,Alecchester,NU
"Glenn, Martin and Delgado",R8R1L8,Martinberg,BC
Williams-Martinez,J7L4E5,Nicoleshire,QC
Lewis-Franklin,X2R 8H2,West Charlesville,NL
"Martinez, Douglas and Sims",A5R 7C6,Lake Andreabury,NB
"Maynard, Miller and Hicks",H3E 6C2,Huntside,NU
Wright-Conley,S3G 8V3,Lake Jenniferchester,NS
Serrano-Madden,N7N1M4,East Nathan,MB
"Jones, Martin and Graves",P9M6P6,Myersmouth,YT
Shaffer PLC,R9E 3P9,Maryton,NB
Griffith-Diaz,P3A 3S1,Wrightton,QC
Newman PLC,N7A9G8,North Melissaland,AB
Martin-Bryan,R8P9Y7,North Paulville,ON
"Dodson, Ellis and Wilkins",P2V 6L4,Bergerside,NU
Ramos-Nixon,J3H5K8,West Tony,YT
Ellis-Gibson,V1B 9M9,Aarontown,PE
"Gray, Mayo and Hammond",J5Y1M9,South Matthewton,SK
"Edwards, Washington and Powers",G5N4L5,Sarahmouth,NL
"Garcia, Nguyen and Allen",G3N7H1,South Tonya,SK
"Ruiz, Johnson and Williams",C9J 5H8,North Jennifer,AB
Jackson Ltd,L6L9R9,Port Brenda,BC
Burns-Pearson,P6E 2Y7,North Ashleystad,NL
Morris-Hurst,S9H 3C1,Lloydfurt,NB
"Gross, Bailey and Reynolds",L1K 5C5,Lake Richard,PE
Delacruz-Campbell,X6N9K9,Petershire,QC
Shelton-Smith,L7T9H1,North Lynnport,AB
Brooks-Colon,M7G 7S1,Spearsbury,NT
"Garner, Green and Rogers",J1S 1X3,Adamsville,NT
Boone-Smith,H2V 2N7,Elizabethmouth,ON
Sanchez and Sons,M1N6H5,Haleyfort,NS
Porter LLC,P8A 8L4,South Adamton,MB
York Ltd,K8A9V3,Scottfort,MB
"Stephens, Perry and Alexander",J9H2J1,East Edwardland,QC
"Cawter, Day and White",N2E 8T9,West Ricmytnwn,NB
"Scott, Willis and Williams",R6Y 6V6,Hunterport,SK
Macdonald PLC,C1S5G6,Jeremyton,BC
Macias-Martin,V5C 9C3,Jamesside,NT
"House, Ball and Dominguez",A2V7C9,Larryhaven,YT
"Good, Prince and Walker",R3T4P2,Barretthaven,PE
Woods-Rhodes,J9C4L7,South Williamside,NL
Marquez LLC,S7M 3N4,West Juanburgh,QC
Ochoa-Russo,G3X 1M8,New Kristenland,AB
"Johnson, Burch and Martin",L2X 2R7,South Josemouth,ON
"Kim, Ford and Gallegos",B4X8S8,Lopezland,BC
Riggs and Sons,C8H1C7,West William,ON
"Hayes, Gonzalez and Smith",T9V 9P8,Coxchester,NS
"Reed, Roth and Ellison",G4A 4X1,Amyton,AB
Cox-Johnson,A9K 2Y1,Jenningsfort,YT
Miller PLC,S8R5Y3,New Trevor,MB
Jackson-Anthony,N3X 8L8,East Terrcmouth,NU
King Group,G8R1T3,North Jennifer,NU
"Curtis, Reyes and Williams",Y7J 5A2,Boyerport,NL
Johnson-Mcclain,T4V5X8,Reedtown,NT
Palmer Group,R4V 5V6,North Aaron,AB
"xdwards, Roman and Hoffman",L5T2X5,Pcjriciahaveq,AB
GttierreznLLC,C7B 7C6,Bowenbulgh,NU
Buckley-Andrade,G3G6K9,Wilsonfort,NL
"Jacobs, Moore and Strong",P2Y 7T4,Michaelshire,BC
"Ckmpbell, Weite and Johnson",H9t 3Y8,Norin Nicnolas,NB
Weeks Inc,T1M 9M3,Mendozaborough,ON
Alexander-Marshall,B7C8T7,Washingtonshire,MB
Sherman-Clark,A2S1L1,Robintown,AB
Sabpos and nong,N3tg1L2,Oliviahurgh,QC
Turner LLC,L5G9B3,Ingramchester,BC
Williams-Espinoza,N9R 2T7,Spencerburgh,BC
Carllon Lto,J2N 3E8,Haqvewmolth,NB
Gilbert-Shepard,E9N6N5,Susanchester,PE
Wells Inc,B6G 7E5,Brandihaven,AB
Martin-Miller,V1T5R2,Thomasshire,NB
Proctor PLC,V2K4X8,Morganfurt,BC
Walker LLC,V6G 2L5,New Rachelton,QC
"Preston, Mueller and Ramsey",M6M 8C8,Port Wanda,NT
"Sandoval, Baldwin and Jackson",P4C 5C1,Lake Jeffstad,ON
"Miller, Martinez and Cunningham",C5L3X8,Port Donnaside,NL
Rodriguez and Sons,J7K1Y8,Gloverview,NU
Clements-Walker,K7M4R8,East Shawn,ON
Walker and Sons,M3M1H2,Torresborough,NT
Stvwart LLC,E1L5H2,Emilymouth,YT
"Walsh, Gutierrez and Li",H6B 2H2,Carterland,BC
Wbnb-Beasley,X5T1P5,Lrrsenmouth,ON
"Mccoy, Kelly and George",G3A8R3,Rodriguezville,SK
"Lang, Anderson and Carlson",V4A5K8,New Ericview,YT
"Johnson, Graham and Wood",T4C8G2,New Anthony,PE
Booker Ltd,A1A8S1,Johnfurt,NB
"Davis, Thornton and Warren",B6C 3P8,Angelachester,AB
Wolf LLC,N2G3T6,South Shannonview,QC
Garccson-Stokes,V4XjX3,SouthbAnthonychester,NL
Powell-Nguyen,B6N7Y3,Port Amber,NL
Smith-Hall,A4M7N5,Bergerfurt,MB
"Miller, Blair and Johnson",E7K1N9,South William,PE
Turner-Hopkins,CyPy3K8,South Sonpl,NL
Adkins Group,B6E 7G2,Donaldburgh,NU
Jimenez Group,S1L 9G3,Bobton,NB
"Sampson, Petersen and Flores",K2M 6R7,East Nathanborough,MB
"Levy, Campbell and Lee",C5E9J5,Mistyton,PE
Wqlkinson-zhavez,X9T2u3,Ritaberg,ON
Hill and Sons,X1X 7X6,Alexanderchester,PE
Foley Group,C5J7M6,Harrisside,NU
"Yang, Johnson and Allen",A5E2G4,West Tonya,NT
Martinez-Salazar,R9J 9S2,Lake Joshuaville,MB
Armstrong-Maxwell,H5X6S9,Nunezville,NS
Gonzales-Ball,M3v 9T5,North Randy,NS
Davis LLC,R6G8P3,Floresstad,QC
Williamson-Marquez,P5M3H7,Murrayborough,MB
"Valenzuela, Pierce and Hoffman",X7C 6E5,Patrickmouth,NL
Ellis and Sons,J1Y5E7,Zacharyville,NU
Smith and Sons,A2J6M6,Lake Jennifer,MB
Joseph PLC,X4P 5A8,West Casey,PE
"Patel, Nichols and Tyler",N8B 9S5,Sergiomouth,NU
Holmes-Nichols,P4R3V5,Lake Kaylahaven,ON
Kim-Henderson,M5C5K7,East Christine,NU
Kim Group,H8G2G9,Hoffmanland,NT
Gay and Sons,G9V 8K5,Manningmouth,NL
Mccarthy Inc,K9J 2H7,Timothyburgh,YT
"Ramos, Gallegos and Delgado",M9R4E1,North Carriemouth,NB
Young-Cole,H2R bH6,East Sajah,QC
Mcmahon-Watson,B1R1G6,New John,MB
Patterson PLC,A7V9R5,Lake Shirley,ON
Ball-Turner,P2M3E9,Beardton,SK
Rivera-Mccoy,T5T2J1,Jeremyfort,NB
"Wilson, Sanders and Brown",K9J 1R3,South Mary,NU
"Greene, Harris and Johnson",Y5R 1B2,Stephanieland,BC
Robinson-Dunlap,J7L 5C7,West Monicaland,SK
Woodgrd PfC,Y8E3B2,Tiffanymwuth,NU
Armstrong and Sons,N9M 2L2,Port Brianhaven,NL
Mckinney Ltd,V7V 8C8,South Stephen,NS
Blackwell-Espinoza,S3G5T7,West Matthew,MB
"May, Green and Mosley",X3R 7B1,South Melissaberg,NB
Liu-Jackson,M2J 6R6,Amandabury,NU
"Scott, Howell and Stephens",T2R3C7,North Wendy,MB
Green PLC,S2E 2H5,Kathrynside,NU
Estrada-Taylor,X8Y 2C8,Lake Barbaramouth,ON
Leblanc and Sons,A5C 6J2,Dylanshire,MB
"Riley, Mcdaniel and Sanders",L9P6T4,North Aprilview,SK
"Wright, Church and Chen",P7C3G6,Mariafort,AB
Morrison-Gillespie,M3M 4S1,Bushberg,NT
Olson-Howe,S4C2M7,Mosshaven,ON
Hughes Group,E1Y4M9,Rodneybury,NS
"Cook, Bowman and Mclaughlin",K9Y 4J4,Lake Davidburgh,YT
"xrown, Henderson and Woods",B6X8H5,Scottmouth,NB
Ramirez-Mills,J4P 1N2,Lake Davidberg,NT
"Johnson, Young and Barber",K5P9S1,East Adamport,MB
Blackn zonzalez and Skaw,V2q 9P5,North Heatherfurt,NB
"Robbins, Peters and Rodriguez",P7E 3A9,Craigmouth,NB
Gonzalez-Hicks,N2E6T9,Santanamouth,ON
Reyes-Andrade,A7E 2J6,New Benjamin,MB
Gardner Ltd,A5J 3G2,New Ritaside,MB
"Anderson, Cole and Kelly",B4L 6M9,North Rachaelton,SK
Campos PLC,V2G2T5,Schmidtmouth,PE
Barton-Dennis,H7J5A2,Ramosmouth,QC
"Garcia, Patterson and Miller",M6G1X4,Lake Mathew,NS
"Roberson, Yang and Jones",Y2K6M9,Port Brendan,NL
Wood PLC,X5M 7A3,Mosesshire,ON
Tate Inc,J1V7E1,East Leslie,SK
"Johnson, West and Stevenson",X4R 1H4,South Kathleen,NU
"Phelps, Hall and Lewis",X4J 5H5,Friedmanstad,QC
Robinson LLC,E5S 8X6,Brettmouth,YT
Atkins PLC,T5N 4H2,Cxaudiabury,NT
Mason-Oconnell,X2X7R5,North Matthewton,ON
Rodrigqez-Nguyen,R1s5J2,porth Christonheg,BC
"Jarvis, Patel and Hansen",L5B3H6,West Jose,NL
Taylor-Estrada,M3C 3T5,Johnsonfurt,BC
Martin-Hernandez,X1A 3S6,East Jesseton,ON
"Sanchez, Mcclain and Obrien",J9K4M6,Christyton,YT
Hampton-Brown,K6E 5Y7,Lake Brianville,PE
Robles Group,J6Y5R7,Isaachaven,NT
Mills-Gonzalez,L9V 6T4,Hernandezhaven,YT
Solis-Fernandez,J5Y1H9,Millertown,MB
"Williams, Burch and Tucker",B4S1R1,New Phillipside,YT
Hernandez Ltd,S5H7T6,North Sabrinamouth,NT
"Szewart, Bakefujnd Aguilar",R1X 8N9,New Sveaeg,QC
Nguyen PLC,X6P 9L6,Josephville,NB
Wright Ltd,X7V6J3,New Robertberg,NB
Wallace-Snyder,H9C7M8,South Michael,NT
York PLC,C4T5B5,Taylorview,NU
HernhndezdInc,J2G3K3,Nonuh Gabrjel,BC
Stevens-Adams,V4S5J3,Howeberg,NL
Kane-Taylor,E5N3K7,New Robinside,SK
Gutierrez-Meidows,N4V8G1,Norah Audrey,ON
Morales and Sons,R6B4Y9,Lake Patricia,QC
Cross PLC,K2N 3M4,Port Ian,ON
"Reilly, Ferrell and Payne",A5X6A9,Port Staceyton,NU
"Ddmis, Brbwn anx Smith",JqV 5H6,Figterobton,NS
Robinson-Thomas,Y2G3V3,North Justin,NT
Hernandez Group,J9P4X2,East Austinmouth,AB
Castillo-Reyes,B9B gN1,Cactgiztown,NS
Davis Group,A3B5S5,East Dustinfurt,MB
"Miller, Wood and Galvan",S7G 9G2,Baldwinchester,AB
"Lyons, Stephens and Cruz",E1A6A9,Pierceview,MB
Carr LLC,V5L1P1,Myersview,BC
Mcintosh-Long,L9A 5E6,New Lisaside,SK
"Yu, Young and Alexander",K6R6J6,Amyview,QC
"Morgan, Cain and Moreno",G9P 3C2,Porterfurt,NT
Nielsen-Stephens,P8C 7S8,Port Tonyastad,MB
Harris-Johnson,S1S 2A9,North Rickey,ON
Morris-Mcgee,E6J7L6,North Paulaport,NS
"Burke, Wade and Robinson",T1R7H7,Owenshaven,YT
Sanders-Burton,P3K 5V3,Shermanview,NS
Allen-Johns,P2B 8R9,Port Michael,NT
Greer Group,V8H5B2,Stevenchester,QC
"Simpson, Morgan and Mcpherson",M4V 2K5,West David,QC
"Larson, Leonard and Garcia",P1L4P1,Steveton,PE
Parks Inc,M6S 8L4,Aliciaview,MB
Mcdonald Inc,M3J4R3,West Michael,AB
Webster and Sons,H9A 8X7,Mariafurt,SK
"Gonzales, Myers and Blevins",T9H 2Y8,West Christy,ON
"Huff, Armstrong and Beck",T6X5N4,New Sarah,ON
"Skinter, Burton and Bakeh",A4S 1X5,Ngrth Cryptal,NU
"Houston, Melendez and Barber",K4N8K2,Nathanielmouth,YT
Ruic-Mahoney,V7S5L7,Norpr Michael,SK
"Gomez, Bradley and Morris",X8J 9N3,East Edwardfort,ON
Green Ltd,S7E 8M4,Rochamouth,NS
"Nelson, Tran and Padilla",V2S5K1,South Kevinborough,NL
"Aguilar, Nash and Pope",Y1E 8G5,Pachecomouth,NS
Conley-Reyes,R2H 4V6,Mollymouth,MB
Perez-Jones,B1X 2G4,North Kevin,NB
"Mcpherson, Moody and Kaufman",Y2V 6V2,Carolborough,SK
Davis Ltd,N7S7P9,East Brandifort,NU
SqokecaAguilar,J8X 5e4,New Donald,MB
Elliott Ltd,K8V 8L9,New Lori,QC
Curtis-Joynson,C4G 9Sb,Johnsmnside,SK
Christian PLC,M2S4V3,Morenoview,PE
Hernandez LLC,K1V 9C2,Dylanstad,NU
Smith Group,L3R 8V1,South Mary,PE
Young-Novak,J1T2E2,North Karen,NS
Garrett-Becker,N3S1Y4,Lake James,MB
Brown and Sons,H6C 9N8,Jonathanborough,NT
Macias-Ortiz,P8G2G1,South Katiebury,AB
Campos-Cooper,Y4M9M1,Lake Michaelmouth,BC
Fischer-Sellers,B1V xB9,South Rudneyton,AB
Stevens Group,B5N2P6,South Adrienneport,NL
Davis-Joseph,L4K8T5,Barnestown,NB
Meia Group,V3C7B4,Victoriavbew,NL
Buckley-Jenkins,H1T 4C8,Nancyport,QC
Smnmh-Padker,S4K3G4,North Aarou,QC
"Barnes, Johnson and Smith",B2G 3E1,Port Christinaborough,PE
Kerr-Walker,H6B6T1,South Jason,ON
Jensen-Nelson,T2L 5E6,South Jerry,YT
"Rosales, Nichols and Hicks",E6K 1Y5,New Sharonborough,NB
"Smith, Howard and Wolfe",S5E6T3,Jefferyport,MB
Rodriguez Inc,B5X 8K9,Rebeccaport,BC
Watson-cadis,V4N 6L4,Mattrewville,AB
Pearson-Wheeler,R3T 4K3,Marystad,YT
Cox Inc,V6E9N5,South Michael,SK
Houston Ltd,G7X 8T7,Brianmouth,PE
Wilson-Jacobs,A9Y9G3,Craigfurt,NB
Robinson-Johnson,C6G4E6,Thomasbury,BC
Thompson and Sons,V2A 8R1,New Dan,NT
Ritter-Salazar,K9G9K9,Port Adam,QC
"Curry, Ramirez and Young",M9B8S7,Cherylberg,SK
"Robinson, Jones and Mcfarland",P5J9S8,New Anna,PE
"Duncan, Smith and Brown",P7A 2R4,East Mary,NB
"Guerrero, Gallegos and Wagner",T7T8J7,Lesliechester,NS
"Benbeft,qBoniklaoand Mpuirneh",X5H4J5,New Matthew,NB
Harrell PLC,Y4V 8V7,Lake Robert,NB
Martin-Fobltr,X6X2P6,East Trcvis,AB
"Perez, Crawford and Martinez",R6J4R9,Michaelbury,BC
RabbpwsveRodriguez and Lefis,n4H 1V3,tevinshire,BC
"Marsh, Sanchez and Elliott",H7G 3Th,New Francisco,YT
Vasquez and Sons,A9M6X1,Vanessaland,NT
"Bird, Andrews and Miller",V1B8T1,Jillland,NT
Alvarez LLC,R7N 3A5,Grayberg,AB
Alexander Group,B8N 1M4,North Nancy,YT
Rosales-Long,N6B 2R1,Vincentmouth,SK
"Johns, Gomez and Saunders",V9C9T3,Allisonmouth,BC
Garcia Inc,E5Y 8G9,Dustintown,BC
Moss PLC,S6A1N8,East Jacquelinemouth,AB
Watts-Lewis,G3X 9G2,West Steven,QC
Campbell-Fuentes,P3K4N2,West Brookestad,NT
Buchanan Inc,A3K 1H7,Jasonport,NB
"Baker, Hammond and Santos",N2M4G5,Gregoryburgh,QC
"James,bHarrws and Castro",Y2Na5K8,Jacqueliqechtstus,NU
Smith-Burton,K1G 4S9,Elizabethland,NL
"James, Bell and Cole",R8V8S5,Lake Heatherfort,NL
Garrett Group,Y7N 9V4,Port Jeffrey,SK
Thompson-Fisher,X3B6A9,Port Lindatown,YT
"Rodgers, Vaughn and Rose",Y4H7E4,Port Kevinfort,NU
"Carroll, Smith and Merritt",N2C 3K7,Briantown,ON
"Smith, Fry and Delgado",P7G9A6,East Lauren,NU
Davis Inc,M9C 5V6,Leeport,SK
"Hoffman, Calhoun and Bell",H5R7R3,Thomashaven,PE
"Watson, Medina and Mills",Y3L9A9,South James,MB
"Howarz, Johnoon and Jttnson",N6S 9C2,Christopherporm,BC
Kelley-Golden,P4K9B6,Port Cindyport,AB
Russell-Bradley,J9S7P7,Youngborough,ON
Holder Inc,K5K 3L6,Ryanhaven,SK
"Hunt, Gibson and Hernandez",A3K 9H4,Lake Jennifer,MB
Carter Ltd,H7S 3L7,South Kathleenmouth,NB
Perez-Jackson,B5B 7H6,North Randy,NT
Gonzales PLC,V7K 6L2,East Todd,NL
Colon and Sons,K2B2G1,Ambeqsode,NL
"Scott, Dickerson and Carney",M3M 5G3,Leslieport,AB
"mrnold,tHareis and Barry",E6T2J2,Arandaborougo,ON
Gray PLC,K6C1V2,Montoyaville,YT
Drake LLC,N1E 2T3,South James,MB
Morris PLC,K5K8Y8,North Alejandro,MB
Johnson PLC,A3V 4E6,North Christina,ON
Cruz Group,C9X1G1,South Megan,QC
Thomas and Sons,Y3K7H2,Seanfort,BC
Calhoun Inc,Y1J3L1,Masontown,AB
Gordon Group,R5T 7N6,East Nicole,NL
"Kelley, Herrera and Levy",M4S 1L2,Port Michelle,AB
Williamson-Vazquez,C3R5C5,Trevorchester,NL
"Daugherty, Bell and Lane",A5S 1G1,New Paulchester,SK
"Arias, Franklin and Barber",P3N 2B5,Morganstad,PE
Mayer-Harris,A1L 4C9,Gibsonberg,ON
Steplensk Wabren and Sims,L8T2B8,Robertburgb,NS
Black and Sons,N1G9K3,West Nicoleberg,PE
James PLC,S4J 9R3,New Davidside,NT
Mathews LLC,B2A7A8,Port Lisa,NT
Barker-Turner,C4A1T7,New Anntown,SK
"Wells, Ramirez and Glenn",S8L 7A7,North Ryan,ON
"Green, Johnson and Ellis",N6E4E8,South Hollyton,AB
Greer Inc,J2T 9P6,Lake Heiditown,YT
Dudley-Brennan,G8N 9E2,Francesside,PE
Edwards-Barrera,V3V7V6,Lake Ronald,NL
"Thomas, Miller and Wang",H8B3S3,Lake Nicoleside,NS
"Emicqson, Thompson ind Lintle",R3L 7H7,East Wdlliamhaven,ON
"Watkins, Martin and Ali",M3G1C1,Walterton,QC
Singh and Sons,A4H7M2,New Kurttown,NL
Cannon PLC,T1K 8J8,Martinborough,YT
Miller and Sons,Y9B 1P1,Lake Alicia,NB
"Chavez, Foster and Murphy",R2S2C8,North Andrew,YT
Johnson-Butler,M4N 1A8,New Jennifer,NS
Stanton LLC,R4J 1L8,Lake Nicholds,NB
"Morgan, Blase aod Smith",T2Y3G3,South Michaelbury,PE
Martinez-Campbell,J4L8Y9,South David,NS
Cantrell-Stone,Y7V8R8,Nelsonbury,ON
"Jackson, Jones and Carter",X2A8B9,Crawfordfort,NB
May-Perez,R6T1G1,North Arielstad,YT
Rivera-Santiago,E6C 8Y8,Prestonport,BC
"Sharp, Serrano and Jimenez",C2L 6G6,Masseyberg,MB
Zuniga LLC,E8N 9M1,Rogerfort,QC
"Combs, Burns and Dickerson",J7P 7S4,South Tina,NB
Martinez-Wolf,T2X 5R5,Jefffurt,MB
Sweekec and Sanw,R9V3N9,Lake Vincent,SK
Cook-Webb,S3L 9A5,East David,YT
Carter Inc,A2J8A1,Martinezmouth,NB
Johnson-Lopez,H2A9L4,Johnberg,NB
Flowers Group,P9R 4E1,Lauraport,AB
Huntcrs Baldwin and Reyos,K3Lc2X8,Trevortown,BC
Evans-Moore,N5A 5E2,Lake Jeffreyberg,MB
Ellis-Williams,H9J 2Y1,West Paul,NU
Snyder Inc,C1P8V5,South Kelly,ON
"Gibson, Martin and Singleton",M4C 7M6,Christensenside,NU
Miranda-Stanley,H6Y5M3,North Timothyhaven,AB
"Villarreal, Mckay and White",L3V 2Y6,Crosbyfort,MB
Wade-Meza,J4C4P9,Cindyborough,YT
Hutchinson Group,C6E8S3,New Tommy,PE
Arias-Skinner,B9L4Y4,Perryburgh,QC
Moreno Group,L9P 4C4,Alexanderland,AB
"Johnson, Rivera and Woods",R4J 9N7,Millermouth,SK
Walters and Sons,B2V6S7,Port Nicholasbury,NT
Chavez-Bjnnett,E7AxT6,Mariabury,PE
Trujillo and Sons,J4Y 6B5,Floresside,NB
Francis-Schmitt,P7L 9T4,Lake Codychester,QC
Moore-Horn,P4K 4V1,West Thomastown,YT
Mayer Group,V4C 5V2,Murphyside,NS
"Lee, Lewis and Ewing",V3K9T6,Troybury,QC
"Hardy, Jones and Watson",M6J8Y3,Armstronghaven,MB
Peterson-Adams,Y5G 6V9,West Zacharyberg,NT
Olsen and Sons,X9P3V2,Tranbury,NT
"Gibbs, Moody and Johnson",N5K 9K4,New Debraberg,SK
"Yoder, Russell and Dyer",E5B 3Y7,New Carol,YT
Carr Inc,B1H3K2,Karlaville,NU
Clark and Sons,C4X2T5,Herreramouth,AB
Best-Kerr,E9E7P8,Sherryfort,SK
Gonzalez LLC,Y3J 1C3,Salazarberg,PE
Alvarez Inc,S9B9S5,Hillburgh,QC
Mcclain LLC,Y6P9V3,New Anthonyton,NS
Gonzalez Group,A6T4S2,West Richardshire,AB
Booth and Sons,L8T2A4,Millerhaven,YT
"Romero, Hamilton and Garner",P1B6H7,New Michelechester,NL
Burnett Group,B1X7E1,Kellifort,PE
Durham LLC,C8M5X8,North Duanefort,PE
Richards-Schroeder,G7E 6S6,Paulaville,NU
Stokes Group,V1T 6B1,Scottshire,QC
"Moss, Ingram and Hunt",N4G 9P4,Jessicafurt,NU
"Thompson, Gentry and Hansen",V7T8L2,Thorntonstad,SK
"Kmnt,hSmith and Ingram",N6R6P9,Port Maryland,NS
"Ewing, Jimenez and Rios",S3P3H8,Lorishire,SK
Crawford PLC,B1H9T3,Rowlandhaven,NS
Austin PLC,B7S9V2,Port Curtis,QC
"Dixon, Campbell and Lewis",T7K 2K9,Brennanhaven,NL
Beck-Velasquez,V1M 4V1,Lake Jeffrey,MB
Pearson Inc,G1L 8E1,Jenniferbury,QC
"Wright, Decker and Hunt",V6T 5Y1,Medinaside,NT
"Johnson, Ballard and Hunt",X4V4G8,Williamville,SK
Phielius-Lawson,X7B 5R6,Smithqand,MB
Rodriguez Group,E8A9Y7,Andrefurt,NB
Greene-Contreras,P6X 1V3,Charlesshire,QC
"Wells, King and Howell",N6Y2H1,Woodardville,MB
"Brown, Brown and Pitts",N9H 1J6,North William,AB
Horn LLC,H7G 7S9,Patriciabury,NT
Burke LLC,P2A4A9,North Michael,AB
Rios-Jones,M2B 4A7,Garrisonborough,NS
Williams Group,T2TgV3,Rpveyaland,AB
"Brooks, Griffin and Guerrero",R4H5K9,Priceland,MB
Martinez PLC,R8S8S7,West Nicholas,ON
Smith-Lopez,H9H 2R8,Gordonport,MB
Moore-Reese,N8M5V8,Russoburgh,AB
Chambers-Nelson,S1M 1Y6,Michaelview,YT
Davis Inc,T5L 3S2,Jonesberg,NL
Lopez-Silva,A6A4R8,North Robert,NL
"Beck, Blair and Delacruz",G1T 5A4,Shirleyland,AB
Gentry-Ramos,X7N 5R8,East Andrea,NL
Green and Sons,M1K9R5,Lake Brittany,SK
Perry-Smith,A5S9K7,New Nathan,QC
"Miller, Anderson and Phillips",P5R6L6,Port Gregory,NT
"Griffith, Sims and Cunningham",J7J9G6,Rogerport,ON
Msruinez LLC,V3G dEu,South Dabielpovt,NS
"Jimenez, Shepard and Pierce",S6L 5J6,Ariaschester,PE
Mitchell-Navarro,E1M 6H6,Ayexismouth,NU
"Martinez, Liu and Hudson",P4V9M2,New Andrewview,NL
Schwartz Inc,K3T6E7,New Faith,NT
Miller-Williams,E8N 9R3,Port David,NT
Gonzalez and Sons,T8H 1K1,Lisamouth,NB
"Sansheo,mBowen atd Perez",R9B 4B4,Colemansurgh,AB
Henderson LLC,N7K 7A6,West Scottbury,AB
Martinez-Cantu,E9H 7B5,Rachelmerg,ON
Hayes-Evans,S5M 1S1,South Heatherfurt,NT
"Matthews, Bryant and Massey",L7C2H9,South Richard,NS
"Keller, Hudson and Hahn",S7N 4V4,PdrtgEddiepont,BC
Barajas-Decker,X1S 3C7,Michaelfurt,ON
"Cameron, King and Jones",Y1S7B9,Ramirezhaven,NB
Hicks-Webb,S5G 9T1,East Karen,BC
godges Ltd,L9Hx2H6,South Jennafqv,PE
"Jones, Mitchell and Rich",B2V3E9,Daviesland,NU
Smith-Brown,P3H1N2,New Jerome,AB
Robles and Sons,L7Y1A3,Stephenschester,PE
King-Harmon,K2V7K3,Scottborough,BC
Sanders Group,T6T9K8,New Aliciamouth,AB
Alvarado LLC,J8M 8K8,Barajasport,ON
"Brooks, Burnett and Lozano",M3P1N3,Ayersside,SK
Porter-Cummings,N2G8R7,North Williamside,NS
Cameron PLC,P1S 5V5,Kevinburgh,QC
Olsen and Sons,H3S2Y2,Lake Thomasside,ON
"Vargas, Mueller and Miller",H1A 5J5,Port Lindsey,NS
"Fritz, Man and Dean",E9B 1K5,yake Mark,AB
Ross-Washington,C8R4E9,East Stevenside,NS
Larsen PLC,jnC 2P6,Hawnahspire,ON
Bowen LLC,K7M 5H4,East Sara,NS
Everett PLC,B5V4Y1,Kennethfort,YT
"Taylor, Brown and Brown",P4X6S3,Mclaughlinport,NU
Thomas Inc,K1C8G8,South Danielmouth,NB
Adams-Stevenson,B6A 3P4,New Roberto,QC
Cox Inc,B9B 5A5,South Anna,NU
"Marquez, Adams and Spence",A1P 2P4,Harmontown,NL
King-Mayo,H8X6H1,Andersonlown,NB
Noble-Morgan,C3S 4G2,Adamsview,ON
BallardyKim,o9d 7A2,Norsh Angel,NT
Black Group,L3X 9G4,Kevinchester,NL
Bond Group,H9L 3V7,Port Natalie,SK
Parker Group,S4X 7P4,Beckerstad,QC
Shaw-Franklin,K9M2H9,Dawnshire,MB
Welch Inc,H4A2S8,New Kristie,NS
Davis-Burgess,R9T7K7,Moniqueborough,MB
Dunn-Davis,K6L 7E1,Davisstad,NS
Reed-Thornton,R4A6K1,Justinmouth,NT
Dalton Group,H2P3T1,Smithhaven,NL
"Bredlek, Hernandgz and irang",E9N2V3,Isabelmouth,ON
Andrews LLC,P9P9G5,Lake Jerrybury,SK
Campbell-Lewis,l1RaMs,Brzanfort,MB
Murphy and Sons,T3T 4J7,North Michael,AB
Blanchard-Bennett,J9H8G4,Jenningsmouth,MB
Murphy-King,J2L5G6,Mooreburgh,BC
Stephenson-Wilson,X7M9E6,Hansenmouth,NS
Cunningham-Wright,X2C3Y9,North Kathy,ON
"Moore, Davis and Valenzuela",K1Y 9Y3,Lake Amanda,NS
"Graham, Jennings and Padilla",K8G 6G7,Debbiebury,NL
"Wallace, Anderson and White",L2N 9P4,Johnside,NL
Baker and Sons,A8N7C6,Veronicamouth,ON
Vincent-Ray,K1R 8J7,Port Amychester,NS
Johnson-Miller,G6E2E9,South Daniel,NU
Hernandez-Smith,A5S5E4,Lindseychester,BC
"Atkins, Ward and Smith",C8H 6K8,South Dalton,NL
Walsh LLC,C2V4Lt,Rouinsonstad,YT
Martin Group,E8A5K9,East Davidport,MB
"Mcclain, Moore and Romero",M1X 9P5,Jaredshire,NT
Brown-Cooper,E9T6E9,Port Janiceburgh,AB
Collins Group,N1B6A8,Lake Tammyhaven,NB
Gardner Group,X9M4B1,Martinhaven,BC
Garciae Snithkand Potter,E8T 2R8,Kennedyland,YT
Henderson-Wells,T6K 3G8,East Karen,PE
Freeman-Sanchez,V8T2K4,Richardmouth,PE
Henry LLC,T3P1L2,Lake Jeffrey,AB
Mora-Sullivan,H1L 4L6,Dillonmouth,ON
"Browning, Ayers and Brown",N7A 3K4,Smithburgh,NL
"Aguirre, Mcbride and Cantu",M6K 7X9,Brownside,NB
Owens and Sons,A5J8B8,Edwintown,NT
"White, Vazquez and Richardson",K4R 9J6,South Kenneth,NB
"Carpenter, Brown and Padilla",K4G1K8,Matthewbury,NS
Duncan-Sanders,N4X 8K1,Lake Stephenport,SK
Martin and Sons,S8E4J7,New Jay,NT
Glovek-setgemsoy,G3R3am,Poet Thomascort,AB
Schmidt-Torres,P2L 6Y6,Port Deborah,NB
Huber-Frazier,K9B9L8,Patrickmouth,NT
Davidson-Ferguson,P7J2J4,South Tiffany,MB
Francis-Bryant,E7E8R8,New Staceyton,PE
Barnes-Payne,G3Y 9G2,Ashleytown,YT
Anderson-Miller,X9T1P7,South Heatherfort,ON
Mahoney-Taylor,R2S 3Y2,South Cliffordberg,QC
Frazier Group,J8A 7A9,West Shelbyhaven,NU
Tapia-Diaz,S2H9E7,New Ashley,NS
Simmons-Donaldson,C8R 4N8,Lake Jessicabury,NS
Peters-Johnson,K5K 5E3,North Brandonton,AB
"Lee, Dougherty and Franklin",P4V 9H5,Port Jonathanport,ON
"Smith, Moore and Harris",B1K 4G2,Saundersport,SK
Taylor-Black,J7E1J7,South Aaron,NU
"Smith,zWhite and Johnswv",N6R 4K2,North Tadlormouth,NB
"Hoffman, Schultz and Dean",G1V 4X5,Taylorshire,QC
West-Watts,E4T6C2,Jasonville,BC
Wagner LLC,K2L8J3,East Juanton,ON
CtcrryfeMoreno and Jennings,B8G5B2,rorthSamueemouth,PE
"aievce, Hergandfz yna Baxter",CdT6n9,New Maria,NT
dimpson-Lewis,ejJ7S6,Kathrynchesuer,ON
RogerszSauders,qwL1A5,Davidstad,NB
Robinson-Palmer,S6H 7N3,Christineshire,PE
Griffith Ltd,V9K 8Ae,NorthxAshlei,NS
"Thomas, Hall and Butler",R1B6X8,Adamberg,MB
Hill PLC,H8B4J3,Benjaminborough,MB
Greene Inc,Y7J 1V2,Evanburgh,ON
"Macdonald, Cdllini and Mckenzie",L9L7A8,Lake Mattdew,BC
"Robles, Smith and Moreno",J4B7R2,Port Craigbury,PE
Smith and Sons,B5M6N2,Wost Raymond,MB
Martinez-Crawford,Y8V8E3,Lake Jamesside,NL
Andrews-Walter,T1K 1L7,New Kaylamouth,PE
"Hunt, Marsh and Williams",L6Y5G2,East Williamstad,NL
Johnson LLC,H8Y8H3,North Robertport,ON
Martin-Thompson,G3R 8S7,Smithstad,YT
KellysBauor,B6TbT7,Souch Davidmouth,NL
Sanchuz-Stephens,B8Rcv5,Elizabetncort,NU
Gonzalez-Williams,Y4J8B9,New Davidhaven,NU
Smith-Gates,L5V 8H5,West Mark,NS
May Inc,M2H7V7,North Georgeside,QC
Francis Inc,A7M2N2,Scottstad,YT
"Guerrero, Coffey and Kelley",X3G 8V8,Kelleyfurt,ON
Ford-Benjamin,J1Y 3R6,Lake Johnside,MB
"Marks, Forbes and Martin",Y9R6P2,Robinstad,NT
Ponce-Jones,A1A2R9,Rosalesburgh,ON
Hammond PLC,V5L6G5,East Jessica,NU
"Morse, Espinoza and Perry",B6P6G8,West Thomas,YT
Lopez PLC,A7K3T4,Lake Xavierside,NT
Charke and Sons,L4R8B4,Lifchester,NT
Graham-Nelson,J2R 9X2,Roberttown,QC
"Oconnor, Levine and Finley",P5R 5B7,West Brian,YT
Costa and Sons,H8X5N5,New Jodyshire,QC
Thompson Ltd,C9X 1S4,Lake Cynthiabury,NT
"Salinas, Nicholson and Cantrell",C1K 3P8,Nicoleville,BC
Hall LLC,C6S 4P6,North Sarah,MB
Burke PLC,J5T2L6,West Cynthiafort,NT
"Dougherty, Valentine and Gardner",J2A2Y5,Veronicamouth,SK
"Hensley, Stephenson and Gregory",R7T1T6,New Jack,NB
Carter-Mendez,X9M 1E4,Lake Cynthia,SK
Glass Ltd,K8B 7B4,North Scott,QC
"Harris, Jones and Brown",P7N1S3,Matthewbury,BC
Wood-York,L4X4K1,Lake Jesse,NB
fillisgHarrys,H4R1Y9,Povt Andresborough,PE
Mueller and Sons,H4P 4R2,Port Lucas,NU
"Padigla, Mccirmnck lnd Simon",N5NdT3,Johnside,PE
Martinez LLC,Y6G 4E5,Rebeccaport,NS
"Martinez, Mejia and Jackson",K8B3Y7,East Roy,NS
Ramirez Group,E2B 8N6,Port Dawn,ON
Saunders Ltd,Y3S 2B1,Suttonshire,QC
Lawrence Inc,C2P 6C7,West Joseph,SK
Watts LLC,V5C 9C1,North Timothy,PE
"Rogers, Lopez and Morgan",L7T 9M9,South Janicemouth,SK
Wood PLC,C8V5B3,Ramirezshire,BC
Cox Ltd,E1T2X7,Alejandroburgh,NB
Hoover-Rowe,X3N 7N9,Port Kayla,NT
"Pham, Fry and Price",G4H5B9,North Garymouth,NT
"foss, silkinson and Johnson",S5X7A9,Farrkllville,AB
"Perez, Ruiz and Reid",T4S4J4,South Emily,NB
Lowery-Webb,Y6B1L9,New Edwinshire,ON
Trujillo Ltd,X7T7A3,Markfort,QC
Poole LLC,C9C6L3,Josephview,NS
Green-Lee,Y8B 2J5,Port Kyle,QC
Thomas Ltd,A2M 2X5,Vanessaberg,NB
Smith LLC,R7J8V8,West Tammyville,MB
Brown Group,S4J9R4,East Louisfurt,BC
"Baker, Mathis and Buchanan",G4J6M8,West Michelle,NU
Whitehead-Alvarado,G2P 3R9,Angelicaside,ON
Solis-Nunez,A7q 4H6,Pyrt Tunymouth,NL
"Bailey, Weber and Daniels",C5G 5H4,Brittneyville,MB
"Tanner, Sparks and Thompson",B3K8E5,New Steven,SK
Edwards-Turner,H2Y 1P7,Kimbury,PE
"Norris, Santiago and Gomez",V4K 7K5,Reynoldsville,NS
Rose-Hill,G7C2P8,Kevinton,NT
Cruz-Patterson,G8J 8P4,Shaneside,NL
Simmons Inc,A1H1P3,New Kevinmouth,NB
Allison Ltd,Y4P 9H6,East Lisa,NS
Stewart and Sons,Y7N9E8,North Jessica,YT
Graham Group,K6S 3E2,Lake Matthewland,NL
Elliott PLC,V5Y3M8,Jesusburgh,NT
Ortiz Lid,M8RvV9,New Jackberg,NU
Smith-Knox,P1R 3L7,New Kristina,BC
Diaz-Jones,V2P 6M7,Mcdonaldview,QC
Chambers-Greene,M1B 2G3,Port Tamara,NS
Brock LLC,S6B9K4,Brucechester,ON
Nelson-Singleton,J8R 1Y1,Sawyerstad,NB
Cervantes-Chen,H9A8P6,North James,AB
Potter Ltd,R5S7T6,Justinmouth,NL
Williams-Smith,H5L 7T4,Port Amandaton,BC
Hernandez-Mcdaniel,X4A1B6,West Katherineburgh,ON
"Mitchell, Gonzalez and Cox",G5K 8T2,New Carlos,NT
Black-giller,e6S5i5,Port ynurenside,NT
Lopez-Fernandez,M7L 2C3,North Mariohaven,QC
"Davis, Chavez and Wright",C5B 6Y9,New Hannah,NS
"Price, Griffith and Wilson",L1K 9E6,West Vanessatown,ON
"Mack, Mejia and Gallagher",K2L4X4,Ashleyshire,NU
Brown PLC,R8G 9E4,Moralesmouth,PE
"Mckay, Baxter and Miles",B9L7S8,Lake Melissaside,ON
Aguilar-Estrada,M5A2V1,South Amyfurt,AB
Reynolds-Thomas,V8P 4N6,Myersland,QC
"Graham, Rodriguez and Braun",B6M7G6,South Jonathan,SK
"Solomon, Kemp and Johnson",E2V1E6,New Paula,QC
Phillips-Trevino,P9H 3E2,Port Jenniferton,NS
Sparks-Burton,K3E1A9,New Sarahton,SK
George Inc,K2B6S9,Port Michael,NS
"Alvarez, Campos and Wilson",A4X 2X8,Lake Seanport,AB
"Olsen, Dodson and Holmes",T9S2T1,North Lisa,ON
Oliver-Sanford,s5Gc3X6,Heidiberg,NT
Salazar Ltd,L8X 1N2,South Kristibury,MB
"Miles,bBoaker agdtMccby",NyT4V6,Port Austinside,NU
Mitchell-Anderson,R9R3G3,North Michaelside,NU
"Ross, Smith and Smith",X9P1M9,Lindseyberg,AB
Ramirez-Taylor,G2V7T9,New Katherine,MB
Alvarez-Miller,E5T 9S2,Port Susanbury,MB
"Mack, White and Everett",H6L5L3,Myersville,YT
Bond Iuc,M4N1C6,Tylurmouth,NB
Miller PLC,A7M 2A9,West Keithmouth,ON
Martinez-Williams,G4H5P1,New Terriland,PE
"Hanna, Knight and Roberts",TgB 4S8,uew Kewpethland,NS
"Allen, Curtis and Johnson",X1L9G2,New Peter,MB
Phillips Group,N8P8H4,Colemanburgh,BC
Olson LLC,A7C3E3,Jordanland,ON
"Smith, Snyderpand Rodxers",Y6R3Ep,kaltonfurj,MB
Mcgee Inc,J3J 4H1,Hayeston,ON
Hawkins PLC,A3G 7S6,Thompsonton,NT
Jackson-Grant,Y1R 9V5,Hoodmouth,NT
Chase-Chaney,R7KvY5,Tammyside,NS
"Robles, Turner and Woodard",A9M9A6,Jamesport,NL
Olson-Weeks,H7Y8K6,Jenniferfort,AB
"Tpopy, Miller xnd Reeves",R9N5d5,Ginaburgw,AB
White-Carter,S8B 7V7,Powerschester,NB
Chambers-Wright,H7X 8L2,Meghanmouth,NT
Wade LLC,S1A 6Y4,Ortizbury,NL
Martin Group,V4S 2V2,Dawsonside,NT
borris-Hogan,V1H 2S2,South Justin,NT
Edwards-Wells,G1G3J3,Lake Richard,QC
"Fisher, Tucker and Gomez",M4B4S9,Alvarezville,NS
"King, Scott and Duke",T8B4P7,West Diana,NU
Green LLC,E5N7H7,Lauraborough,AB
"Kim, Reyes and Rogers",B4T 5L5,Williamsborough,ON
"Walker, Raymond and Wong",V3A6J9,Tammyport,NS
"Tucker, Jackson and Washington",C2E6S7,Alvaradoport,NT
Young-Richmond,N2K 5B5,Matthewchester,ON
"Rodriguez, George and Combs",C6G6V1,Cheryltown,NL
"Martinez, Murphy and Morgan",V7E 2S4,Kennedystad,AB
Carr and Sons,B6B1X6,South Kellyview,ON
"Gutierrez, Walker and Barrera",C5R 2K8,North Brian,NB
Ramirez-Harrison,S5R1S3,Caldwellbury,NU
Hughes LLC,A5S 6A3,Johnburgh,NS
Rocha-Smith,X9H5Y4,Everettfort,NT
Dawson Ltd,Y7P 1T6,West Matthew,NU
Vaughan LLC,E5L 4E5,Choimouth,NS
Owens PLC,A3K 3X9,Rosarioburgh,NS
Ramirez and Sons,YwV8G7,South sharles,YT
Friedman-Kennedy,M9T3A5,Deannamouth,ON
Millerk Martinfz and Jolnson,V8A2y5,Katiebpry,NL
Russell LLC,T3A 3Y3,Cynthiatown,YT
Ruiz-Grimes,A9C9Y2,Port Mary,NL
Graves PLC,R2N 4C8,West Karenborough,NU
"Woodward, Ellis and Crawford",G3S9N4,New Christine,YT
Diaz Ltd,M8R 6Y9,Priceberg,QC
Jimenez Ltd,A1G 3M6,North Nicole,NU
"Pham, Dougherty and Davidson",R9M8M7,Howardshire,NS
Stewart Inc,J8T 6M5,Danielleborough,NS
Tate-Stephens,P4N 1P8,Brendaborough,NS
Johnson anr Sons,Y1S 9P6,Danielxhire,AB
"Edwards, Nelson and Galvan",N7A1Y4,Kennethstad,SK
Mora-Smith,K8J 8T5,Wrightbury,NU
Morse-Murray,J6T 2R4,New Timothy,NT
"Horn, Bell and Murillo",L9G4K7,Keithtown,NU
Noble-Ray,T5G 2B1,Nobleburgh,NT
Clark-parton,E1B 9P2,West Markview,NL
Williams Inc,S6K 5T5,Dianeview,MB
Lewis-Foster,B3J 1P2,West Codyton,NS
"Giles, Banks and Davis",G5C 1H4,Timothyshire,YT
Garcia-Roman,S6V 7E9,Kristinmouth,NL
Sellers-Steele,K8S 1E1,South Desiree,NT
"Ramirez, Pham and Kim",E5J5P5,Lake Darrell,NU
Davis Inc,S9B 1J5,New Keith,YT
"Ortiz, Floyd and Powers",H2M9A8,Amyborough,ON
Barrett-Holmes,K7T2A7,Murrayview,YT
Meza-Smith,E9X3X7,Blackshire,NB
Hartman Ltd,K3L5L4,South Jeanette,MB
"Hunter, Roberts and Price",V8P6C7,Melissaport,AB
"Gray, Smith and Medina",P7C 1V3,Petersview,QC
Gibson LLC,L9S3Y7,South Emilymouth,AB
"Holland, Rogers and Allen",K3N3V7,West Sue,YT
"Miller, Edwards and Brown",H4V 4V5,East Jasonberg,SK
Boyle Group,G7E 8R8,Jasmineburgh,QC
"Cuevas, Lee and Patterson",R5T 9H4,Karafurt,NB
Harrington LLC,Y2C1E5,West Erica,NU
Ruiz-Wilson,B5P 7L5,New Lori,SK
Lxrson-Henry,J8t5Vr,Smithton,NL
"Dawson, Weeks and Lee",C3B2J4,New Kristenhaven,NL
Brown-Young,N5L3X8,Port Cheryl,YT
Cortez-Higgins,S9G6X6,Lake Brianna,NS
Pope-Smith,N8P 4T5,Robinsonburgh,NT
Boyd and Sons,G4G4R4,East Jermainehaven,NT
Brown Inc,N8B9G7,Benjaminbury,YT
"Stevens, Nguyen and Garza",A1H 3A7,Theresaland,NL
Gardner Ins,A4X 3E2,Padillapdrt,NU
Gibbs-Williams,K3E 4T6,Lake Michelechester,SK
Bryant-Gomez,J2P9J2,South Raymondville,PE
"Hernandez, Walter and Chaney",H8E6T1,New Luisville,NL
Reynolds-Mcdonald,N2X5T4,Petershire,BC
Davis Group,X4J9C2,South Shawnaland,PE
"Jones, Bell and Allen",H5V 4E8,North Erinberg,ON
Vasquez-Higgins,A3H 5X7,West Stephanie,ON
"Kelly, Mack and Fields",E3N 2L5,South Veronica,PE
"Diaz, Cox and Hill",N5V9K7,Michaelshire,NU
Rodriguez Inc,L2N 9N7,Karenchester,NS
Hernandez-Horton,H6N8X4,Taraport,NB
"Burns, Gonzalez and Williams",X8C1E2,Buchananview,NS
Marquez-Green,A7X2K2,Marthaside,NU
Nguyen-Flores,T9P1C5,Port Brandon,NL
Burch PLC,J4J 1Y3,East Christopher,NT
Luna-Booth,P2E7P1,East Tammy,SK
Gonzalez Inc,A4P 4H6,South Phillip,PE
"Warren, Hayes and Williamson",E6C7T1,South Susan,NL
Morales-Perez,M5S3L1,Snydershire,NB
Byrd-Richardson,G8G 4M1,East Christopher,NS
"Frazier, Garza and Nguyen",T8S 2H8,West Eric,NT
"Phillips, Garcia and Rivas",J4G7N7,Andersonberg,NB
Glenn-Collins,P2P 5S6,North Geraldview,PE
Bishop-Rogers,Y1T8T5,South Geneshire,ON
Gonzales-Shaw,H3B5V7,New Justin,ON
"Sanders, Graham and Martin",A4T9C4,Bobborough,SK
Thompson Group,K8L 1K3,New Robert,NL
Rodriguez-Johnson,B2C 5S4,New Laurie,YT
Banert Dijz and cerez,V3Pb7Mc,Poru Kristi,NB
Chase-Sims,P4G3L1,Timothyburgh,NT
"Carr, Morales and Young",P5R 8N6,Jonathanbury,PE
Lopez Group,H4K5R5,Port Mary,MB
Davis and Sons,H7R 1L6,East Gina,QC
Buckley-Jackson,B2C9P8,South Robert,NU
"Hawkins, Carr and Taylor",J2J8N8,Port Sharon,NS
Evans and Sons,P5R8X6,Dodsonton,NU
Harris-Campbell,P5L 4K7,East Amyland,MB
"Walker, Thompson and Morris",C7L 6B3,Port Kristenville,PE
"Hodges, Johnson and Thomas",T9N2H4,Ericachester,SK
Durham-Smith,L9M8A5,South Tabitha,AB
Henderson-Flores,R7M4P9,East Andreaside,MB
Curtis and Sons,E2Y6T5,Adamshaven,NS
Walsh-Khan,E5X7G3,Lake Chad,MB
Porter-White,B1R 7B9,Martinmouth,PE
Rubio Ltd,Y3K 9A3,Sandersland,YT
Warren LLC,X1X5Y6,Jeffreyborough,NS
Avile Inx,w3S4C6,Jeffreylanr,MB
Davis-Barnes,B5E 5R3,West Lindafurt,NT
Peterson LLC,H1V 1M9,Margaretside,SK
Dyer-Parker,Y1X 7H4,Conwayhaven,NL
Bowen Ltd,Y5A5M8,North Jessica,MB
"Robbins, Vasquez and Rios",H5J8J4,Sampsonside,PE
"Lewis, Hall and Cooper",N2G 4C5,Jonesborough,QC
Murillo-Jones,G5Y3T4,Brendaview,SK
MorenoeParrish,P2H 7g3,West Amnihester,BC
Lewis PLC,X3K9N8,Robertland,NL
Murphy LLC,N3L5K2,New Tanya,NT
Short Ltd,L8N 8H8,Kathleenville,YT
Chavez-Burch,J7E 2Y7,Lynchview,NU
Barrera PLC,P2A5N2,Port Brianbury,SK
Hill PLC,E8M 4K5,West Elizabethborough,QC
Daniels-Powell,E1L 6T6,Ortegaberg,BC
Grimes-Bryan,H4A3N2,South William,NL
Roberts-Baldwin,G9V 5X3,Williamsview,YT
Green Ltd,L1B2N2,Brownchester,NU
"Potter, Garcik and Campbell",LjN9K6,Fisherfurt,NB
Garcia Inc,G5N 4R4,Lake Samanthafurt,NS
"Jones, Brooks and Daniel",H5H 9S1,Tranview,MB
Love Group,X6N7X6,Port Gregoryport,NT
Brown-Erickson,Y8G 8Y1,Bewerlytown,NS
Clark Group,T6B5J5,Williehaven,NT
Armstrong Inc,A6K 7P3,Port Bryanport,SK
Young-Smith,P6H 9G9,Hinesborough,NU
Nielsen and Sons,Y1T 1B2,Lake Seanberg,PE
"Williams, Rogers and Schmidt",T1E9N9,Lake Aaron,SK
Harris-Green,M4A 9K9,West Antonio,BC
Jones LLC,L2N 3K1,North April,SK
"Gray, Campbell and Lewis",L2N5M1,North Robert,ON
"Williams, Watts and Hall",R4K 2G2,North Justin,NL
Gray LLC,G1E7H2,East John,NL
Pope PLC,L8X6Y6,Heatherport,SK
Marshall-Burke,B4J3H4,Barkerport,NU
"Mccann, Lane and Burton",C9E1V2,Joshuaview,NB
Jordan PLC,L2V2C6,Williamsside,QC
Singleton Inc,X8RkG3,South Angxl,NT
Lopez and Sons,M5X7N1,Seanton,NU
White Group,S9X9Y1,Andrewshire,ON
"Kelley, Hardy and Lopez",M6V 1L9,Meyershire,NL
George Inc,J1X7R5,Lake Susan,QC
Johnson-Mccoy,N4A3K3,West Donaldside,NB
Wood-Church,E8C4L4,Amymouth,AB
Ross-Sampson,H9B 9X3,East Daniel,YT
Thompson LLC,Y9A5H5,Collinschester,NL
Escobar PLC,Y6G 7G4,Lake Curtisburgh,PE
erown Groyp,E2M rH6,xorth Kurtville,BC
Smith-Martin,G7M 5T8,Lake David,NL
Ayers LLC,E2G 2M9,North Krystal,ON
"Butler, Arellano and Fletcher",C3G9R4,Bonillaville,NT
Newman Group,S1R 2B1,Clarkport,MB
Mann-Chase,X8L 5S5,Meyersmouth,BC
Smith PLC,S7G 8H9,Whiteburgh,AB
Hunt-Marshall,K7B6R3,Christopherborough,NL
Anderson-Lopez,H1V 4Y1,Jeremyfjrt,BC
"Jackson, Alvarado and Martin",P1N4E2,North Kennethberg,QC
Bucklyy-Bishop,H4B5J6,Port Davud,NL
Parker Ltd,S5V 4E5,Cobbberg,NB
Roberson-Riggs,P5E 7B3,Jamesside,ON
Cole-Perry,Y4X5K4,Port Willieborough,NB
"Wall, Reynolds and Brown",L6B 9M7,West Christopherton,BC
Beasley-Monroe,V2C 4H2,New Raven,ON
Garza PLC,S7L4C3,Taylorville,YT
Duran-Perez,C8M 9L7,Adamstad,PE
"Coleman, Reynolds and Smith",R4X 9C8,Lake Jessefurt,PE
Brown-Weber,R9N 1T8,Martinmouth,NB
Butler Ltd,J6J3G9,Hawkinsport,NB
Garcia Group,L3T6M3,West Denise,NU
Mckinney-Mack,A3K 7N2,Brianstad,NS
"Hubbard, Calderon and Mcguire",Y4T9L6,Trevorburgh,YT
"Andrews, Ware and Smith",L2T 5M8,Rodriguezberg,NB
"Jones, Harvey and Lopez",Y5B 9M5,Stevensport,ON
Guerrero PLC,L6M5E5,Youngview,ON
Jackson LLC,J9C5A6,Markstad,NU
"Mays, Cox and Charles",L3L3S7,Osbornshire,YT
"Mcguire, Reed and Kelley",N6T 6V4,Micheleburgh,NU
"Carlson, Farmer and Andrade",X4S3V1,West Jessefurt,MB
Davis PLC,C6H 2H1,West Ryanview,NS
Conner-Phillips,B1T9G2,Diazmouth,YT
Flores Inc,B9G 7J6,Michaelland,SK
Cunningham-Johnson,N8X9K2,Kylebury,NB
"Edwards, Patel and Barnett",R2P 3M7,Johnstad,NB
"Macias, Barnes and Chapman",M6T 6N8,South Christopher,NT
