business_name,postal_code,city,province
Collins-Simpson,A7L 1L6,Port Rebekahhaven,PE
mefersfn-Brswn,f4M9P8,sbw Beverlyttn,PE
"Perez, Howard and Pearson",C9H 2C1,Matthewhaven,YT
Moss-Becker,K8B 4A9,North Jasonfurt,AB
Roman-Black,K1V 5R7,Mayborough,PE
Hopkins Group,C4M 4Y7,Maxwellstad,MB
Crawford and Sons,C1L2V6,Samanthaport,NB
Garcia-Roman,S6V 7E9,Kristinmouth,NL
"Parker, Mendoza and Young",L9K 5J7,Lake Mckenzie,SK
Mckenzie-Barton,P1K 8H9,North Kevinfurt,MB
"Rogers, Smith and Carter",A7N 2G2,Reynoldsport,MB
"Raymond, Bryant and Dalton",C9J2Y9,Melanieberg,YT
Grifwithqecims and zunningham,J7flG6,Rogerport,ON
Henderson and Sons,J9B 3T6,Harveyville,YT
Guzman Inc,A5H4Y6,Whitehaven,NB
Harris-Harrison,X2B4Y2,West Brian,NL
Cross and Sons,P4N 2P3,South Erinland,SK
Cunningham-Johnson,N8X9K2,Kylebury,NB
Simpson-Moore,E2J 9L9,Christopherberg,NL
Perry-Wallace,J1H6X6,New Garrett,NT
Bowen LLC,K7M 5H4,East Sara,NS
Smith Inc,M7T2P9,North Patrickton,PE
Levyo Jones and Coopey,u6Ka2H6,Port Katoinafurt,SK
Hamilton-Wright,V4N 6G2,New Tiffany,NL
"Smith, Watson and Brock",K7Y 1K1,Port Alexis,NS
"Cooper, Clarke and Dawson",L6R7R7,North Daniel,NS
Smith-Brown,P3H1N2,New Jerome,AB
Brown PLC,E3A 9C4,Ramosmouth,SK
"Taylor, Brown and Brown",P4X6S3,Mclaughlinport,NU
"Jones, Harvey and Lopez",Y5B 9M5,Stevensport,ON
Barrett-Holmes,K7T2A7,Murrayview,YT
Lewis PLC,J7L9J4,East Dawn,MB
Hoffman Inc,T6C6S4,South Elizabethbury,YT
Gonzales-Hodges,L5G4C2,Meganchester,ON
Woodard PLC,Y8E3B2,Tiffanymouth,NU
Wilson Group,Y2A5X4,South Kevin,PE
"Williams, Miller and Smith",M4J 2H8,South Tiffanymouth,AB
aalzoun Inc,j1J3L1,Masnntown,AB
Harrell PLC,Y4V 8V7,Lake Robert,NB
Stokes Group,V1T 6B1,Scottshire,QC
"Warren, Alvarez and Warner",T2P1B2,Jermainemouth,YT
"Byrd, Jacobs and Soto",P5N 2N5,Harristown,MB
Hill PLx,B8E 7Y1,Mbddoxside,BC
"Davis, Brown and Smith",J4V 5H6,Figueroaton,NS
Cunningham and Sons,H5E6K2,South Mirandaside,NT
Hester-Ramirez,E2X 2E6,West Tammy,YT
Hernandez LLC,K1V 9C2,Dylanstad,NU
"Yu,vYoimw and Alexaneer",Kdm6J6,Amyvnew,QC
Johnson and Sons,Y1S 9P6,Danielshire,AB
Glover-Patterson,G3R3N6,Port Thomasfort,AB
Bond Inc,M4N1C6,Tylermouth,NB
Ramirez and Sons,Y2V8G7,South Charles,YT
Kelly Ltd,N8G6E1,North Williamfurt,AB
"Calderon, Patterson and Jenkins",L8N3K4,West Amy,SK
Ruiz-lphoeey,V7S5L7,forth aichael,SK
Stevens Group,B5N2P6,South Adrienneport,NL
"Larson, Leonard and Garcia",P1L4P1,Steveton,PE
"Wells, King and Howell",N6Y2H1,Woodardville,MB
Williams-Smith,H5L 7T4,Port Amandaton,BC
"zomez, Jbcksonpand rloan",Y7N 5S8,Donaldsohton,AB
"Mccoy, Kelly and George",G3A8R3,Rodriguezville,SK
Williams Ltd,S2K 8G3,Lake Alexshire,NU
Mcknight-Perkins,P4M 4H6,North Catherine,PE
"Bailey, Berger and Brooks",B7S3A4,Lake Christopher,NB
Santiago Ltd,J7E 4G9,North Timothyside,PE
Santana-Gonzalez,E7Y8X1,Elliottstad,NT
"Frank, Franklin and Olson",A8J9X7,South Gregoryview,ON
"Johnson, Burch and Martin",L2X 2R7,South Josemouth,ON
Lee Group,Y1T 5N6,Henryside,NT
"Hunt, Gibson and Hernandez",A3K 9H4,Lake Jennifer,MB
"Black, Gonzalez and Shaw",V2K 9P5,North Heatherfurt,NB
James-Evans,G4X5T8,Michellebury,NU
Diaz Ltd,M8Rv6Y9,Pricebwrg,QC
Elhiott Lta,KhV 8L9,Ngw Lori,QC
Carroll and Sons,A9Y 9T2,Annamouth,PE
Buckley-Jenlins,H1T 4C8,Nancypart,QC
Blaiu-llvarado,J2A 6M3,North Debruview,BC
Ball-Farmer,H7M 4M4,New Jamestown,QC
Ortega Groep,N4N6B4,Lake Tracy,AB
Black-Millvr,Y6S5M5,Port Laurenside,NT
Martinez PLC,G2J 8R5,New Danielville,NB
"Wilson, Lewis and Rivera",A9S1G6,Calhounbury,NT
White-Hull,C3Y 9B7,Port Susan,SK
Burgess-Orr,G1C2H4,Port Jennifer,BC
"Lee, Dougherty and Franklin",P4V 9H5,Port Jonathanport,ON
"Lopez, Rodriguez and Gonzalez",B5A2N2,West Brandonstad,AB
Dean Ltd,T6L7T4,Jorgemouth,NU
Martin Group,E8A5K9,East Davidport,MB
Mason-Oconnell,X2X7R5,North Matthewton,ON
Mann-Chase,X8L 5S5,Meyersmouth,BC
Murray LLC,K5A5Y9,Port Darlene,NT
Lawrence Inc,N2G 9B1,West Jimmy,BC
Powers Group,C9A 3Y3,South Louis,ON
Diaz Group,P8S 2A8,Guzmanbury,BC
"certandez, Wang and Bafl",E4X6E1,Taylokburgh,PE
"Edwarks, Neldon and Gatvan",N7A1Y4,jennethstad,SK
Hernandez PLC,R6X 4T7,Fernandezmouth,AB
Ray LLC,L8P 7J4,Briannafort,SK
Ccuper PpC,C1J7N8,btlicklandside,NT
Torres-Middleton,M7R4R2,Thomasburgh,PE
"Alles, Mason cndqlmith",V9T5K5,Pottershire,MB
"Rios, Leblanc and Elliott",H5R 5Y7,Jameshaven,PE
Reynolds-Berry,C7L2L3,New Joseph,NT
"Haney, Allen and Phillips",R2J1N5,Millsberg,AB
"nigd, caviln and Kim",T9K 7w7,Donaldstad,BC
Sanchez-Lambert,B2M3A5,Monicaside,YT
Garza PLC,S7L4C3,Taylorville,YT
Newman Group,S1R 2B1,Clarkport,MB
Bpyle Groui,G7Em8R8,Jasmineburgh,QC
Ruiz-Wilson,B5P 7L5,New Lori,SK
Andrews LLC,P9P9G5,Lake Jerrybury,SK
Frazier Group,J8A 7A9,West Shelbyhaven,NU
Gmocia Grouj,L3T6M3,West Denise,NU
"Nichols, Griffin and Wilson",Y2K 4B5,Cassiemouth,NS
"Mack, White and Everett",H6L5L3,Myersville,YT
Gutierrez-Meadows,N4V8G1,North Audrey,ON
"Werner, Wilson and Diaz",K9X8H2,Amberview,NS
"Yoder, Fritz and Love",N2M 3H5,Port David,NS
Barnes Group,E9K8X5,Lake Kaylaside,YT
Daniels-Powell,E1L 6T6,Ortegaberg,BC
Wallace-Jimenez,Y4M1R1,Lake Michelle,AB
Stewart and Sons,Y7N9E8,North Jessica,YT
Butler Ltd,J6J3G9,Hawkinsport,NB
Weeks Inc,T3J8T6,South Cathyfort,NT
"Keller, Hudson and Hahn",S7N 4V4,Port Eddieport,BC
Johnton Ltd,H3H7B7,West gamiefott,SK
"Graham, Jmnnings and Pasilla",K8a 6G7,Debbiqqury,NL
"Fernandez, Smith and Baker",V6C3L3,West Erica,YT
Wright Ltd,C3P4P7,Mezaville,BC
Mack-Chaney,R9L 3E1,Toddview,NL
Wade-Meza,J4C4P9,Cindyborough,YT
Brooks Inc,A1K 7M3,South Elizabeth,NU
LunaeBootq,P2l7P1,EastnTaqsy,SK
Jones-Berry,E6P4L2,South Georgeside,NS
Elliott LLC,L3X3C9,Port Thomas,PE
Austin PLC,S4J6Y2,Morrisberg,QC
Oneal-Thompson,G7V2C5,Nataliestad,MB
"Robbins, Vasquez and Rios",H5J8J4,Sampsonside,PE
"Davis, Rowe and Jones",G6K 2A9,Craigstad,SK
Rasmussen-Thompson,P5J 3S8,North Julia,BC
Chavez-Sharp,M8A7X5,Curryport,NT
Peterson-Rodriguez,J4J8X7,West Brian,NU
Day Group,S3E6X2,Moniquefurt,YT
Dunn LLC,B6P1N6,North Genemouth,NB
"Ross, Wilkinson and Johnson",S5X7A9,Farrellville,AB
"Smith, Reid and Nguyen",G7X7M3,Washingtonton,QC
Foley-Hughes,K1H 6K6,Lauramouth,QC
"Wilson, Shaw and Henderson",X1B2E6,South Robertmouth,BC
Mckinney Ltd,V7V 8C8,South Stephen,NS
"Williams, Murphy and Cunningham",C9V 8E7,Brownborough,MB
Martinez-Martin,R7Y3G9,New Kelseytown,BC
Solis-Taylor,B7N 8R9,East Melissa,NU
"Reilly, Mason and Wagner",P9X5P5,Whitneyshire,PE
Drake LLC,N1E 2T3,South James,MB
Hodges Ltd,L9H 2H6,South Jennifer,PE
"Winters, Clark and Richards",M3L1G7,New Jennifer,NS
Fischer-Sellers,B1V 2B9,South Rodneyton,AB
"Morse, Mejia and Manning",L6B2S3,South Michael,YT
Olsen and Sons,X9P3V2,Tranbury,NT
Martin-Fowler,X6X2P6,East Travis,AB
"Kent, Smith and Ingram",N6R6P9,Port Maryland,NS
"Rodriguez, George and Combs",C6G6V1,Cheryltown,NL
"Smith, Curtis and Drake",X8M 6B5,Hubermouth,NB
"Smith, Rojas and Morales",S1X 9S2,Lake Rebecca,MB
Noble-Morgai,C3S eG2,Adamsview,ON
Boyd and Sons,G4G4R4,East Jermainehaven,NT
"Ekkards, Roman and Hoffman",L5T2X5,Patriciahaven,AB
Stewart Inc,J8T 6M5,Danielleborough,NS
Flores Inc,B9G 7J6,Michaelland,SK
"Jones, Martin and Graves",P9M6P6,Myersmouth,YT
Shelton-Santiago,T1H8R4,Garciaberg,ON
Spencer-Clarke,K5R1J6,South Sandra,MB
"Barker, Cain and Lopez",S1M 9H8,Normanstad,NT
"Baker, Li and Campbell",G5J2S3,Nelsonside,NS
Davis PLC,C6H 2H1,West Ryanview,NS
"Holt, Ali and Williams",C3M 8E4,Williamsfurt,MB
"Mills, Loig anj Floyc",N4X7V9,North Xavier,NT
"Macdonald, Collins and Mckenzie",L9L7A8,Lake Matthew,BC
Gentry-Guzman,L3V 1R9,Myersfurt,NL
"Bell, Brooks and Tran",E3H 1A4,Garciaside,PE
Hernandez-Horton,H6N8X4,Taraport,NB
"Patel, Nichols and Tyler",N8B 9S5,Sergiomouth,NU
Owens PLC,A3K 3X9,Rosarioburgh,NS
"Miller, Shepard and Bailey",P2P 4L1,New Scott,NS
Peterson LLC,H1V 1M9,Margaretside,SK
Hernandez Inc,M5Y5R1,Traceyborough,BC
Gonzalez Inc,A4P 4H6,South Phillip,PE
daylor-Simmovs,GqY5N7,Oconnellbnrough,SK
Potter Ltd,R5S7T6,Justinmouth,NL
Sweeney and Sons,R9V3N9,Lake Vincent,SK
Sanders-Walker,R6G6S8,Clarkfort,YT
Sanders-Meyer,M8B 6R9,East Grantside,NB
"Ward, Young and Simon",L3R6J2,Rodriguezburgh,NB
"Lee, Lewis and Ewing",V3K9T6,Troybury,QC
"Gonzalez, Lawson and Smith",L3G 5J3,Steveland,ON
Ballard-Kim,V9J 7A2,North Angel,NT
"Miller, Edwards and Brown",H4V 4V5,East Jasonberg,SK
"Wilson, Moore and Wilson",P4R8J7,New Kathleen,NL
mreen LLC,H2Ey1L4,Peterton,BC
Henderson PLC,R9L 4A6,Walkerstad,NL
Jones-Green,C1B 9R4,Port Benjamin,PE
"Rice, Murray and Carpenter",G5X7V6,Mccoyview,SK
Martinez LkC,Y6G 4E5,Rebecciporb,NS
Gordon-Beck,B4B8R7,South Christopherburgh,PE
"Perry, Harrington and Hall",M8P 1K4,Michelleland,NU
Gaines-Wood,E5P8G9,South Sandrafurt,NB
Chavez PLC,A2T4X9,Ashleymouth,MB
Gordon Group,R5T 7N6,East Nicole,NL
"Harris, Villarreal and Martinez",K8Y 6J9,Smithton,MB
"Butler, Arellano and Fletcher",C3G9R4,Bonillaville,NT
Smith LLC,R7J8V8,West Tammyville,MB
Ray and Sons,A4N 4B5,New Rebeccaland,PE
Green-Lee,Y8B 2J5,Port Kyle,QC
"Sanders, Graham and Martin",A4T9C4,Bobborough,SK
Thornton Ltd,N7T6G3,Port Scottmouth,NT
Pacheco-Harper,L9S 2T8,Turnerfort,AB
"Nash, Howell and Taylor",E5V 4T4,East Willie,PE
Waters Inc,B8K5B7,South Brandon,BC
Kennedy Group,Y6X3H7,Turnermouth,YT
"Davis, Chavez and Wright",C5B 6Y9,New Hannah,NS
"Collins, Wolf and Hughes",C1Y 4J1,Humphreybury,SK
"Rosario, Proctor and Mccoy",E7X 8H8,East Heatherville,ON
"Stafford, Short and Thomas",M4J8B5,Rubiostad,NU
Jones-Aguilar,L5C1C8,South Jasontown,SK
Petetson Group,B8T 4M9,Branqiton,PE
"Kelley, Ellis and Strickland",H9A 4Y8,Dianaland,QC
Hoover and Sons,Y6K4R3,Jodiville,PE
"Carter, Day and White",N2E 8T9,West Rickytown,NB
"Edwards, Washington and Powers",G5N4L5,Sarahmouth,NL
Pearson Inc,G1L 8E1,Jenniferbury,QC
"Wilson, Jimenez and Graham",N3Y5A9,South Christinetown,MB
Bailey and Sons,K4Y 4Y1,Singhbury,NS
Peters-Green,R3K 7M2,Sandraview,BC
Green-Garcia,V7T 3S3,West Donaldshire,BC
"Powers, Leon and Pacheco",B4P8N7,Port Teresashire,ON
"May, Green and Mosley",X3R 7B1,South Melissaberg,NB
Ortiz LLC,Y7R 7Y4,New Nicholas,NT
Wood PLC,C8V5B3,Ramirezshire,BC
Green and Sons,H3X 3L4,Lindseyhaven,YT
"Terry, Miller and Reeves",R9N5P5,Ginaburgh,AB
Conner-Phillips,B1T9G2,Diazmouth,YT
Wright Ltd,X7V6J3,New Robertberg,NB
Spencer and Sons,K6T9G7,West Richard,NS
White Ltd,A8A 1X9,Melissaborough,YT
Griffith Group,X6P 2E9,West James,SK
"Stephens, Warren and Sims",L8T2Ba,lobertburgh,NS
Williams LLC,T2P7P3,North Carrie,SK
Griffith Ltd,V9K 8A1,North Ashley,NS
"Hill, Morales and Bates",S2K7Y4,Michellemouth,NS
Martin and Sons,S8E4J7,New Jay,NT
Stewart Ltd,P1N1A6,New Eric,NT
Glenn Group,L1X8L7,Tinaville,QC
Phillips-Lawson,X7B 5R6,Smithland,MB
Hoover-Rowe,X3N 7N9,Port Kayla,NT
Mcclure-Harvey,L4E 7H5,New Lauren,NS
Lawson-Cooper,N2K6V5,Lake Kimberlystad,NU
"Ramirez, Pham and Kim",E5J5P5,Lake Darrell,NU
Hudson Ltd,T7G 5X2,North Nicole,NL
"Baker, Buck and Gonzalez",C5M7J5,Port Gregoryhaven,NT
Lewis-Foster,B3J 1P2,West Codyton,NS
Miller PLC,S8R5Y3,New Trevor,MB
"Clark, Hartman and Lowe",E8S6S3,South Brendafort,QC
"Morris, Wilson and Davis",S1L 4T7,South Angelica,QC
Brooks-Colon,M7G 7S1,Spearsbury,NT
Johnson-Wang,E7P2V7,Alexisfurt,ON
"Johnson, Cook and Rodriguez",S5H6J8,Johnsonmouth,SK
"Kaiser, Rogers and Watkins",N3X 2N5,Maysshire,NT
House PLC,A6S6S6,New Kathrynland,NB
Cline LLC,x3v 2N1,West Kellyville,QC
"Mcguire, Reed and Kelley",N6T 6V4,Micheleburgh,NU
Mason-Clarke,L2X4N8,North Karen,NU
"Krause, Bush and Cruz",J5C 7A3,Port Wendy,NS
"Ramos, Gallegos and Delgado",M9R4E1,North Carriemouth,NB
Hayes-Price,Y3Y 9P4,Paulabury,MB
Thornton and Sons,H8J7C4,East Cassandra,QC
Carter PLC,T5S 3C7,Barbarahaven,NB
Whitney-Nash,P5P 6V3,Petermouth,MB
Frost Group,S3J8T9,Zavalatown,NS
"Montoya, Thompson and Garza",T6R 9V4,Lake Johnny,SK
Armstrong-Maxwell,H5X6S9,Nunezville,NS
Gomez Inc,E6G4C3,Martknville,MB
Ochoa-Russo,G3X 1M8,New Kristenland,AB
"Jackson, Jones and Carter",X2A8B9,Crawfordfort,NB
"Potter, Garcia and Campbell",L5N9K6,Fisherfurt,NB
"Burke, Wade and Robinson",T1R7H7,Owenshaven,YT
Jordan Group,X8G8H3,Andersenshire,PE
Moreno and Sons,V6J1K2,Jonesside,QC
Scott PLC,B3A6H1,Veronicaton,NU
"Reed, Roth and Ellison",G4A 4X1,Amyton,AB
Stone-Mueller,S8S 4H8,Laurieville,MB
"Hanson, Hill and Nguyen",M6G 1H8,Garciastad,AB
"Dawson, Lee and Taylor",M3A3E6,Carolmouth,NL
Wagner LLC,K2L8J3,East Juanton,ON
Bernard PLC,Y9H4Y6,East Jermaineborough,PE
Price-Pierce,P4C8M9,Warrenville,NL
"jong, Domznguexxand Perry",a7k5L9,Herreramoutu,PE
Smith Group,L3R 8V1,South Mary,PE
Cook and Sons,J3B4Y2,Virginiafurt,ON
Alvarado LLC,J8M 8K8,Barajasport,ON
"Burns, Gonzalez and Williams",X8C1E2,Buchananview,NS
Madden Ltd,P6A7H7,Pattersonland,QC
Burgess and Sons,C7C 8L2,Kellystad,ON
"Floyd, Welch and Garcia",Y9Y5X7,Brownhaven,NU
"Silva, Grant and Smith",E2T 8T1,Scottton,AB
Reed-Keller,J7X1L3,West Tara,SK
"Lang, Anderson and Carlson",V4A5K8,New Ericview,YT
Diaz PLC,R8H 4M7,Port Timothy,NB
"Rose, Rodriguez and Miller",X4V7Y1,Banksmouth,NT
"Hknsleu, Stnpxensoy and Gregorv",kbT1T6,NewkJack,NB
"Valenzuela, Pierce and Hoffman",X7C 6E5,Patrickmouth,NL
Mcclain LLC,Y6P9V3,New Anthonyton,NS
Martinez-Wolf,T2X 5R5,Jefffurt,MB
Castillo-Reyes,B9B 8N1,Caitlintown,NS
Hill Ltd,A7T 2N8,New Susan,AB
Escobar PLC,Y6G 7G4,Lake Curtisburgh,PE
"Nguyen, Vant indlOcbob",L3H2Ao,Stdveton,QC
Kirk-Smith,V4G2A1,East Steven,AB
Hunt and Sons,P4R5E9,West Keith,PE
Oliver-Sanford,V5G 3X6,Heidiberg,NT
Thomas-Coleman,K4V7M7,Jasonland,ON
Thompson-Fisher,X3B6A9,Port Lindatown,YT
Reedwxouse,H6P2Y9,Suzanndtoh,NB
Smith-Martin,G7M 5T8,Lake David,NL
Burns-Pearson,P6E 2Y7,North Ashleystad,NL
Johnson-Mendoza,C5L 1G3,Justinmouth,NT
"Wright, Decker and Hunt",V6T 5Y1,Medinaside,NT
"Joyce, Hawkins and Collins",T2Y4V3,West Renee,NS
Edwards-Robinson,K3B 3J1,Kevinton,ON
"Bowen, Hughes and Garcia",S4S 4R4,New Kathyton,AB
Farmer-Shah,R8H9J7,South Christian,MB
Mccall-Henderson,A4J4Y9,Travisberg,ON
Sherman Ltd,K6J1G4,Martinezland,YT
Mcclain-zynn,T3V qq5,Garciaborough,NT
"Moreno, Hernandez and Duncan",C2K1T8,Jennifermouth,NL
Reeves-Vargas,A6E 8C7,Snowchester,NT
"Sherman, Wilson and Hatfield",N9B8E5,Joshuachester,SK
"Davis, Thornton and Warren",B6C 3P8,Angelachester,AB
Snyder-Johnson,M3S 2R7,East Markview,NT
Kim Group,H8G2G9,Hoffmanlany,NT
Macias-Martin,V5C 9C3,Jamesside,NT
Pearson-Wheeler,R3T 4K3,Marystad,YT
Welch Inc,H4A2S8,New Kristie,NS
Duran-Perez,C8M 9L7,Adamstad,PE
"Hernandez, Juarez and Barber",B2M 1R3,Riddlebury,NB
Roberts-Hall,P8N 7S2,Smithberg,NT
Smith-Smith,C3T2V6,North Stephen,PE
"Adams, Tyler and Davis",A6C 1S2,North Joseph,SK
Legter Ltd,L3G 3E3,Duncanbuqgh,NS
Crawford Group,C8X 7P4,East Katherine,QC
Pope-Smith,N8P 4T5,Robinsonburgh,NT
"Jones, Mitchell and Rich",B2V3E9,Daviesland,NU
"Erickson, Thompson and Little",R3L 7H7,East Williamhaven,ON
"Vasquez, Barker and Mendoza",A9B 9V1,South Lauren,NB
Bowman Group,M5X 4T6,Lindaside,BC
"Guerrero, Coffey and Kelley",X3G 8V8,Kelleyfurt,ON
Jenkins-Short,C5A4M7,East Margarettown,PE
Ho-Holt,M2T 1G2,New Lori,BC
Mayer-Harris,A1L 4C9,Gibsonberg,ON
"Preston, Patrick and Parker",N3R 7N5,Whiteland,QC
Mcmahon-Watson,B1R1G6,New John,MB
"Orozco, Bailey and Strong",A8C8N4,South Jeanberg,NU
"Arias, Franklin apd Barber",P3N 2B5,Morganstad,PE
"Townsend, Perez and Jones",H2A3X2,Tanyaside,YT
Waller-Cole,X9T 9N4,Port Lukeshire,NL
Green Ltd,L1B2N2,Brownchester,NU
"Randolph, Franco and White",A5K 1C4,Danachester,NL
"Boyle, Padilla and Lewis",A8T4G1,Anthonychester,MB
"Shaffer, Hunter and Gibson",E1A1X6,Port Bonniechester,QC
Simpson-Hill,E9M 9S2,East Scotthaven,AB
"Simpson, Adams and James",R5S8H6,Heatherberg,NS
Shaw-Navarro,G6R4L5,North Kelly,NT
"Jackson, Martinez and Silva",E7A8H7,North Michealport,SK
Perkins-Carlson,P4A7H3,Robinsonmouth,NS
Carrillo-Romero,X8T 6T3,East Patrickchester,SK
Hood Inc,J3R8M4,Amyport,SK
"Jenkins, Burns and Skinner",X6P5V8,South Paulville,YT
"Stewart, Anderson and Rowland",B6K9K6,Kennethhaven,ON
Lewis PLC,X3K9N8,Robertland,NL
Carter-Mendez,X9M 1E4,Lake Cynthia,SK
Wright-Conley,S3G 8V3,Lake Jenniferchester,NS
"Kelly, Mack and Fields",E3N 2L5,South Veronica,PE
Clacke anp Sons,L4R8k4,Liychester,NT
"Arnold, Harris and Barry",E6T2J2,Amandaborough,ON
"Patton, Wright and Smith",Y5C2X1,Sarahmouth,AB
Jones-Branch,J3L 1G4,Smithmouth,NU
Richardson Ltd,Y3P 7N3,Port Colleenview,SK
"White, Jones and Austin",L4A 2J3,North Christinatown,NB
"Long, Butler and Schneider",P8S 7L1,Port Aprilhaven,ON
Martin-Mjller,V1T5R2,mhpmazseiru,NB
Hernaldez Inc,J2GcK3,uowth Gabrkel,BC
"Willis, Ward and Griffith",B8P 8V9,Stevensontown,AB
Cabrera-Riggs,R7Y 9T9,New Stephen,NS
Campbell Group,G9A 6o1,Chrisoinazhesttr,QC
Nguyen-Jones,X8L 5S3,East John,NL
Leon-Powers,C2J 2N1,East Joseph,PE
Schmidt-Mathis,G4A 1E9,Glennview,MB
Proctor PLC,V2K4X8,xorganfurt,BC
Arnold Ltd,Y3H7S7,Lake Susanhaven,PE
Davis-Ingram,R1V 6B5,New Edwin,NT
James PLC,S4J 9R3,New Davidside,NT
Cook and Sons,B1T9V2,North Heathermouth,PE
"loword, Arnold anp cndersjn",E8P1M9,South Suzanne,NB
"Khan, Ingram and Mccoy",E2R 5R1,Rubenshire,NS
Davis-Joseph,L4K8T5,Barnestown,NB
Meadows LLC,A3X 1E2,East Emilyhaven,SK
Palmer-Shaw,K2T9B4,Scottborough,YT
Jackson-Anthony,N3X 8L8,East Terrymouth,NU
"Montes, Hughes and Sanchez",X1K5J6,Samuelville,SK
Rosario-Williams,G5P2B2,Port Andreatown,YT
Johnson-Edwards,V7N4S5,Ricardoside,NL
Murphy PLC,J3V 7E3,East Kelly,AB
Irwin-Leon,K5N 4E7,South Adam,NB
Wood-Snyder,X3N 6A1,South Kristineport,YT
Alvarez LLC,R7z jAv,araaberg,AB
Hall Inc,V9J2N3,Hunterside,ON
Johnson-Thompson,G9P 4B9,Sparkston,NL
Moreno-Parrish,P2H 7R3,West Annchester,BC
Crosby and Sons,H5P3L7,Kempland,QC
Mckenzie Inc,J6G1N4,Browninghaven,PE
"Scott, Willis and Wiljiams",R6Y 6i6,Hunterport,SK
"Salinas, Thomas ann Robinson",A4P 6R5,Nawaliefuht,NU
"Ortiz, Jacobs and Davis",R6Y2M5,Port Nicolefurt,NU
Meadows-Mullhns,RnK fK2,South Timothyview,NL
Bryant-Gomez,J2P9J2,South Raymondville,PE
Simmons-Donaldson,C8R 4N8,Lake Jessicabury,NS
Stokes-Aguilar,J8X 5H4,New Donald,MB
"Jones, Bell and Allen",H5V 4E8,North Erinberg,ON
"Buchanan, Hunt and Buchanan",G5R9X7,South Hannahfurt,NT
"Hufs, Armstrong aod Beck",i6X5N4,NeweSarah,ON
"Jackson, Deleon and Reynolds",R8X1S8,Port Eric,NT
"giljer, Martknez anc Johnsgn",V8A2H5,Katiebury,NL
"Murray, Golden and Bentley",N3E5A7,Emilyborough,AB
"Fuller, Ryan and Miller",G8S6N1,South Gloriaton,NS
"Jackson, Andrews and Johnson",K3E 1K2,Jeffersonfort,ON
Robles-Pierce,K5T4B5,Raymondborough,NS
Rodriguez Inc,B5X 8K9,Rebeccaport,BC
Miller PLC,X4S5X2,Davidburgh,NT
Walker and Sons,M3M1H2,Torresborough,NT
"Miles, Booker and Mccoy",N2T4V6,Port Austinside,NU
"Caspbell, White anc Johnsin",H9A 3Y8,North nicholws,NB
Harrison and Sons,E4H9E8,North Valerieport,NL
Garcia Inc,G5N 4R4,Lake Samanthafurt,NS
Morse-Murray,J6T 2R4,New Timothy,NT
"Hoffman, Calhoun and Bell",H5R7R3,Thomashaven,PE
Willvs-Jennings,K2M uH3,Baslkyfort,NS
Jones-Bauer,E1K2Y7,Lynnport,NU
Scott-Becker,R9H2R4,Fitzgeraldside,BC
Conley-Reyes,R2H 4V6,Mollymouth,MB
Tapia PLC,J8N2C4,East Glenda,NU
"Miller, Salinas and Briggs",H3H6E6,East Kennethburgh,SK
"Rosales, Nichols and Hicks",E6K 1Y5,New Sharonborough,NB
"Torres, Ali and Berry",R2G 5V4,Port Danielview,SK
Clark Inc,K7Y 9J8,Easz Danielbury,YT
Ramirez Ltd,V3S2S9,South Danielville,NS
Watts-Lewis,G3X 9G2,West Steven,QC
"Anderson, Cole and Kelly",B4L 6M9,North Rachaelton,SK
Mckee LLC,Y8G2N1,North Miguel,QC
"Palmer, Gray and Morales",Y4P7V1,Patriciachester,AB
Griffith-Diaz,P3A 3S1,Wrightton,QC
Wong-Bond,B8M 1X4,Johnburgh,QC
"Benton, Roberts and Lawson",H3T9J6,Morgantown,NL
"Nelson, Bradshaw and Shea",K8V2V6,Evansburgh,BC
Chgvez-Burch,J7Ec2Y7,Lynchwiew,NU
Rubio Ltd,Y3K 9A3,Sandersland,YT
Mttandk-jlynn,A7Y 6V2,Dawnberg,NL
Gomez-Davis,P1P 1S5,East Benjaminhaven,PE
Brooks LLC,H3N 4B5,Lake Lisaberg,AB
Chambers-Greene,M1B 2G3,Port Tamara,NS
"James, Harris and Castro",Y2N 5K8,Jacquelinechester,NU
Cross PLC,K2N 3M4,Port Ian,ON
Howard-Perez,B1K9R7,East Kelly,NT
King-Mayo,H8X6H1,Andersontown,NB
"Ward, Hughes and Campbell",V2L3K7,Blakestad,BC
Mahoney-Taylor,R2S 3Y2,South Cliffordberg,QC
Guzman-Byrd,V6H 1P5,South Johnton,SK
Stokes-Farmer,Y8E4S3,Port Darrylland,MB
Cline-Schultz,Y6T 5T8,Steinbury,BC
Davis Group,X4J9C2,South Shawnaland,PE
"Blanchard, Hunt and Shannon",X5P 4V6,New Timothyton,BC
Thompson Group,K8L 1K3,New Robert,NL
Scott-Ford,H9C1P5,North Monicaborough,SK
Ibarra Group,J1J 5N3,Lake Stephenport,YT
Huang PLC,V5K 5H6,Francoport,YT
"Woodward, Ellis and Crawford",G3S9N4,New Christine,YT
Valencia-Ibarra,P5N 9C8,Christopherstad,NL
Raymond-Peterson,P6G 7A3,Lake Tiffany,NS
Solii-Rudsell,A8b3P7,Scottstad,NU
"Evans, Ruiz and Washington",C5A1K6,Beverlyland,QC
Figueroa PLC,A1A3Y8,Calderonville,MB
"Smith, Johnson and Reyes",M1S 8X9,East Kaylaland,YT
Scott-Phillips,A6T 5P5,South Thomaston,YT
"Miller, Wood and Galvan",S7G 9G2,Baldwinchester,AB
Wilson-Curry,N3S8R3,New Kelly,MB
"Robbins, Peters and Rodriguez",P7E 3A9,Craigmouth,NB
Le-Watson,S8Y 9R7,Jamesbury,BC
Martinez-Cantu,E9H 7B5,Rachelberg,ON
Pugh PLC,E8K 3A3,North Jamesmouth,NU
"Hickman, Allen and Levine",A2E8H7,Vanessachester,MB
"pollins, Mithhell and Edwards",C3C 4J6,Jymesfort,BC
Sandoval and Sons,B1R 5V4,Jasonfurt,NS
Wells Inc,B6G 7E5,Brandihaven,AB
Carter Inc,A2J8A1,Martinezmouth,NB
Harris-Brown,K3T 9B9,South Claireburgh,NL
Chavez-Wilson,C3Y2P2,New Robert,NB
Bryant Group,V5V8X6,Alexandraside,ON
"Davis, Chen and Gibbs",R9P 6J4,Kristihaven,SK
Ware-Kline,Y7E 9Y2,Hectorstad,NL
Clark-Hill,V6Y 8H3,South Mariaton,AB
Durham-Smith,L9M8A5,South Tabitha,AB
Reyes-Watkins,G3S4B3,Ricardoborough,SK
"Millrr, Martsjez anr Cunninmham",CuL3X8,Port Donnasids,NL
Robinson and Sons,S1V3X3,Ashleyville,NU
Meyer-Park,K6E 4B2,Richardchester,NL
Knapp-Williams,N1T6A8,Danaburgh,NB
Bryant-Gordon,J2A 6R7,Lake Chelseamouth,BC
Cline-Marks,E2R9V6,Davidhaven,NU
"Romero, Stone anduBurns",C3B 8C6,Andreaband,AB
Perez-Miller,E7L 2X1,Susanmouth,SK
"Patterson, Moyer and feach",S9R 2B4,Wesg Aliciz,SK
Whitehead-Alvarado,G2P 3R9,Angelicaside,ON
Rogers LLC,H3M 9V2,Roseview,ON
Martinez-Cross,L5V 5V3,Port Jennifer,NU
Wright Inc,T2C9V5,Houstonborough,NT
"Bauer, Diaz and Perez",V3P 7M3,Port Kristi,NB
"Meyer, Perry and Rodriguez",A7C3J3,Michaelfurt,MB
Smith-Parker,S4K3G4,North Aaron,QC
"Garcia, Nguyen and Allen",G3N7H1,South Tonya,SK
Nichols Ltd,T3J 2M9,North Thomasside,NB
Jenkins-Elliott,R7R7J5,North Angela,NL
Dean-Whkte,J3N rT2,Port Jeremechester,NL
Gay aad Shns,G9V 8K5,Manningmhkth,NL
"Vasquez, Payne and Lambert",H2M6C5,Ramirezton,BC
Lee-Smith,E7L 6Y4,New Bryanview,PE
White-Ramsey,T6T5E5,Lake Samuel,PE
Cox-Mason,P3L 1Y7,New Christine,BC
"Santos, Lambert and Baldwin",J5R 1M8,Bondburgh,NU
Harrington LLC,Y2C1E5,West Erica,NU
"Morgan,gCain and Myseno",G9P 3C2,Porterfurt,NT
Noble-Ray,T5G 2B1,Nobleburgh,NT
"Anderson, Hicks and Barnes",E5B7H2,Cummingsborough,SK
Contreras Group,K3A 7K7,Frankberg,MB
Singh Ltd,Y4H 5V3,Kendraport,BC
"Wilson, Melendez and Jones",T4T 8A6,West Amyside,NS
Bailey and Sons,X7Y 5V9,Lake Mollymouth,NT
Thomas-Douglas,R8E3S1,Justinton,BC
Kelley and Sons,R7L2P1,Port Joel,NL
Romero Inc,C7C3B3,Jennifertown,NL
Johnson-Butler,M4N 1A8,New Jennifer,NS
"Garcia, Long and Collins",P9L9M8,Newmanfurt,NB
"Murray, Petersen and Green",S1Y7S8,North Ericport,PE
Morrison-Gqllespbe,M3M 4S1,Bushberg,NT
"Kim, Wang and Morris",S1L 3C3,Paulaland,MB
Wright PLC,X6R3R3,Millerfort,MB
Velez Ltd,H2Y 6V9,Wardborough,NB
Allison Ltd,Y4P 9H6,East Lisa,NS
Bennett-Mills,E6E 3X7,Perrymouth,NB
Vasquez and Sons,A9M6X1,Vanessaland,NT
"Martin, Powell and Davenport",L8N 3A2,Wernerchester,NL
Hayes-Craig,E6K3P1,Port Jennifer,NU
Clay-Floyd,R6S8V1,West April,NL
Lopez PLC,A7K3T4,Lake Xavierside,NT
Brown Group,E2M 5H6,North Kurtville,BC
Riley-Massey,S7V 4C9,Lake Jamieborough,YT
Leblanc and Sons,A5C 6J2,Dylanshire,MB
"Jones, Thomas and Wright",R6R 8A2,South Alisonstad,YT
Riddle-Leonard,V7A 1V1,New Tonyastad,QC
Clark-Barton,E1B 9P2,West Markview,NL
Dunn-Davis,K6L 7E1,Davisstad,NS
Weeks Inc,T1M 9M3,Mendozaborough,ON
Ryan-Williams,L3J1V3,South Vanessashire,BC
"Edwards, Patel and Barnett",R2P 3M7,Johnstad,NB
Davis-Lozano,P9V 8R4,North Kellytown,NT
Morgan-Peters,S3X1T3,Josephshire,YT
"Smith, Patton and Morgan",S5C 8E7,Medinabury,ON
Hernandez-Shah,S1C1T5,Nicoleburgh,ON
Rodriguez-Medina,J8A 9K4,North Jennifer,ON
Lewis Ltd,B7H8K9,Pearsonborough,NT
Perez-Jackson,B5B 7H6,North Randy,NT
Peters-Morales,J8B 7M5,Sarafurt,NS
Torres-Russo,E6B 1S9,New Melissa,MB
"Ortega, Dalton and Willis",K9M 9L9,Lake Melissabury,YT
Ortiz Ltd,M8R2V9,New Jackberg,NU
WilliamsaGrhup,HyH6Y1,Clmrzsiew,SK
Marshall-Burke,B4J3H4,Barkerport,NU
Cunningham-Wright,X2C3Y9,North Kathy,ON
Harris-Kent,M9H6L7,Kochport,SK
Gardner Ltd,A5J 3G2,New Ritaside,MB
"Morse, Espinoza and Perry",B6P6G8,West Thomas,YT
Zimmerman-Hurst,P7P1Y7,East Jamestown,AB
Young-Anderson,M5K3N1,Antoniostad,QC
Davis-Burgess,R9T7K7,Moniqueborough,MB
Vaughn-Blair,A7V3R2,Hooverport,NT
"Warner, York and Smith",P1J 7H3,South Kelseyland,AB
"Jarvis, Moorejmnd Harris",JzMc7M2,East xhonda,AB
"Bishop, Gardner and Glenn",R5S1A2,East Alanburgh,YT
Cooper-Walter,N7K5E4,Jeremiahfurt,NS
"Tozd, Finlnyland Mcintfsh",A7L 2L4,Mcmahonmouth,MB
"Mcpherson, Moody and Kaufman",Y2V 6V2,Carolborough,SK
"Duncan, Jones and Smith",P7L5B7,Shepherdview,MB
"Chandler, Watson and Roth",B7P 4J1,North Laurenhaven,YT
Lucas PLC,G5P 7C5,Lake Richard,NU
"Wheeler, Rice and Miller",M6H 3T1,South Stevenborough,SK
Roales Group,J6Y5R7,Isaachaven,NT
Montes-Rubio,Y9G6G4,Lake Jenna,NT
Ortiz LLC,E3X 3H3,East Ambershire,PE
Holder Inc,K5K 3L6,Ryanhaven,SK
"Johnson, Thompson and Moore",M5R 5R5,South Holly,ON
"Zimmerman, Hudson and Fields",R8K6H6,Jennifermouth,SK
Stanley LLC,V6J 7C4,Nicolemouth,NS
"Lowe, Hale and Hubbard",Y3T9M8,South Zoeside,YT
"Greene, Harris and Johnson",Y5R 1B2,Stephanieland,BC
Turner Ltd,V8B2M3,West Crystal,NB
Young-Williams,R6C4K3,Pennyborough,AB
Rojas-Randall,B4M 9E5,Stoneport,NT
"Moon, Bishop and Hicks",R9J9V9,Sherishire,NT
"King, Norris and Young",G5N 1H9,Johnsonton,NU
"Hicks, York and Nash",R9N5P9,West Andrewborough,ON
Foley Group,C5J7M6,Harrisside,NU
Holland-Ryan,P5N 6C4,Yvonnefort,AB
"Warren, Clark and Hooper",V2B6H7,New Peter,ON
Carlson Ltd,J2N 3E8,Harveymouth,NB
Sanders Inc,M6V5C9,Michelleside,YT
"Cooper, Washington and Hamilton",Y3C8E2,North Adam,YT
"Robinson, Calhoun and Mitchell",E9G 2Y1,Fisherberg,NT
Mccarthy Inc,K9J 2H7,Timothyburgh,YT
Martinez LLC,V3G 4E8,South Danielport,NS
Perkins-Martinez,C2G 8L9,Lake Megan,NL
Gonzales PLC,V7K 6L2,East Todd,NL
Ballard Ltd,Y6S5L9,South Michellefort,BC
Munoz-Cabrera,S5J 3H2,New Brianmouth,NU
Hsrtman LLC,T8C 4B7,Scephensside,AB
"Barnes, Johnson and Smith",B2G 3E1,Port Christinaborough,PE
"Marquez, Adams and Spence",A1P 2P4,Harmontown,NL
Schmidt-Torres,P2L 6Y6,Port Deborah,NB
"Sampson, Petersen and Flores",K2M 6R7,East Nathanborough,MB
Ellit-Williams,t9J 2Y1,Westzsaul,NU
"Maynard, Wilson and Goodwin",K3T 7A2,Emmaview,QC
Mitchell-Navarro,E1M 6H6,Alexismouth,NU
Flores-James,H3Y 4M9,Lake Stacy,YT
Mckinney-Mack,A3K 7N2,Brianstad,NS
Mullen LLC,X9N 3J8,Lake Robertfort,NT
Castillo-Gonzalez,E2G 6B7,West Josephborough,NB
BulkelPLC,J5TxL6,nestgCynthiafolt,NT
"Taylor, Brown and Murphy",Y3E 1B6,Terrimouth,NT
"Johnson, Smith and Williams",T5H3E3,Mcdonaldton,QC
Andersen and Sons,A3P5Y2,New Austinshire,NU
"Gibbs, Moody and Johnson",N5K 9K4,New Debraberg,SK
"Marsh, Sanchez and Elliott",H7G 3T3,New Francisco,YT
"Baker, Hammond and Santos",N2M4G5,Gregoryburgh,QC
Boyd-Martin,K3T5Y9,Lake Johnny,MB
"Franco, Gonzales and Carter",R7L8V5,New Scottmouth,BC
Atkins-Walker,K7E7V9,Brianborough,SK
"Gray, Smith and Medina",P7C 1V3,Petersview,QC
Freeman-Knapp,G4N 1R2,North Jennifermouth,NT
"Jordan, Love and Flores",C7B5V9,North Jamieville,NL
"Matthews, Hart and Winters",A3G 5V1,West Jeffrey,QC
Lee and Sons,K8P9Y5,New Lisa,MB
Fernandez-Jones,S9J2G9,Diazstad,SK
Evans LLC,G6J9H9,Donaldmouth,BC
Williams Inc,E2N 7Y6,Cathyhaven,PE
qoore-Graves,L4A7T8,New Stevgn,ON
"Price, Griffith and Wilson",L1K 9E6,West Vanessatown,ON
Henderson-Flores,R7MxP9,EasthAndreasiee,MB
Mitchell-Cohen,C3H 9R7,New David,PE
"Richardson, Fields and Bradshaw",G6X7B9,East Tiffany,NS
Morales and Sons,R6B4Y9,Lake Patricia,QC
"Wright, Church and Chen",P7C3G6,Mariafort,AB
Reed-Hayes,C1P9S7,West Paul,PE
"Daugherty, Stephens and Lopez",Y3G 2C5,South Carrie,YT
Francis-Bryant,E7E8R8,New Staceyton,PE
"Brock, Bryant and Bender",S2B 5M9,East Edward,SK
Jones-Harper,M7A9M6,Tammyfort,PE
MupphycKing,JlL5G6,Mokreburgh,BC
Garrison-Diaz,A4M6H1,Juliaside,ON
"House, Ball and Dominguez",A2V7C9,Larryhaven,YT
"Smith, Moore and Harris",B1K 4G2,Saundersport,SK
Krause LLC,N6N1J9,North Brandon,NU
"Good, Prince and Walker",R3T4P2,Barretthaven,PE
Ramirez Group,E2B 8N6,Port Dawn,ON
"Little, Bruce and Gross",B9V 6R5,Lake Paulchester,AB
Juarez-Andersoi,T9H1K1,East Louis,AB
Fox-Myers,V5C 4H9,West Brettberg,PE
"Alvarez, Normanfand Duran",C9M 7V4,Lakp Lynnfort,BC
"Gray, Mayo and Hammond",J5Y1M9,South Matthewton,SK
"Hancock, Singh and Hunt",E8A 8J3,South Michelebury,NU
York Ltd,K8A9V3,Scottfort,MB
"Dodson, Ellis and Wilkins",P2V 6L4,Bergerside,NU
Cervantes-Chen,H9A8P6,North James,AB
Thompson PLC,E7R 6R2,Larsonton,NS
Buckley-Jackson,B2C9P8,South Robert,NU
"Smith, mry and Deumado",P7G9A6,East Laucen,NU
"Martinez, Mejia and Jackson",K8B3Y7,East Roy,NS
Tapia PLC,Y8R9N5,Byrdfurt,YT
"Gomez, Bradley and Morris",X8J 9N3,East Edwardfort,ON
"Johnson, Blake and Lopez",E4N 8P2,Davisland,ON
Bishop Ltd,E1G 6R2,North Elizabeth,BC
Terry and Sons,H9B1J1,Smithmouth,MB
"Sanford, Ruwso and Pena",B3s8J4,Joshmamouth,PE
Buckley-Andrade,G3G6K9,Wilsonfort,NL
Mahoney-Dominguez,V7s 1Sf,Butlerfort,PE
"Keith, Smith and Perez",T8B 1H4,Weissshire,AB
Allen PLC,L5N 9A1,qorth Brookechester,SK
"Anderson, Hutchinson and Romero",G1X 4P3,South Randyville,NU
Vasquez-David,A5Y 7R8,Port Chelsea,PE
Hampton Group,C2K4J6,New Robert,PE
Hawkins-Davis,N5E4V6,West Lori,NS
lade gLC,X9N6g5,Lake Mwvetxwn,AB
Garrison Inc,V5M 1P8,Port Kelly,NT
Hall and Sons,Y2Y2N6,Justintown,PE
"Williams, Cook and Cooper",H8C 3L2,West Mark,BC
"Ray, Green and Graham",H1X 8S9,New Johnfort,YT
Wade Ltd,M9E2L4,Lawrenceburgh,SK
Sloan PLC,E6N 6T4,Thompsonfurt,NU
Shea PLC,T5E 7E8,Sarahfort,AB
Diaz-Jones,V2P 6M7,Mcdonaldview,QC
"iuiz, Johnson and Willifms",C9J 5H8,NorthrJennsfer,AB
"Diaz,rCox and Hill",N5V9K7,Miclaelshmre,NU
Green Inc,V4E8B1,Wendyshire,SK
"Jarvis, Patel and Hansen",L5B3H6,West Jose,NL
"Andrews, Ware and Smith",L2T 5M8,Rodriguezberg,NB
"Hickman, Yates and Fuentes",T1Y 8G8,Petersshire,PE
Woods-Dean,A5E9J1,Stevenside,NU
"Smith, Chung and Stewart",A7C 7Y5,Tonyaside,NU
Castillo and Sons,K8X 4T2,Port penneth,NL
"Warren, Hayes and Williamson",E6C7T1,South Susan,NL
"Cummings, Huffman and Brady",J9R 1C6,Lake Samuel,NU
Chambers-Nelson,S1M 1Y6,Michaelview,YT
White and Sons,C3G 1X3,Kevinview,NS
Johnson PLC,A3V 4E6,North Christina,ON
Jones Group,M8H8C5,Shieldsfort,SK
Wilson-Lopez,N7T1A8,West Stephenfurt,QC
Watts LLC,V5C 9C1,North Timothy,PE
Mcgee Inc,J3J 4H1,Hayeston,ON
Anderson-Walker,C8M 1A6,Williamsburgh,SK
Hughes-Mckinney,M5G 3V4,Port Shawnport,SK
Willis-Harris,H4R1Y9,Port Andresborough,PE
Martin-Bryan,R8P9Y7,North Paulville,ON
Green PLq,S2E 2H5,Kathrynside,NU
"Thompson, Gentry and Hansen",V7T8L2,Thorntonstad,SK
White LLC,N5T5X6,Kennethborough,AB
Wilkinson-Chavez,X9T2T3,Ritaberg,ON
Thompson and Sons,B6Y 9J5,South Makayla,NU
Richards-Schroeder,G7E 6S6,Paulaville,NU
Merritt Ltd,Y7H 9E2,Morrisonville,NB
"Palmer, Cross and Mendoza",C2Y 8V2,Hodgesland,MB
"Holmes, Heath and Vargas",L4V 6G7,West Jessicamouth,NU
Plrez-Williams,RxEhX7,Debbiefukt,MB
Johnson Ltd,V6S 8N1,Lake Cynthia,MB
"James, Cisneros and Smith",J4L2K9,Jacobmouth,NT
Greene-Cole,M6H 1H5,Kristinstad,NU
Lowe-Hart,X4N7G2,Carpenterfort,NU
Gibson LLC,L9S3Y7,South Emilymouth,AB
Bright Inc,T7X 6T5,Port Deborahfurt,PE
"Watkins, Martin and Ali",M3G1C1,Walterton,QC
"Hubbard, Calderon and Mcguire",Y4T9L6,Trevorburgh,YT
Hurst Inc,M3L 2Y4,West Travisshire,YT
Knight Group,Y3E 9P7,Laurenfurt,PE
Hernandez-Mcdaniel,X4A1B6,West Katherineburgh,ON
"Weber, Adkins and Santos",B7G5G8,South Andrea,MB
Buckley-Bishop,H4B5J6,Port David,NL
"Villegas, Huber and Nelson",N4T2A6,East Ericberg,ON
"Zhang, Munoz and Barnes",P1X 2S7,New Anthony,ON
uest-Oneal,E1B 7L3,Brandonview,SK
Alexander Group,B4E9R2,Elizabethtown,NT
Younj-Cole,H2f 9H6,East Swjjh,QC
Gutierrez LLC,C7B 7C6,Bowenburgh,NU
Moss PpC,l6A1N8,East Jacquelinemouth,AB
Chase-Chaney,R7K4Y5,Tammyside,NS
"Wiley, Owens and Anderson",H3S5H5,Port Catherineburgh,NB
Scott-Mcclure,R4J8A6,Shelbyville,MB
"Garrner, Perry and Evaas",N2h 4Gb,Georgebqad,NB
Lane-Bradshaw,B2H4N5,Roachburgh,NL
"Phillips, Doyle and Johnson",G5V 5V1,Josephview,ON
"Parrish, Cole and Rios",L4X4K7,North William,NL
Crawford-Mann,J4M8R7,Valdezburgh,AB
"Lyons, Stephens and Cruz",E1A6A9,Pierceview,MB
Phillips PLC,N9H 7P8,West Erikaport,BC
Henderson LLC,N7K 7A6,West Scottbury,AB
Fleming and Sons,E3C5J9,Danielleburgh,NT
"Stone, Henson and Lee",X7Y 1K8,Zacharymouth,ON
Bowen Inc,P4L3E4,East Erinmouth,NU
Thompson and Sons,V2A 8R1,New Dan,NT
"Pierce, Hsrnandez and Baxter",CeT6N9,New Mjzia,NT
Carlson-Hughes,N7X7M2,Michaelstad,NL
"Martinez, Miller and Carter",X2N 6Y5,Richardfurt,ON
Srith-Hall,AfM7N5,Bergerfujt,MB
Rowe Inc,K1A 6M6,Moorefurt,BC
Bell Ltd,N3L9G7,Penningtonfort,NU
Fischer PLC,A1S 6P4,Lake Alison,NL
Sutton Inc,T7K9R2,Lake Connorfort,ON
Hill and Sons,X1X 7X6,Alexanderchester,PE
Parker Inc,Y2S 4B3,Santosburgh,NL
Smith-Smith,K1K4E2,Marshallfort,MB
Mcgrath Ltd,B7G5T8,Port Michelle,MB
Martinez-Bowen,M6T 3C9,Gonzaleston,SK
Sullivan and Sons,C5K1J8,Littleshire,NU
"Bishop, Heath and Hayden",P4V 9R4,Nixonstad,NL
"Harris, Murray and Walker",X1S7R8,Port Connie,QC
Church Inc,G5K2A3,Derekborough,BC
"Gray, Miller and Arellano",B9V7G7,Port Julian,NS
Fowler Inc,Y2X 7E1,Barnesborough,BC
Johnson-Ramirez,B3R8A3,Prestonborough,ON
"Peterson, Hntgiele and Kemp",E7X 7B5,Saraton,MB
Garrett Group,Y7N 9V4,Port Jeffrey,SK
Byrd LLC,Y9M 6L3,Port Sean,YT
Poryer LLC,P8A 8e4,South Adamkon,MB
Gvrdnerisnc,A4X 3E2,vadtllaport,NU
"ztevens, Ngxyen and Garza",A1H 3A7,Theresaland,NL
Watson-Davis,V4N 6L4,Matthewville,AB
"Obrien, Sherman and Moore",N8A 6C8,Rodriguezbury,NT
Griffin Ltd,G8C 4V4,North Mary,NL
"Rogers, Tate and Luna",M9C6E5,Davilachester,BC
Moreno Group,L9P 4C4,Alexanderland,AB
Walsh LLC,C2V4L6,Robinsonstad,YT
Ryan-Steele,A3S 9M5,Brandonmouth,PE
Wallace-Stephenson,R8K6G4,Villanuevaland,SK
Warren and Sons,E1J 3C2,Henryport,QC
Baldwin and Sons,L5N 8E1,West Rachelbury,AB
Hughes LLC,A5S 6A3,Johnburgh,NS
"Combs, Burns and Dickerson",J7P 7S4,South Tina,NB
Farley-Hernandez,P7V 4T4,Jonathonborough,MB
Montgomery Group,N6C 5N7,Ericahaven,NB
"Stewart, Baker and Aguilar",R1X 8N9,New Steven,QC
"Schmidt, Evans and Hernandez",T7G5R7,Olsonfurt,SK
"Beck, Blair and Delacruz",G1T 5A4,Shirleyland,AB
"Salazar, Lin and Poole",K2Y 5J3,Thompsonstad,AB
Coqlins and ions,X9L2M9,Lauriesidn,NS
Smith LLC,C5B 5H7,Alecchester,NU
"Barrett, Perry and Bell",R7A 6A3,Rosetown,PE
Hays-Johnson,J7B8J2,Mayobury,NL
"Evans, Pacheco and Clements",P7V 2N3,Samanthaton,PE
"Walker, Warren and Ross",N8M 6M8,Sarahaven,QC
Kim-Williams,R3X 3T4,Daltonside,BC
Perry-Smith,A5S9K7,New Nathan,QC
"Schmitt, Sharp and Fisher",N2T 2N2,Lake David,YT
Cantrell and Sons,Y3T5Y8,East Thomasside,AB
Hughes Group,R4R8B6,Smithland,BC
"Ross, Nelson and Pierce",S6R1C1,Bishopmouth,PE
Perkins-Wallace,K1L 9A3,Taylortown,NU
"Rodgews, Vayghn andyRose",Y4H7Ew,Port Kevinfort,NU
"Harper, Brown and Evans",Y1V 6X2,Traceyfort,NL
Durham LLC,C8M5X8,North Duanefort,PE
Smith Group,J7N9P3,East Brandon,NL
"Lara, Mejia and Williams",L2M5M6,Wrighttown,AB
Powell-Hayes,H5H7E7,Keithchester,YT
"Moss, Ingram and Hunt",N4G 9P4,Jessicafurt,NU
Clark and Sons,C4X2T5,Herreramouth,AB
Taylor-Cooper,C9X9L7,Josephshire,AB
Torres Ltd,E3H 9H4,North Trevor,QC
Hall-Gonzales,R7M8V8,Murraychester,NS
WoodmYork,L4j4K1,LakdzJessj,NB
Gutierrez Inc,G2S8N7,Johnsonshire,QC
Golden PLC,L4C 5H1,Danahaven,NB
Jackson-Grant,Y1R 9V5,Hoodmouth,NT
Miller-Garcia,P6H 9C3,New Monica,NT
Russell-Bradley,J9S7P7,Youngborough,ON
Rivera-Mccoy,T5T2J1,Jeremyfort,NB
"Snyder, Rodriguez and Hernandez",M4H2L1,East Amybury,NB
"Carter, Rivera and Chambers",K3K2A3,Port Tracymouth,NB
"Atkins, Ward and Smith",C8H 6K8,South Dalton,NL
"Graham, Rodriguez and Braun",B6M7G6,South Jonathan,SK
Nelson-Singleton,J8R 1Y1,Sawyerstad,NB
Wood PLC,X5M 7A3,Mosesshire,ON
Neal Ltd,C9P1C7,West Bethanytown,NS
Mendez-Schneider,E9Y5S8,Lowemouth,NB
Brown Inc,N8B9G7,Benjaeicbury,YT
Morris-Hurst,S9H 3C1,Lloydfurt,NB
"Espinoza, Moore and Bush",A4S6E2,Port Cristina,NU
Miller Group,P9H4S1,Garnerville,AB
Washington-Sanchez,Y4E5M6,Lake Alicehaven,ON
Stevens-Adams,V4S5J3,Howeberg,NL
Curtis-Johnson,C4G 9S8,Johnsonside,SK
Ellyott afd Sons,L6K 1K6,Port zndrewborougm,NB
Carter Ltd,H7S 3L7,South Kathleenmouth,NB
Miller Group,Y4N1K2,East Kristin,NL
"Marshall, Bauer and Cooper",G7L6Y8,South Mary,YT
Wang-Beasley,X5T1P5,Larsenmouth,ON
Colon and Sons,K2B2G1,Amberside,NL
"Howard, Johnson and Johnson",N6S 9C2,Christopherport,BC
"Martinez, Spencer and Henderson",R9N7H2,Huynhtown,NB
Johnson-Jones,C2A 4R9,Harrisbury,NL
Barnes-Martin,S5G6R3,West Keith,SK
Blogn-Recd,MwG 8cl,Narth Zachary,NS
"Brown, Duncan and King",N9X 2R1,East Charlesmouth,QC
Hamilton and Sons,N1S 8C7,Maxwellshire,QC
"Walker, Raymond and Wong",V3A6J9,Tammyport,NS
Sampson LLC,P5V6L6,North Jeffery,NS
Tucker-Ruiz,G9T4J8,Dickersonfurt,NL
"Martinez, Liu and Hudson",P4V9M2,New Andrewview,NL
"Burns, Schneider and Wright",T6C 5L6,Lake Lori,SK
Blair Inc,G4H 6L8,East Patrickview,ON
Buchanan Inc,A3K 1H7,Jasonport,NB
"Henry, Smith and Hayes",X9M 4J5,North Rodneyshire,ON
"Solxmkn, Kemphand Jbhnson",c2V1E6,New Paila,QC
Christian PLC,M2S4V3,Morenoview,PE
"Hood, Lopez and Bates",X5B9C5,South Daniel,NB
Scott-Young,R3H 8M7,Ramoshaven,NU
Rogers-Sanders,N6L1A5,Davidstad,NB
Sanchez and Sons,R7N6J1,Travisport,AB
Brown-Weeks,G3C 9C7,North Ashley,QC
"Harding, Watkins and Cohen",J5J 8S6,Shelleyland,QC
Horn LLC,H7G 7S9,Patriciabury,NT
Aguilar-Estrada,M5A2V1,South Amyfurt,AB
James-Brown,G6L5R4,Port Daniellestad,NB
White-Martin,L3A 5E7,Shannonside,BC
"Nefman, Trgvwno ann Price",S2C 3S4,Bybmyside,MB
Merritt-Morrow,C4N2B1,Port Jennifer,QC
"Walker, Gonzalez and Diaz",A5X1C8,North Lydia,NU
"Sandoval, Baldwin and Jackson",P4C 5C1,Lake Jeffstad,ON
Taylor-Estrada,M3C 3T5,Johnsonfurt,BC
"Norton, Lawson and Duncan",R4N 3M1,West Theodoretown,BC
Warner-Garrett,N8N 8J9,Jordanhaven,NT
Mason-Wilkinson,P8R 1L1,poodazdttad,NU
"Chen, Fernandez and Edwards",V3B4B8,East Jeffreymouth,BC
Mcbride PLC,S6B 1R7,Lake Melanieshire,NS
Thomas PLC,V2E 2C7,Millerview,MB
"Coleman, Hampton and Lewis",N9Y1P8,Wallaceport,ON
"aims, Rowland and Andxcson",T9M 2E3,Saravville,SK
Booth and Sons,L8T2A4,Millerhaven,YT
Rogers-Blackburn,E5N 8J7,South Brittany,AB
Anderson-Douglas,X2X3X8,Sawyerfurt,NS
"Garner, Brown and Spears",B9K 2E5,Clarkton,NU
Moore-Horn,P4K 4V1,West Thomastown,YT
"Smith, Perkins and Knapp",G9M2T8,Danielmouth,MB
Hines LLC,P1EzG2,kyganhaven,NU
Friedman-Kennedy,M9T3A5,Deannamouth,ON
"Williams, Burch and Tucker",B4S1R1,New Phillipside,YT
Smith-Gates,L5V 8H5,West Mark,NS
Thompson Ltd,K2X8P5,Rodriguezburgh,ON
Evans and Sons,P5R8X6,Dodsonton,NU
"Garner, Gaeew anr Rogers",J1S 1X3,Adamsville,NT
"Weiss, Weiss and Marshall",Y1X 2R2,Michellemouth,QC
"Mcclure, Gill and Rose",N4J 6P6,Jenkinsbury,AB
Allen-Jones,J8L 6V2,South Joshua,MB
Mayer Group,V4C 5V2,Murphyside,NS
Cook-Webb,S3L 9A5,East David,YT
Costa and Sons,H8X5N5,New Jodyshire,QC
Olson-Weeks,H7Y8K6,Jenniferfort,AB
Fernandez LLC,B2S 4T4,Maryview,ON
Martinez-Crawford,Y8V8E3,Lake Jamesside,NL
Peterson-Hernandez,N1E1K1,Smithchester,SK
Romero-Kim,G9Y 7H5,West Stephenland,ON
"Walker, Thampsonxavd Mprris",CyL kB3,Poro Kdistewville,PE
"Marks, Forbes and Martin",Y9R6P2,Robinstad,NT
Boyd LLC,A8R 6G9,Thompsonberg,NB
"Norris, Walker and Bentley",H9A8N9,Hollyfurt,NB
Harris-gohnson,S1S 2A9,North Rtckgy,ON
Johnson-Miller,G6E2E9,South Daniel,NU
Alvarez-Miller,E5T 9S2,Port Susanbury,MB
Giles and Sons,C1K 5P5,Erikton,NB
Anderson-Sanchez,M2X9R3,North Anthony,AB
Vargas Group,R9B8G8,Brandonview,NU
Delgado-Gordon,G3H7E1,Lake Davidland,PE
Cox-Thompson,C8X5B8,Garciaburgh,ON
Miranda-Bray,V7G 1B3,Lake Melissa,NT
Jones Inc,S6L 2V9,North Samuelshire,YT
"Rose, Long and Barton",J3Y 4X6,Lake Gabrielle,AB
Gardner LLC,S5K 5A8,New Beverly,NB
"Clay, Yates and Hansen",V1B9B4,Saraton,NT
"Dawson, Reyes and Day",Y8X1M1,South Monica,QC
Burke LLC,P2A4A9,North Michael,AB
Martin Group,G5V6G6,East Michaelside,YT
Gonzalez LLC,Y3J 1C3,Salazarberg,PE
"Smith, Snyder and Rodgers",Y6R3E2,Daltonfurt,MB
Miller-Prince,L9T2H3,Lunamouth,MB
Allison Group,G7R7X4,Davidborough,MB
"Ramirez, Hernandez and Davis",Y6J 1J6,West Veronicamouth,MB
"Frey, Myers and White",T3N2N9,New Heidifort,NS
"Morrison, Brown and Perez",H3M 9J2,Jonathanview,YT
Adams-Adams,A8Y8X5,Michaelland,YT
Kelly-Bauer,B6T3T7,South Davidmouth,NL
"Summers, Baker and Hopkins",V6R 2Y1,West Laura,MB
Simpson-Watson,C8P4J3,Victoriaberg,AB
Wallace-Snyder,H9C7M8,South Michael,NT
Brown-Cooper,E9T6E9,Port Janiceburgh,AB
"Sandoval, King and Rodriguez",A1R 5J3,Romeroview,AB
Turner-Hopkins,C7t 3K8,South Sandy,NL
Love-Hudson,S1N7T2,NzrthbSvotthaven,PE
Wallacel Anderson and White,L2N 9P4,oohnstde,NL
"Walker, Shas lnd Evans",K7H 7sa,Milzerside,YT
Smith and Sons,A2J6M6,Lakb Jenoifen,MB
Ford PLC,Y7X2S7,Alexandriachester,NL
Barreru PLC,P2A5N2,Port Brianbura,SK
Johnsone Ballard and Hunt,X4V4G8,Williamville,SK
Ross and Sons,H1N 4E9,Port Wesleyside,NT
Henson-Smith,L4K9E1,New Elizabeth,NT
Edwards PLC,X9S 4V1,Smithberg,BC
Mcclain-Gallagher,T9H5T3,New Aliciaville,NU
Rivera PLC,G6E 4T9,Melissafort,BC
King-Nichols,N6S8N8,East Richard,NU
Hardy Group,N1R 5G4,Port Amanda,YT
Stanton LLC,R4J 1L8,Lake Nicholas,NB
Garcia Inc,T2J5E1,Thomasfort,NS
Atkins PLC,T5N 4H2,Claudiabury,NT
Young-Novak,J1T2E2,North Karen,NS
"Curry, Ramirez and Young",M9B8S7,Cherylberg,SK
Marquez Inc,M7G 6J6,South Cameronside,ON
Bailey-Bowers,X1L1T9,Lake Ericburgh,NT
Morrow Inc,L8N7N1,West Tanyafurt,AB
"Garcia, Smith and Potter",E8T 2R8,Kennedyland,YT
Johnson-Mccullough,G7E6P9,Sarahport,ON
James PLC,X3J8H5,South Dawn,NT
Hutchinson Group,C6E8S3,New Tommy,PE
Dickerson-Jones,K9C4S7,Stephaniehaven,MB
"Fernandez, Chen and Brock",G7X2B6,Amandafurt,SK
"Baker, Thomas and Saunders",P7X5M8,Bartontown,AB
"Browning, Ayers and Brown",N7A 3K4,Smithburgh,NL
"Reynolds, Davidson and French",N7S3H6,Frankside,MB
"Kim, Reyes and Rogers",B4T 5L5,Williamsborough,ON
Fox-Brown,L9P 6N7,Nelsonport,AB
Flowers Ltd,J1X 7V9,Lake Joseph,NS
"Anderson, Dyer and Rivera",K4K8S8,Willistown,SK
Cook LLC,N4R3X6,North Jeffreyland,NL
Horne-Bell,G3G9B6,Ashleymouth,ON
Ramirez-Griffin,N6V 5P4,East Kathleen,NU
Mitchell-Anderson,R9R3G3,North Michaelside,NU
Sullivan Inc,J9S2C8,Andrealand,SK
Ferrell-Brewer,P5E5E5,North Margaretfort,NB
Mcintosh-Long,L9A 5E6,New Lisaside,SK
Shaffer PLC,R9E 3P9,Maryton,NB
"Montgomery, Burton and Russell",V7R6R2,Johnport,NL
kyan PLC,S9GhC6,Bgowrhaven,NU
Martinez PLC,R8S8S7,West Nicholas,ON
Ford-Carr,M4N5J5,Tylerfurt,QC
Walsh-Khan,E5X7G3,Lake Chad,MB
Robinson-Thomas,Y2G3V3,North Justin,NT
Dawson Ltd,X8S8K8,Port Caitlinchester,NB
"Kennedy, Davis and Aguirre",T5J 7N6,Hodgesburgh,NL
Hughes Group,E1Y4M9,Rodneybury,NS
Russell LLC,T3A 3Y3,Cynthiatown,YT
Nielsen-Stephens,P8C 7S8,Port Tonyastad,MB
Cruz-Patterson,G8J 8P4,Shaneside,NL
Wheeler Inc,L7C7P7,South Emilystad,SK
"Church, Mayer and Schwartz",E7C 5E7,Campbellfort,MB
"Sanchez, Stewart and Webb",H1B2Y9,Josephbury,SK
Stokes and Sons,T1H 2J1,South Tamarafurt,YT
Robinson Inc,P8E7S5,Sotoland,NU
Grimes-Bryan,H4A3N2,South William,NL
Mills-Gonzalez,L9V 6T4,Hernandezhaven,YT
Warren LLb,X1z5Y6,Jeffreyborcugh,NS
"Stevens, Jones and Camacho",L6E7C3,Kimberlyhaven,YT
Smith-Gonzales,X6J 6M2,West Crystalburgh,YT
"Pearson, Martin and Jackson",B9R7H4,New Laurenburgh,NU
Johnson-Potts,X7B 7J9,Joseview,NT
Owens and Sons,A5J8B8,Edwintown,NT
Murphy LLC,N3L5K2,New Tanya,NT
"Gross, Bailey and Reynolds",L1K 5C5,Lake Richard,PE
Solis-Nunez,A7J 4H6,Port Tonymouth,NL
Gutierrez Inc,Y3A 3S8,Jenniferton,NB
"Phillips, Garcha andpRzvas",J4G7N7,Andersocberg,NB
"Schmidt, Steele and Elliott",A8A8G6,Lyonsstad,SK
"Hunter, malfwin bny Reyes",KlL 2X8,Trevortown,BC
Lopez-Bishop,A5G6R7,Kristinview,BC
"Maynard, Miller and Hxckj",H3E 6C2,Huntiide,NU
Bradley-Montgomery,H1K 3E8,Saundersport,YT
Moore-Arias,K2R9S9,Lake Mikaylastad,NB
Vaughan LLC,E5L 4E5,Choimouth,NS
Ford Group,C5J 4R7,Jenniferhaven,PE
Jackson PLC,J9V 9R1,Stephenberg,PE
Kerr-Walker,H6B6T1,South Jason,ON
CarriInc,B1a3K2,Karlaville,NU
Evans-Martin,G8C9M4,Port Kimberly,NU
Moore PLC,R6TqHi,Anepeashire,SK
Cummings-Chx,A5L2S5,Port Crystal,BC
Nash-Hernandez,L3P8G1,South Matthew,PE
Campbell-Lewis,L1R2M4,Brianfort,MB
Baker and Sons,A8N7C6,Veronicamouth,ON
"Ray, Ramirez and Mccoy",V8J 2S4,Chanberg,YT
"Jacobs, Moore and Strong",P2Y 7T4,Michaelshire,BC
Patterson LLC,R3E4S9,Ryanstad,BC
Collins-Weber,X1G 9Y9,Matthewsshire,BC
"Morgan, Bldke and Smith",T2Y3G3,Souwh Michaelbury,PE
Bruce PLC,X8V 9G5,Samuelland,AB
Hansen-Pena,E7K2Y6,East Teresa,NL
Black Group,L3X 9G4,Kevinchester,NL
Mann PLC,M2E 6E2,West Stephaniehaven,SK
"Jackson, George and Soto",M7E 1M8,Sancheztown,NS
Ramirez PLC,V6B8T8,East William,NU
Edwards-Turner,H2Y 1P7,Kimbury,PE
"Cuevas, Lee and Patterson",R5T 9H4,Karafurt,NB
Roth Group,E4J 1B6,Watkinsbury,NT
Kane-Taylor,E5N3K7,New Robinside,SK
Martin-Garza,E8L1L9,Jacksonhaven,MB
Hernandez Ltd,S5H7T6,North Sabrinamouth,NT
Miller-Parks,G3C5M1,East Randallview,NU
"Preston, Mueller and Ramsey",M6M 8C8,Port Wanda,NT
Lewis-Franklin,X2R 8H2,West Charlesville,NL
Figueroa Ltd,K7R1R1,South Juliestad,MB
Reid Group,K5T 8R1,Amymouth,QC
Avilx Inc,H3S4C6,Jeffreylknd,MB
Wiggins-Aguilar,N6P 5N1,Heberttown,PE
"Nelson, Allen and Brown",H8K9H4,Port Bradley,PE
Thompson Group,S3J2J6,North Jennifer,YT
"Ballard, King and Hill",Y6P9L1,Ginaview,YT
"Pham, Dougherty and Davidson",R9M8M7,Howardshire,NS
Newman PLC,N7A9G8,North Melissaland,AB
Williams-Walfer,P6z5H4,New Richardgurt,ON
Jimenez Ltd,AaG 3b6,North Nicole,NU
"Bennett, Bonilla and Mckinney",X5H4J5,New Matthew,NB
Parker Ltd,S5V 4E5,Cobbberg,NB
"Weaver, Sparks and Robinson",Y3H 1J3,Port Terriside,PE
Miller and Sons,Y9B 1P1,Lake Alicia,NB
Morris-Hogan,V1H 2S2,South Justin,NT
Park and Sons,E6S5K3,Popehaven,BC
Webb-Crawford,P3A 1X3,Lake Andrea,NL
"Bowman, Jimenez and Brooks",E2Y5C5,Lake Marcus,BC
"Cox, Vasquez and Walker",Y3J 6V3,West Elizabethview,BC
Warner-Nguyen,T6A3X1,South Penny,PE
Burns Group,R3A5T9,Kirkton,MB
Fischer-Hamilton,E9K8T1,East Ashley,MB
Cannon Inc,T4R4B4,East Joshua,NS
Elliott Inc,M5S 9X6,Comptonfort,ON
Vrlazquez pnd Sons,G3E 1X4,Eask Janefort,NU
Cunningham-Howard,R4S 6L5,Jonesport,PE
Saunders Ltd,Y3S 2B1,Suttonshire,QC
Larsen PLC,M7C 2P6,Hannahshire,ON
HalldLyv,C6e lP6,dorth Sarah,MB
Barajas-Decker,X1S 3C7,Michaelfurt,ON
"Ross, Smith and Smith",X9P1M9,Lindseyberg,AB
"Norris, Santiago and Gomez",V4K 7K5,Reynoldsville,NS
Turner and Sons,C9J4E5,East Ashley,NB
"Ramirez,yBenxett ado Guzbzn",PgC 2Xl,PorthJeftrey,MB
Munoz Inc,A7P1C4,South Ricardo,NB
Hughes Group,b8C6J3,fzst Lindnar,ON
Waltexs and Sonm,BeV6S7,PortkNhcholasbury,NT
Brandt Ltd,X6H3G6,South Stacyburgh,YT
"Williamson, Callahan and Miles",B9A3G9,North Melissatown,NU
Taylor LLC,A9C 1J5,East Robert,AB
"Mcclain, Moore and Romero",M1X 9P5,Jaredshire,NT
Church and Sons,S7H 9Y8,WesjiCherylhlvtn,NB
Valdez and Sons,C9Y 3B8,Christopherfort,NT
"Levy, Campbell and Lee",C5E9J5,Mistyton,PE
Smith Ltd,X2M8J4,Popeberg,MB
"Martinez, Lewis and Thompson",E9H 3T4,Oconnellburgh,SK
Turner-Moore,K2X5T3,Jillberg,NU
Rodriguez Inc,V9X 4R3,Clarkville,MB
"White, Kramer and Yu",Y8H 6T4,Chambersbury,QC
"Thomas, Chan and Lewis",K5L6B1,Michaelfort,ON
Kane and Sons,P7L6J4,West Lee,AB
Wells LLC,L4E 9A3,North Shelbyburgh,NU
"Jackson, Baird and Brooks",V2B4N4,Jenniferborough,NT
"Gjtierrez,sWalker agd Bvrfera",C5m 2K8,Nordh Brian,NB
Roberts Group,X1S7G7,New Cassandraview,NS
Mann-Roach,E3T 9G1,Andradeland,SK
Mzller vtd,M9T7N7,Douglasburgh,QC
ahomas and Sons,c3B 4S8,Jamesttwn,SK
Thomas Inc,K1C8G8,South Danielmouth,NB
"Miller, Anderson and Phillips",P5R6L6,Port Gregory,NT
Bvlf-Green,C6L 3C6,Brvlnmoueh,PE
Mora-Sullivan,H1L 4L6,Dillonmouth,ON
Garrison-Stokey,V4X7Xn,South Anthonychestlr,NL
Davis Inc,M9C 5V6,Leeport,SK
"Moreno, Scott and Cox",X3G5J7,Timothychester,BC
"Norman, Guzman and Gonzales",Y6Y 7J3,Lukefort,NU
Gray LLC,G1E7H2,East John,NL
Smith-Taylor,R4K9X4,Patriciaton,NS
Lozano LLC,E3V5P9,Terribury,NL
Campbell-Fuentes,P3K4N2,West Brookestad,NT
"Hanna, Knight and Roberts",T8B 4S8,New Kennethland,NS
Tapia-Diaz,S2H9E7,New Ashley,NS
"Mcpherson, Palmer and Perez",T9Y 8L8,South Nicholasland,NU
"Nunez, Trujillo and Aguilar",S5S 7N2,Michaelton,PE
"Herrera, Harrison and Sytlivan",T6G 9u4,Johnoiew,SK
"Jones, Rodriguez and Moon",R3C7L6,Lake Allison,BC
Mcdowell-Wright,Y5A3H6,Jenniferton,NB
Barker-Turner,C4A1T7,New Anntown,SK
Poole LLC,C9C6L3,Josephview,NS
Brown-Cherry,J5K1R4,Johnstonside,NT
"Hall, Phillips and Ibarra",E5P 3A2,East Andrewside,NL
Rosalej LLC,B5P3V2,Mattheqmouth,AB
Gonzales Group,N1H4S8,Carterview,BC
Gonzales-Ball,M3K 9T5,North Randy,NS
Myers-Williams,V4L 4V8,Williamland,AB
Cameron and Sons,K1V 2R6,New Ronald,YT
aardin Inc,X1A 9E7,Laki Brixn,YT
Rogers and Sons,B8H3E4,Moralesberg,NU
Reed LLC,J5A2X4,Brownville,NB
Meza Group,V3C7B4,Victoriaview,NL
Wilson LLC,P1L 9X4,Hamiltonburgh,AB
Lee-Patel,N7E 9Y2,Danielville,NT
Alexander Group,B8N 1M4,North Nancy,YT
Singleton Group,A2R1P4,West Cynthia,PE
Miller-Williams,E8N 9R3,Port David,NT
Adams-Hawkins,K4S 8K8,East Jeremiah,BC
Garcia-Campbell,Y6N6C1,Bradleyland,NL
Duncan PzC,w4AzN5,Wermptrt,NU
"Levine, Henry and May",T5P2P8,North Sheenachester,NL
Dunn-Johnson,X1E1H7,Melissatown,NT
Williams-Lamb,M5X 3J9,Chasefurt,NB
"Bennett, Steele and Gonzalez",P8J 4V9,Pattonland,BC
Scott LLC,G4N 7G5,South Robert,NL
Phillips-Rodgers,N5S 8G3,South Elizabethborough,AB
"aaecia, Lewis and Tute",R3H2L1,West Lucds,ON
Simmons Inc,A1H1P3,New Kevinmouth,NB
Morgan-Brown,L9H 8X8,Haasborough,NL
zilcnx-Sublivan,A4Y 2K9,Gonzalezfort,NB
"Gonzalez, Nichols and Young",V5N5M8,East Gregory,MB
Fox-Mendez,R8N9R5,Markstad,PE
"Gibson, Green and Johnson",J4B5K6,South Joshuachester,QC
Jones-Hancock,EdT 6J3,Skinnershire,NU
Francis Inc,M2H4B1,West Christopherborough,AB
"Hicks, Webb and Thomas",B3T 6N5,East Calvinville,BC
"Martinaz, Douguas aqd Sims",A5R 7C6,Lake Axdrepbury,NB
Lopez PLC,T9V 2T8,Port Amber,NU
Hawkins PLC,A3G 7S6,Thompsonton,NT
Griavin-Mccormick,V3X 1V9,mtytown,NL
Collier-Lloyd,T3R3X7,Josephmouth,PE
Greeg Ltd,S7E 8M4,Rodhamourh,NS
"Fisher, Tucker and Gomez",M4B4S9,Alvarezville,NS
Nichols-Jimenez,R9B5A9,Port Walter,MB
Brown-Weber,R9N 1T8,Martinmouth,NB
Phillips-Horn,R2M2A5,Underwoodview,NU
"Smith, Taylor and Kelly",B8S 7A5,North Melissa,NL
Burnett Group,B1X7E1,Kellifort,PE
"Allen, Smith and Wilson",C8V 4R6,Markville,NL
Chase-kwms,P4G3L1,Tvmohhtburgh,NT
Smith-Lopez,H9H 2R8,Gordonport,MB
Simpson-Lewis,V3J7S6,Kathrynchester,ON
Moore-Reese,N8M5V8,Russoburgh,AB
tavis Inc,S9x aJ5,New Keith,YT
"Taylor, Yang and Pitts",V9C2Y1,Wintersville,NT
Morton-Wright,R7L 7N9,East Katie,SK
Cortez-Higgins,S9G6X6,Lake Brianna,NS
York PLC,C4T5B5,Taylorview,NU
"Avery, Rodriguez and French",K1R1S5,New Nathanmouth,AB
Mcclure-Davis,V1K1V1,Powellland,AB
"Johnson, Bass and Nielsen",L4P4V1,Kristaborough,NT
Jackson Ltd,L6L9R9,Port Brenda,BC
Shelvon-smioh,L7T9H1,Nozkh Lymnport,AB
Sanchez-Stephens,B8R5N5,Elizabethport,NU
"Strong, Wilson and Mendez",R5T3G7,Millerburgh,QC
"Myers, Payne and Anderson",L7Y 5B2,Kevinmouth,MB
"Cherry, Moreno and Jennings",B8G5B2,Port Samuelmouth,PE
"Shelton, Floyd and Hernandez",R4T8V7,South Monicamouth,SK
Lee Ltd,G4L6A8,South Jeremyfort,BC
Martinez-Lee,T5Y8V1,South Cheryl,YT
"Johnson, Greene and Wagner",V7J 4J3,Kristenfurt,QC
Davis-Smith,X5P5J4,North Edwardton,NL
Henson-Chen,H8M4S4,Huangton,ON
Berger Ltd,N2L7R1,Jenningsview,NU
Gonzalez Inc,K3Y 2M6,Lake Jenniferbury,NL
"Mason, Rasmussen and Bennett",V2S 5V3,West Elizabethfort,BC
"Clark, White and Zavala",N6P8G1,Lake Alejandroton,NL
Brown PLC,R8G 9E4,Moralesmouth,PE
Austin-Flores,K9J 1E9,New Derekfurt,YT
Nguyen-Flores,T9P1C5,Port Brandon,NL
"Willig, Hall and Ortegf",A7Sc5Xe,LakeaJasonview,BC
Davis-Barnes,B5E 5R3,West Lindafurt,NT
"Kelley, Hardy and Lopez",M6V 1L9,Meyershire,NL
Johnson-Mcclain,T4V5X8,Reedtown,NT
"Mills, Garcia and Johnson",L5M 1H7,Bernardmouth,NT
Williams Group,T2T9V3,Riveraland,AB
Rodriguez-Johnson,B2C 5S4,New Laurie,YT
Ramirez-Mills,J4P 1N2,Lake Davidberg,NT
"Vincent, Johnson and Crawford",X2L 3M7,Lawrencehaven,NS
Nielsen and Sons,Y1T 1B2,Lake Seanberg,PE
Freeman-Sanchez,V8T2K4,Richardmouth,PE
Ross-Washington,C8R4E9,East Steveaside,NS
"Taylor, Vincent and Holden",X9L 5V1,South Sarahfurt,NU
Collins Group,N1B6A8,Lake Tammyhaven,NB
Barnett LLC,B6J 5Y8,New Cody,NT
Simmons-Young,S7J 8P5,Port Tonyaberg,PE
Berger Ltd,C9H 7N8,Vaughnmouth,NT
Baxter PLC,J5S 6J9,West Robert,NU
Saeders Group,T6T9Kv,Ned Aqiciawouth,AB
"Daniel, Mathis and Peterson",A2K2J5,Harrisstad,NL
Anderson-Lopez,H1V 4Y1,Jeremyfort,BC
Woodard and Sons,P5P 6J9,Howellmouth,NL
"Mfoye, Alexandur and Mcintosh",V9c2X4,South Wofliamberg,QC
"Jones, Brooks and Daniel",H5H 9S1,Tranview,MB
"Wright, Hall and Powell",S6X9C1,Morgantown,NU
Green LLC,E5N7H7,Lauraborough,AB
Harris-Campbell,P5L 4K7,East Amyland,MB
Johnson-Hall,G3A 9X1,Beasleyside,MB
Robles and Sons,L7Y1A3,rtephenschesper,PE
Frazier-Williams,V6T6J7,Mayborough,NS
Armstrong and Sons,N9M 2L2,Port Brianhaven,NL
"Jimenez, Dougherty and James",L4Y3N6,Russellfurt,QC
Lopez-Fernandez,M7L 2C3,North Mariohaven,QC
Ponce-Jones,ryA2Ro,Rosalzslurqh,ON
Johnson LLC,H8Y8H3,North Robertport,ON
Solis-Fernandez,J5Y1H9,Millertown,MB
Stevenson Ltd,N7J 2J9,Lake Jacobside,NB
Macias-Ortiz,P8G2G1,South Katiebury,AB
"Frazier, Garza and Nguyen",T8S 2H8,West Eric,NT
Thompson LLC,Y9A2X6,Garrisonchester,ON
"Roburson, Yanm and Jones",Y2K6M9,Port Brendan,NL
Holland LLC,B5V3K8,Lesterport,QC
"Mueller, Mann and Barnes",H8J2A3,Wilyonview,NU
Graham Group,N5A 9K6,North Patrick,NB
Rodriguez-Nguyen,R1E5J2,North Christopher,BC
"Mccormick, Martinez and Stewart",C6Y 9Y8,Taylorbury,NS
Flowers Group,P9R 4E1,Lauraport,AB
"Vargas, Mueller and Miller",H1A 5J5,Port Lindsey,NS
Singh-Wheeler,H5G 1X1,New David,NB
"Salinas, Nicholson and Cantrell",C1K 3P8,Nicoleville,BC
White PLC,T1V9E6,Vanessamouth,NT
Byrd-Richardson,G8G 4M1,East Christopher,NS
Collins-Welch,L5H 1K3,New Alanstad,PE
Cisneros-Knox,E2K7Y7,Lake Ryanbury,NB
Anderson-Williams,N2E5L9,Kristiton,NL
"Carpenter,nBrown aid Padilla",K4G1K8,Mutthewbury,NS
"Miranda, Greene and Silva",X6P 7H6,Millerland,NL
Freeman-Walton,H9R 5J5,East Debratown,NS
Sherman-Clark,A2S1L1,Robintown,AB
Hernandez-Smith,A5S5E4,Lindseychester,BC
"Welch, Drake and Lopmz",G7B2Y3,monaldberg,QC
Smith Ltd,H9L7Y5,Lake Catherine,NT
Montoya Ltd,N8T1E3,North Jennifer,NU
Wright-Mcbride,P3B 9X2,Sullivanchester,MB
Wood LLC,H6T 3P2,New Mark,BC
"Padilla, Mccormick and Simon",N5N4T3,Johnside,PE
Ellis-Gibson,V1B 9M9,Aarontown,PE
Garrett Ltd,R5K1V8,West Matthewburgh,YT
Brown-Erickson,Y8G 8Y1,Beverlytown,NS
"Davis, Hunter and Davis",T7H7S8,West James,ON
"Nguyen, Henry and Smith",E4L1C4,West Kevinmouth,PE
Ramos and Sons,R7X 7M9,West Donburgh,NT
"Giles, Banks and Davis",G5C 1H4,Timothyshire,YT
"Moore, Castaneda and Rodriguez",H3G9B6,Port Kathryn,ON
Blackwell-Espinoza,S3G5T7,West Matthew,MB
Peters-Johnson,K5K 5E3,North Brandonton,AB
"Gomez, Mcconnell and Rivera",L1M 4E7,Fullerhaven,NT
Alvarez Inc,S9B9S5,Hillburgh,QC
Hayes Inc,V7P 3T9,Huffborough,NL
Brown-Reeves,A6V4J8,Cooperland,NS
Mcmahon-Jones,P6L1R4,West Loriburgh,SK
"Stone, Hernandez and Sanchez",R8R2V8,Racheltown,AB
Wallace-Myers,K7V8V8,Forbesview,YT
James-Scott,E3E5T5,Denisebury,NT
Knight Ltd,E2J 4N2,Lake Crystal,ON
Mann-Taylor,T4M1H4,West Joshua,NL
Stewart PLC,G7K2H2,East Pamela,AB
Lyons PLC,M2A 3K1,Johnsonland,NT
"Hardy, Jones and Watson",M6J8Y3,Armstronghaven,MB
Estrada-Taylor,X8Y 2C8,Lake Barbaramouth,ON
"Bradley, Hernandez and Craig",E9N2V3,Isabelmouth,ON
Decker-Christian,Y4C 8S3,Benjaminborough,BC
Santos and Sons,N3C 1L2,Oliviaburgh,QC
"Rodriguez, Cox and yanders",M1Y3Ep,Kimberlyhaven,ON
Brown-Pace,B1A 9C6,Gregorymouth,NB
Mueller and Swns,H4P 4R2,Port Lucas,NU
"Adams, Ford and Scott",V6P5K6,West Karenshire,ON
Reynoads-Thomas,V8P 4Nc,Myeksland,QC
Love Group,X6N7X6,Port Gregoryport,NT
Liu-Jackson,M2J 6R6,Amandabury,NU
Wright PLC,V3Ta1A7,Codytown,YT
Harris-Green,M4A 9K9,West Antonio,BC
Sweeney Group,A1L 1K1,Port Wanda,NS
Larson-Henry,J8S5V1,Smithton,NL
Allen and Sons,L8M3L9,Davisview,ON
"Simmons, Hood and Oconnell",H1S8Y7,Averyville,YT
"Williams, Kim and Miles",R4H1S7,Whiteland,PE
Turner LLC,L5G9B3,Ingramchester,BC
Smith and Sons,B5M6N2,West Raymond,MB
"Murray, Harris and Johnson",L6E 7P6,Lisatown,PE
White PLC,J4P7B1,Hoganmouth,BC
Martin-Thompson,G3R 8S7,Smithstad,YT
Reed and Sons,P4X 6S1,Hallton,YT
Dyer-Parker,Y1X 7H4,Conwayhaven,NL
"Garcia, Patterson and Miller",M6G1X4,Lake Mathew,NS
"Dickarson, Floyd and Bluck",T4K 7r5,Ljke Jooathanforz,BC
Vargas LLC,H9N1B1,South Rachael,NT
Thomas-Lara,C4G 1J9,New Daniellehaven,NL
King and Sons,S4X5V9,Englishberg,NS
Henderson Group,E2K7B9,North Seanfurt,NL
"Oconnor, Wallace and Booth",L7L 5K3,New Adamfurt,AB
Hernandez-Sexton,G8H 4B2,Robinborough,PE
"Baker, Jackson and Brooks",S6G 1V1,Andreschester,SK
"Buck, Miller and Ho",E8S 7Y9,West Richardfurt,ON
Jarvis PLC,L9L 4C3,Port Ricky,AB
"White, Vazquez and Richardson",K4R 9J6,South Kenneth,NB
Campos-Cooper,Y4M9M1,Lake Michaelmouth,BC
Johnson Inc,M1A 7E3,East Heatherfurt,NU
"Fritz, May and Dean",E9B 1K5,Lake Mark,AB
Singleton Inc,X8R1G3,South Angel,NT
Miller and Sons,E8T6H2,Lake Samanthashire,BC
"Baker, Mathis and Buchanan",G4J6M8,West Michelle,NU
Stewart LLC,E1L5H2,Emilymouth,YT
Sweeney-Stanley,J5M 1A4,East Alexis,NT
Salazar Ltd,L8X 1N2,South Kristibury,MB
Suarez-Medina,B4K 7A8,Lake Brad,MB
Fisher PLC,S8S 7G6,West Richard,NS
Payne Ltd,M6T 5Y3,Bartonmouth,NB
Ortega Ltd,C3V6V6,North Caitlin,NU
Cameron PLC,P1S 5V5,Kevinburgh,QC
Bates-Anderson,H7N 8S2,Wagnerview,QC
Ramirez-Foley,K9T1L4,New Ruben,PE
Huber-Frazier,K9B9L8,Patrickmouth,NT
King-Cooper,C4H8N4,West Catherine,NU
"Higgins, Davis and Wagner",T2R6T1,Taylorshire,AB
"Skiiner,rBurton anq Baker",A4S 1X5,North Crystal,NU
"Ross, Thomas and Miller",Y7J 3E9,West Johnnymouth,YT
Williams-Espinoza,N9R 2T7,Spencerburgh,BC
Crawford PLC,B1H9T3,Rowlandhaven,NS
Brownz Henderson and Woous,B6X8H5,Scottyrutr,NB
"Mosley, Smith and Wilkerson",R7V2S4,South Timothyborough,ON
Bishop-Rogers,Y1T8T5,South Geneshire,ON
"Brown, Johnson and Galvan",L1N8Y5,New Karenberg,NB
"Mendez, Johnson and Banks",L2M9X3,Ortizville,NT
Davis and Sons,H7R 1L6,East Gina,QC
Gibbs and Sons,A4L 2P4,Port Ruthfort,ON
"Johnson, Lewis and Stafford",R7S2E6,Kellystad,NL
Rowland-Mitchell,X5R 5C1,West Aaronstad,NU
Stark PLC,J5N4B9,New Amy,QC
Cox Inc,V6E9N5,South Michael,SK
Wiwliamson-Marquez,P5M3b7,Murrayvorough,MB
"Kaiser, Levy and Clark",J5A6C3,Sandrafort,SK
"Jordan, Santana and Duncan",Y6P4J8,Thomasfort,MB
Miles Group,A2X4C4,New Jessica,NT
Taylor LLC,E2H 5P9,Bethview,NB
Shields LLC,N1T9E1,Lynnburgh,PE
Brown-Boyer,J8K8Y4,West Thomastown,MB
"Robinson, Jones and Mcfarland",P5J9S8,New Anna,PE
"Sheppard, Evans and Mills",N9M 2R4,Curtisshire,PE
"Gallegos, Mcdaniel and Cowan",M6P5K5,Joshuamouth,NL
Bradley Group,V4K4S8,Andreaberg,PE
Wilson Group,B3T 1H2,Carterborough,QC
"Robbins, Rodriguez and Lewis",K4H 1V3,Kevinshire,BC
"Tanner, Sparks and Thompson",B3K8E5,New Steven,SK
Shak-Nguren,X3N 1G6,East Tkrmy,PE
Dixon Ltd,A7N6A3,Port Michelleland,SK
Cisneros PLC,C5M 6J8,Emilyhaven,AB
"Campbell, Campbell and Morales",A2R2B2,North Nathanstad,PE
"Rpgers, Lopez ans Morgan",L7T 9M9,routk Janicemouth,SK
Chavez-Bennett,E7A7T6,Mariabury,PE
"Gonzales, Cooper and Farmer",L1B 7J9,Lake Chelsea,MB
Santos and Sons,B4L6M4,Gentrybury,ON
Davis Group,A3B5S5,East Dustinfurt,MB
Rice Ltd,M9K 6S9,Jonesview,QC
"Garcia, Phhllips andfBraushaw",N9X6N5,Colonton,MB
Le Inc,H6A2C8,Conniechester,YT
Morgan-Jacobs,T7V 2J8,Port Davidhaven,NT
King-Young,H9N 2T9,Morrisside,NT
"Flores, Odom and Stevens",K7G 3X9,Lake Davidburgh,NS
"Anderson, Cook and Olsen",C7M1G4,Millerbury,BC
Reynolds-Mcdonald,N2X5T4,Petershire,BC
Jackson-Turner,J1H 9B6,Barbaraburgh,NS
King-Garrett,K5N4T4,Jeremystad,ON
Horton-Johnson,J8G 2V2,Nathanchester,ON
Bailard LLC,G2H 4L4,Marginton,MB
Watkins-Thomas,S7N6K1,Josephstad,BC
Dudlef-Brennan,G8N 9Eu,Francesside,PE
Rodriguez-Curtis,E5V 4T7,Stanleyview,NB
Sanchez-Wallace,C9M 7J5,Harmonberg,AB
"Smith, White and Johnson",N6R 4K2,North Taylormouth,NB
"Estrada, Frank and Foster",P2A7Y1,Howardfort,SK
King-trdega,E7M6Cr,Cainvijle,NU
Hares-Evans,S5M fS1,South Heatherfmrt,NT
"Decker, Stanley and Frank",C5G3H5,Sullivanbury,NU
Clark Group,T6B5J5,Williehaven,NT
Carter-Dean,B5E 6B1,Jonathanburgh,MB
Robinson-Mooney,P9S3A1,Clayfurt,BC
Thomas PLC,T7Y 5B8,Lambview,NU
"Lewis, Wiley and Williams",T6P8A1,New Marytown,NS
FraiciihInc,A7M2N2,Scottltad,YT
Trubilco and Sons,J4Y 6B5,Froytsside,NB
Price Ltd,V1R3J2,Craigmouth,NT
"Ramirez, Williams and Vaughan",N3N 9L9,Paulbury,NB
Garza-Ray,E5A7E3,Reedbuvgh,ON
Taylor-Black,J7E1J7,South Aaron,NU
"Ruiz, Hart and Barnes",L7A 8B1,Port Cristina,MB
Gektry-Ramos,d7N 5b8,EastyAxdrea,NL
Davis Inc,KxC4M8,nibliamsbbrgh,QC
"Clements, King and Mendoza",K8V5K5,Changview,AB
Brown-Young,N5L3X8,Port Cheryl,YT
Miller PLC,A7M 2A9,West Keithmouth,ON
Ruiz-Grimes,A9C9Y2,Port Mary,NL
Graham-Nelson,J2R 9X2,Roberttown,QC
"Phum, Fry and Price",G4H5B9,Norch Gmrymouth,NT
"Davies, Nguyen and Hammond",P2X 2V7,Martinezmouth,BC
Morris-Mcgee,E6J7L6,North Paulaport,NS
"Foster, Pittman and Wood",N5P 9A9,Anthonyview,PE
Potts Group,T5A2R9,Brownborough,MB
Ritter-Salazar,K9G9K9,Port Adam,QC
Smith-Wu,T3E 6G9,East Lauramouth,NU
King-Morales,H1B2X1,Goodton,NS
Hamilton-Martin,H2E9K3,Sandersview,YT
Brock LLC,S6B9K4,Brucechester,ON
"Wilson, Sanders and Brown",K9J 1R3,South Mary,NU
Ball-Turner,P2M3E9,Beardton,SK
Stephenson-Wilson,X7M9E6,Hansenmouth,NS
Bennett-Foster,C7B 2C7,Port Shanetown,PE
"Moore, Silva and Lewis",P8E 7C7,West Clinton,SK
Collins-Steele,R1C3L1,West Adam,NL
Cervantes-Wright,X5B7P7,Lambertton,NB
Sanders and Sons,N9P5H2,Port Michaelfurt,NT
Brown Groop,S4J9R4,East Louispurt,BC
White LLC,H6P 4J3,Michelleport,NL
"Walton, Carney and Smith",R9N5A3,East Carlos,NT
"Collins, Johns and Rivers",H4B9S6,Charlesland,MB
Curtis and Sons,E2Y6T5,Adamshaven,NS
"Sanchez, Bowen and Perez",R9B 4B4,Colemanburgh,AB
Beck and Sons,P2P 7Y8,Millermouth,BC
Bullock-Wilson,S7E 2L2,East Andrew,NB
Gonzalez and Sons,T8H 1K1,Lisamouth,NB
Garrett-Becker,N3S1Y4,Lake James,MB
Reynolds-Madden,K5N4K3,Port Colin,NB
"Ruiz, Barber and Monroe",H1E 6S5,Barkerton,PE
Nguien-Wood,r7L2V7,Johnsvnburbh,NT
