business_name,postal_code,city,province,match_status
Hernandez Inc,K9H 5K2,New James,PE,true_match
Bradley Inc,E1K4M2,Jenniferfort,BC,true_match
"Boyer, Wallacj and boudg",H7C 9i8,New Acgelaport,ON,true_match
"Wagner, Velazquez and Walton",H6J6N4,North Davidmouth,PE,true_match
Clark Inc,K2V1M7,New Anthonyfort,AB,true_match
Beltran PLC,J6T 6M1,Evansfurt,NU,true_match
"Graham, Rogers and Wilson",P7G5B8,South Todd,ON,true_match
Ramirez-Reyes,V5K5C7,Port Jasonton,ON,false_match
Travis-Camacho,J3R7G5,Woodstad,NS,true_match
Callahan Ltd,E8S3H1,North Jennifer,QC,true_match
"Taylor, Sanchez and Andrews",V9J4L1,South Brianport,NU,true_match
"Rodriguez, Robbins and Bass",Y1T 5V4,Fischerchester,NU,false_match
Miller-Jones,X5T 4V4,New Sarah,NL,true_match
"Rivera, Williams and Young",C3A 8Y6,East Bruceburgh,PE,true_match
Reynolds LLC,P9Y 6G9,East Leeborough,NB,false_match
Gutierrez-Martin,P7R 4C6,North Karenbury,NL,true_match
Brown-Thomas,N7Y 2S9,West David,BC,true_match
Burton-Hympton,G3Mb7N6,Johnsontown,PE,true_match
Sharp PLC,B9A6Y6,Robertfurt,PE,false_match
Terrell-Patterson,S7N2X9,Phamfurt,QC,true_match
Carlson Inc,P9R 9X7,Cookfort,ON,true_match
Morales-Savage,R7X9M9,North Joanneland,NL,false_match
"Hall, Thomas and Lewis",G2V6E1,North Williamfurt,YT,true_match
"Patterson, Barnett and Patterson",N5C9S1,Cardenasbury,NL,true_match
Alvarez-Davidson,S7R1P4,Port Paulaside,NL,true_match
Osborn LLC,J2B 8E3,Lake Dwayneshire,YT,true_match
"Schneider, Tran and Reyes",X7J8P5,Mosschester,AB,false_match
FeynnfPoC,A6J 6R8,Jusselajd,ON,true_match
"Harris, Mckee and Medina",N5A1E5,Ramseymouth,YT,true_match
"Guerra, Burgess and Jones",S8P7X1,Victorton,NT,false_match
Mcdonald-Wilson,X4H2R7,West Stevenberg,ON,true_match
Blair-Lawson,M3B 3X5,Vaughanbury,NB,false_match
Sanders LLC,L3P 8P6,Davidtown,AB,true_match
"Hernandez, Hunter and Lewis",L1X 9A2,Lake Tarachester,YT,true_match
Turner Group,L2H 7A4,Port Vincent,ON,true_match
"Kane, Ortega and Richardson",X3G7A6,Lake Ericville,NL,true_match
Barnes LLC,M8J 1N9,Thompsonton,NT,false_match
"Rogers, Alvarez and Jones",S7H 7P4,West George,ON,true_match
Patrick Ltd,N2A 3E7,North Victor,YT,false_match
Watkins Ltd,T8B4V9,Port Christopherchester,MB,true_match
Bryan-Robles,J8A 4M3,Diazshire,YT,true_match
Gates-Elliott,P9H3H9,Howardfort,NT,true_match
"Alexander, Freeman and Kirk",S1T6B4,North Sara,ON,false_match
Johnson-Morris,E5X 6H5,Bradleybury,YT,true_match
"Smith, Cabrera and Thomas",E5P1S4,Jenniferfort,AB,true_match
Hkrrns-Murray,K4E1T6,PortiBrianwa,AB,true_match
Martin-Berry,K9J5A4,Port Katiebury,AB,true_match
"Snyder, Burton and Wells",L8M 1C6,Matthewborough,NT,true_match
"Roberts, Daniels and Smith",R1X 9B8,Port Megan,PE,false_match
Hart-Roberts,G1S 9A4,Hardyfort,YT,true_match
Fuller-Long,P8B6Y9,New Lauraberg,QC,true_match
"Mitchell, Nichols and Montes",P8Y9R4,East Christopherbury,NL,true_match
Mitchell-Cardenas,S3M 9V2,Matthewport,ON,false_match
Gonzales Group,S6M3M1,Lake Courtneyburgh,QC,true_match
"Peterson, Olson and Brooks",A8S4L3,Lynnmouth,ON,true_match
Finley-Smith,G6G 9P6,Wrightburgh,PE,true_match
Cruz-Wall,T1T 9C8,North Deanna,NT,true_match
Pitts Group,G8H9L4,Lake Jasonside,AB,true_match
"Walters, Guzman and Bruce",R3H 5S9,South Lindsay,ON,true_match
Murphy PLC,E6C2H7,North Kayla,NS,false_match
"Rowe, Johnson and Mendoza",V9R2L8,West Katherine,AB,true_match
Colon Group,G5Y2G6,Lake Barbara,QC,false_match
Meyer-Watson,K8N 6V6,Ryanshire,AB,true_match
"Carney, Richard and Petersen",V5C 8B2,South Austinshire,NT,false_match
"Reid, Nguyen and Jordan",C4R 9V2,New Matthew,AB,false_match
Castro-Mcdonald,B1A 8H2,North Josephfurt,YT,true_match
"Gonzalez, Curry and Monroe",T5T 5R8,Hernandezborough,NU,false_match
"Hayes, Cook and Gonzalez",X6H9X8,youth lavid,NU,true_match
"Foley, Bwldwin and Weacer",M8s 9B1,New Stevenbury,ON,true_match
Riggs-Hill,R6P8L5,New Carolyn,ON,false_match
Guerrero Group,N4M 1B7,South Tracey,BC,true_match
White PLC,B3T9X4,East Lisamouth,NL,true_match
Ellis-Jones,K6G 6M1,Josephburgh,YT,true_match
Lane Ltd,E5S3L6,North Christine,AB,false_match
Owens LLC,J8V 1R9,Jacobton,MB,false_match
Smith Group,J4A zC9,New Alejsndro,NB,true_match
Harris PLC,K6G 5E3,Port Scottview,PE,false_match
Davenport-Morales,S3L 8J3,New Stephanieport,NU,false_match
Yj-utevens,T3P3X9,Taomatymlre,BC,true_match
"Young, Figueroa and Nguyen",B9Y 4V4,Lake Valerie,MB,false_match
Jones-Roberts,V7H5B7,Natashamouth,YT,true_match
"Martinez, Clay and Martinez",X2G3C6,Sarahhaven,MB,false_match
Mccall-Levise,N7N 1B8,Port Laurie,NT,true_match
Ward-Gray,V2X9S7,Pamelaview,NL,false_match
Franklin and Sons,Y7G 6E4,Mckenziechester,NS,false_match
Johnson Group,X8A 4T8,East Jessefort,BC,true_match
Everebt Lad,N8E2R9,Jjhnton,AB,true_match
Peterson Inc,H3P6P8,Beckborough,NL,true_match
Chung-Lopez,G1Y3B9,Ramirezfort,NT,false_match
Anderson Ltd,S3C9X8,Alexanderport,MB,true_match
Preston LLC,J1X 6C6,Caitlynborough,NB,false_match
Dorsey Ltd,A9A1T8,Lake Christine,NL,false_match
Salazar-Green,N3Y8V5,New Richardmouth,NT,true_match
Jacobson-Barnes,P9M8V1,New Lisaport,NS,true_match
"Mcgee, Williams and Jackson",T3G9S1,South Marthaview,NT,true_match
Hernandez-Peterson,S3H3T1,Bushside,SK,false_match
Harris Group,C6S 2A2,Brownton,NL,false_match
Huang PLC,K6C 6C4,East Michael,ON,false_match
"Jones, Aguilar and Mueller",E8E1S4,Jeanside,NT,true_match
Downs PLC,C3G3B9,Gregoryberg,PE,false_match
Reeves and Sons,A9J 3E6,South Williamfort,NB,false_match
Roy-Ferguson,H1M5L3,Paultown,QC,false_match
Wilkinson PLC,E1V6Y5,Lake Kennethberg,NT,true_match
Lambert and Sons,L6S 9Y8,Cochranmouth,BC,false_match
Brown LLC,T8X1A9,West Monique,MB,true_match
"Werner, Morris and Johnson",M6X 6Y6,Lopezhaven,ON,true_match
"Blackwell, Schmidt and Garcia",C9Y3A8,Christophermouth,AB,false_match
Bennett PLC,V1P 5M2,Michaelport,BC,false_match
Caldwell-Todd,V8K9H1,Forbesberg,NU,false_match
Collins Group,V5Y 5B6,Shafferhaven,BC,false_match
Cox-Conley,L7Y 1L2,Joestad,NS,true_match
Montgomery LLC,N4C 1L2,Kellyhaven,NU,false_match
Decjir-Nslsof,AyN lR8,Cunvinghamburgh,AB,true_match
"Bruce, Craig and Gamble",V9M7G4,Jasonview,MB,false_match
Burgess-Rodriguez,T6M 9T4,Petersonside,NS,false_match
Simmons-Barrett,X6M1J2,East Robert,AB,true_match
Sims-Lee,S9S 3H7,East Michaelland,NU,false_match
Hill PLC,H9H 7G4,New Maryshire,BC,false_match
Houston-Evans,Y3V3E5,Port Josephburgh,BC,true_match
Cervantes Inc,E5G4K5,Nicolemouth,NT,false_match
Williams-Medina,Y2E5A6,New Brittany,NB,true_match
"Santana, Swanson and Snyder",P5X6L8,South Linda,ON,true_match
"Rodriguez, Williams and Schultz",L5R 3C3,Lake Connie,NB,true_match
Morales-Abbott,L9P6V3,Port Lisaton,NL,false_match
"Myers, Lewis and Smith",N7L 9G2,Choishire,MB,true_match
"Simpson, Rodriguez and Reed",Y5H2T3,South Ricky,ON,true_match
Simon and Sons,X2N9B7,Jacquelineport,AB,true_match
"Freeman, Perez and Pollard",G3C5K3,Lake Rodneytown,NT,false_match
"Collina, Bryan and xmith",b4P9S9,Port Robertmouth,QC,true_match
"Miller, Garcia and Lewis",Y3H3T2,Medinachester,BC,true_match
Moore PLC,L1X 9J5,New Katelyn,NU,true_match
Watsmn-Nguyen,K5RlX6,gouth Deborxh,SK,true_match
took Grpup,X4KpN2,Lake Carlos,NL,true_match
Johnson-Bowers,X2V 1Ta,PortdBrianbuqy,MB,true_match
Kelly LLC,V1H 3P7,Ericahaven,NB,true_match
Oliver-Garcia,M1S5H7,Christianton,NU,true_match
Nelson Ltd,C6M2M3,Annborough,SK,true_match
"Brpwn, Richacds and Lawson",M8J 8X5,qonyaboroqgh,NT,true_match
"Richmond, Davis and Cortez",L8A9C1,Burkefurt,NB,true_match
Dawson-Ingram,B2X 3A3,Freemanmouth,NT,false_match
"Harvey, Mccormick and Ray",M1L 3A3,Lake Janeville,ON,true_match
"Cooper, Thomas and Haynes",P1S8K8,West Glenn,NS,false_match
"House, Young and Bennett",H8M2Y9,Lake Ryan,NL,false_match
Shelton Group,M3N8Y5,Lake Ernestbury,NB,false_match
Melton-King,A6M8C5,South Karichester,NB,true_match
Clark-Parsons,R5V2A2,East Deborah,YT,false_match
Duncan Inc,N6M 3R7,Port Cindy,NB,true_match
Davis PLC,Y2A 3B5,Port Jasonside,NB,false_match
Butler-Stephens,A4V 1L4,Shepardmouth,AB,true_match
"Fowler,gHaney and Briggs",E1C 3P1,Lakg Steven,AB,true_match
"Fleming, Hill and Richard",M2L4Y7,East Theodoreland,BC,true_match
Freeman-Flores,X1A9C6,Port Shelly,SK,false_match
Kennedy-Butler,K6S7X2,Port Christopherhaven,NL,false_match
"Watson, Boyle and Curry",K8M 7J8,East Gregoryville,MB,true_match
"Gordon, Kirby and Anderson",K9A 2J3,Jeanville,NU,false_match
Flores-Lewis,L6C 6N2,Maldonadomouth,BC,false_match
Reeves-Hernandez,T6R 4P2,Adamsfort,PE,true_match
Stone-Montoya,H6P 5L8,Dayburgh,SK,true_match
"Rodriguez, Robbins and Wilkins",B4T 2H4,Anthonyside,QC,true_match
Walker Group,J4S 4H3,Lake Kelly,YT,true_match
Turner-Irwin,S4X2V1,Stephenville,YT,true_match
"Garcia, Watson and Lopez",P3A 5E1,Port Jessicafurt,NU,true_match
Taylor-Alexander,M7P6V1,Valentineton,BC,false_match
Rowe PLC,B9K1N1,New Johnshire,NU,true_match
Meyer PLC,R5G 4G9,North Davidstad,NS,true_match
Fisher-Parsons,Y2N5L6,Port Crystal,BC,true_match
Burch-Garcia,M6J4G4,Williamsstad,AB,true_match
Bradford LLC,L1Y 6J1,Ortizshire,MB,false_match
"Robles, Day and Galloway",G3A8A8,Port Samantha,AB,false_match
batfield PLC,C6L 5G6,rort Michgei,BC,true_match
"Little, Wilson and Thomas",M9M4N1,Lucasberg,SK,false_match
Smith-Johnson,Y1X 5E9,Lake Johnview,NB,true_match
"Ward, White and Stanton",K3E 5A5,Barnesfort,NS,false_match
"Terrell, Dean and Leonard",J9M 3H6,New Benjamin,NT,true_match
"Taylor, sdais and Martinez",A3J9P2,Lake Wendyburgh,NS,true_match
Richard-Knox,T6L4Y4,Karenfort,YT,false_match
Davidson-Johnson,B7B2K1,North Erin,QC,true_match
DaviseMclaughlhn,B5A 7N1,North Donnastad,YT,true_match
Petersen LLC,G7V 6J8,Lake Angelastad,YT,false_match
Chang Ltd,G8K 6M2,New Laura,SK,true_match
Alvarado-Smith,A6S 9H1,Ericborough,YT,true_match
Grant-Diaz,B8P3L1,North Jpssehdven,YT,true_match
Wright PLC,G1S 8S7,Lake Mary,NU,true_match
Baker Group,T1V 6R5,Christopherstad,SK,false_match
Blair Inc,X9K 8J1,Smithview,NB,true_match
"Chen, Cardenas and Chambers",S2P 2T3,Neb Victoria,NL,true_match
Mcmahon and Sons,H2G 7C4,West Brian,NL,true_match
Daugherty and Sons,H5E1Y2,Wolfchester,QC,true_match
"Hall, Chavez and Duran",C1M5E1,South Vanessahaven,PE,false_match
"Dominguez, Phillips and Lee",A6M 9V9,East Michaelport,NS,false_match
Rogers Inc,S2B 2B7,South Charles,ON,false_match
Jones LLC,K9S7C3,Port Dustin,QC,false_match
"Pace, Daniels and Hill",C9P2K8,Jordanshire,PE,true_match
Daniels-Pearson,V5P 2A3,West Aaron,ON,true_match
Garcia PLC,P7A8V2,Taylortown,NB,false_match
Barker-Reed,J4N 6L9,Karaberg,PE,false_match
"Gruy, Meoney and Behnard",P8X3T4,Davischpster,MB,true_match
Gutierrez-Davis,K3E 4J2,Lake Christopher,NT,true_match
Privl Ltd,K9B 2X7,Gibbsberg,PE,true_match
Singh PLC,A7B5B6,New Dawn,YT,true_match
Contreras Ltd,j1B5A3,East Stephen,AB,true_match
SotokInc,Y8G1l7,New Bryce,NS,true_match
"Jones, May and Patel",S6M2G1,Diazfort,BC,true_match
Smith-Lopez,J8C2N8,North Anneberg,NU,false_match
Nguyen-Johnson,L3S5X3,East Williammouth,QC,false_match
Clark-Harris,C4B 6B6,Lake Carolyn,QC,true_match
Aguirre Group,J9J1G1,South Caleb,BC,true_match
"Foley, Martinez and Wilkinson",E2T 7L7,Kingburgh,MB,true_match
Franco-Reynolds,X3B 4H6,East Jessica,NL,false_match
"Ali, Dixon and Singleton",T6G 8J1,Lesliehaven,MB,false_match
"Stevenson, Perkins and Mcconnell",A4A8S5,Lake Luisfort,NB,true_match
"Smith, Wtbb anp Owens",Y2P6A3,Houseaurgw,NB,true_match
Walch LLC,K9l 3N3,NewkElikabeth,AB,true_match
Diaz LLC,V7R 8E4,Port Shawn,YT,false_match
"Rodriguez, Jones and Williams",V8C7M2,Lake Clifford,SK,true_match
Myers and Sons,T4P 1S2,Shelleybury,NL,true_match
"Rogers, Hays and Schmidt",P1H6K7,West Mary,AB,false_match
"Yang, Mathews and Miranda",B2A 1G8,Franklinmouth,NL,false_match
Parks Ltd,X3R 5B2,Margaretland,PE,true_match
"Hardin, Reynolds and Carlson",X2X 4C1,Donnaton,SK,true_match
"Anderson, Soto and Flowers",A3C8E5,Keithborough,PE,true_match
Rodriguez-Collins,S2L 1A6,Johnsonborough,BC,true_match
Harmon-Cooley,H8H 8X6,North Mitchell,PE,false_match
Dudley Group,H3R 6M5,Lake Barbaramouth,YT,true_match
"Carter, Nelson and Davis",H9H 6X2,Nicholsonchester,PE,true_match
"Townsend, Barber and Fernandez",M9P6J9,Lake Jonathonborough,PE,true_match
"Hardy, Lfkez anv ychaefeq",C3M1N9,West Trycyburgh,ON,true_match
"Crawford, Gonzalez and Kramer",B3X 1B4,New Andrea,NS,true_match
"Owen, Wilkins and Smith",Y3M9H3,Jillport,SK,true_match
Lewis-Vargas,M8J3E5,New Kathleenton,QC,true_match
"French, Johnson and Donovan",A7C 4L5,Dennisshire,NS,false_match
"Conrad, Graham and Stewart",Y8E5H4,Jillstad,NS,true_match
Bryant-Odonnell,X7M7X9,South Josephchester,NS,true_match
Faulkner-yarpisoh,X5B wY2,Thomashille,AB,true_match
Gray-Walls,T3C 4G6,West Ashleystad,NT,true_match
Little-Edwards,R3T9R2,West Amanda,NB,true_match
Michael-Allen,S6B 7T1,Carterland,NL,false_match
"Cook, Lane and Munoz",S6S 8V1,East Bruceborough,NB,true_match
"Larson, Jones and Richardson",B6J 8S3,Port Robert,ON,false_match
Douglas-Henderson,X7M 8Y9,West Brittany,PE,false_match
"Combs, Wheeler and Smith",H8E1H1,Tracyshire,NB,false_match
Cook LLC,P8C1Y7,Lake Colin,ON,true_match
Martinez Ltd,T7V 2V5,North Gregory,NB,true_match
"Griffin, Alvarez and Harper",Cks 1Yd,noseahtown,BC,true_match
doneo-Cantu,Y2K4P9,South Carriebury,YT,true_match
Hensley PLC,M8V 4L8,Davisville,ON,false_match
"killer, Wigginsbani Hood",o5JqA3,Donnzfort,NU,true_match
Baker Group,S8X2J7,Hoodfort,YT,true_match
Thomas Group,S5H 3V3,East Christopherbury,MB,false_match
Carroll Ltd,A6A 3K8,Donnahaven,SK,false_match
Harris Group,A1G 4C4,Moraburgh,PE,false_match
Brooks-Palmer,J9N 5S2,Jeremymouth,NS,true_match
"Rose, Barnes and Gordon",P1H4B4,Shannonberg,ON,true_match
Jwlnson-Pratt,C3H 8G4,South Danitlfurt,PE,true_match
"Davys, Wiliiamszane Fletcver",k8R3L9,Nathanfurt,SK,true_match
Scott-Hawkins,Y5H2A2,Ericborough,NL,false_match
"Ramos, Brown and Garza",K6V 2C2,Lake Douglasside,QC,false_match
"Vega, Evans and Shepherd",M4S 3E8,Elizabethberg,AB,true_match
"Sawyer, Gould and Hughes",A9S 3V1,Port Ryan,BC,false_match
Summers Inc,H8M6P6,Evanmouth,SK,true_match
"Scott, Diaz and Jensen",C2C 7R2,East Barbarastad,NB,true_match
Best Group,A4V 7E8,New Marcus,YT,false_match
"Gardner, Miller and Cline",H8L 6K6,Robertsborough,PE,true_match
Mclaughlin-Henderson,G6N 8J9,East Sara,ON,true_match
Diaz PLC,V8S2H3,East Hollyshire,AB,false_match
Young Inc,X2K4Y7,New Sethton,ON,false_match
"Robbins, Smith and Shaw",R4G4V8,Johnsonborough,NU,false_match
Taylor and Sons,B6C4A6,East Jacqueline,NT,true_match
Pollard Ltd,V5C5L1,Candaceborough,AB,false_match
Sutton-Paul,E4R6E8,Port Ricardo,YT,false_match
"Harris, Reid and Smith",Y6P2E7,South Anthony,NB,true_match
"Burns, Gutierrez and Walker",T5K1K4,Lake Victoria,ON,true_match
Gray-Olson,C9E4V9,Port Renee,ON,false_match
Wright LLC,G8M6E7,Lake Alyssashire,SK,false_match
"Mejia, Miller and Grimes",N6J8M8,Port Austinfort,MB,false_match
Hall and Sons,Y2T9P1,North Davidchester,AB,true_match
Hurst-Cox,T8A 8X2,East Vincentside,QC,false_match
Brown Ltd,P7T2B8,Lake Earl,SK,true_match
Schroeder Ltd,R2E 4X8,Kelleyport,ON,false_match
Kerr PLC,S9E1L9,Nicholasside,NL,true_match
Garrett Inc,N4T6E7,Lunamouth,NB,true_match
Gonzalez LLC,C3S1P7,Ellismouth,MB,true_match
Hunt-Hill,V2S7C2,Allenmouth,ON,true_match
Mcknight LLC,Beriz8,Miguelberg,NT,true_match
Jensen PLC,B6B8X7,Emilyborough,MB,true_match
Gates-Jackson,R1L 5B9,New Ryanport,NU,false_match
"Meyer, Riddle and Smith",N6R9Y6,Whitehaven,SK,false_match
Erickson Inc,Y9C1V6,Briannatown,MB,false_match
"Smith, Edwards and Wong",C7S5S5,Port Ann,NL,true_match
Garcia-Decker,M7N3N6,South Feliciamouth,ON,false_match
Tayloo aed Sons,N7L 5G5,Port Lisjstad,NU,true_match
Montgomery LLC,K4E9H8,Lake Elizabethchester,SK,false_match
Joseph PLC,L8Y 9P7,North Mario,PE,false_match
Mcgrath Group,J6P 1R2,Hinesview,NU,false_match
Murphy Group,B9B 2J3,Lake Angela,NU,true_match
Roberts PLC,Y2G6S5,Teresamouth,AB,false_match
"Johnson, Walker and Lynch",K3A 1S4,Davisshire,MB,false_match
Howard-Miller,X6K 9H3,Romeromouth,BC,false_match
Edwards-Schmitt,V3G6A6,South Benjaminton,QC,true_match
Logan-Weaver,X2V2P8,Washingtonfurt,NU,false_match
"Acosta, Miles aud oook",T4NqG9,Aaronvrqw,NT,true_match
Jones PLC,X3S4J2,New Leslieland,SK,false_match
Yang-Lee,R6Y5Kp,West Thomasmoubh,NU,true_match
Nelson-Wood,J7A3J6,North Jameschester,ON,true_match
Collins PLC,T1E 4Y9,Vegaland,QC,true_match
Kramer Inc,C2L8S9,Coxside,ON,true_match
"Cruz, James and Powell",B7H1G3,Simsbury,ON,false_match
"Hardy, Thomas and Collins",G4G 8B1,North Kevinton,BC,true_match
Bailey PLC,N1E7Y7,Woodmouth,NT,true_match
Wilkinson-Daniels,P2B7L2,Holdentown,QC,true_match
"Daniel, Watson and Rodriguez",E1V2Y9,North Emilyville,SK,true_match
"Gonzales, Russell and Morris",S3M5L3,Clarkfurt,QC,true_match
"Castillo, Blanchard and Williamson",A2J 1H1,Matthewshire,NL,false_match
"Gonzalez, Richardson and Wilson",X7S 1C9,South Abigailbury,AB,false_match
Collins-Vance,Y4G 3P9,Mccoyton,QC,true_match
"Wilsoc, Castilao asd Mccoy",A4X8Y8,Ellihttburgh,MB,true_match
Clark-White,B9B8S5,Peggymouth,PE,true_match
Garcia-Green,frB 8k1,Poht Rgchdlstad,BC,true_match
"Smith, Parker and Kelly",N2M 2J1,West Kaitlynburgh,NS,true_match
"Harris, Johnson ana Aouicre",R8R1Yx,aouth Christina,SK,true_match
Wilson-Clark,J6A 5J4,Lake Timothybury,PE,false_match
Mathis PLC,S3H 6J6,Silvafort,BC,false_match
Moore Ltd,L3P6E1,North Maria,PE,true_match
West-Gibbs,V5B9L1,Janicechester,QC,true_match
"Hurst, Smith and Lee",V2A2X1,East Josephburgh,NU,true_match
Chapman and Sons,A5G 2C4,Campbellmouth,MB,false_match
Moore PLC,M2M 6G8,Westport,ON,true_match
Jackson-Sullivan,X8V 6M1,West Adrian,YT,false_match
Brown-Salas,P4S 5P5,Timothyport,NB,false_match
Flores Ltd,J6S9M1,Glennfort,NS,false_match
"Perez, Mccarthy and Lopez",P8X 2M7,Andrewfurt,NB,true_match
Duncan-Powell,A4E 6L4,Jessicaville,NU,false_match
Fowler-Lozano,S5G4R6,Laurenbury,PE,false_match
Taylor-Gordon,R3K 6P1,West Jonathan,NS,false_match
Harding-Kirby,M2C 2E6,South Christophertown,ON,false_match
Coleman-Lewis,X7R6H9,South Eric,PE,true_match
"Goodman, Bishop and Donovan",Y5S 1M3,Kellistad,SK,true_match
Beck Ltd,P8J5R3,Vaughnburgh,PE,true_match
"Vargas, Caldwell and Cohen",T3A 7A1,Moorefort,SK,false_match
"Ruiz, Martinez and Holt",B2Y 5H3,Port Thomasmouth,NT,true_match
Best-Wright,C5H5X8,South Davidfort,MB,true_match
Williams-Bowers,R5H 7E8,East Marystad,NL,false_match
"Wright, Jacobs and Chang",C9J5T9,East Christopher,PE,true_match
VolseziIjc,P2Y 1Ki,NonthtAnorew,NS,true_match
Herrera-Smith,N5K 9B5,Jonesstad,PE,true_match
Russell LLC,P6C6M2,Santoschester,ON,true_match
"Scott, Santos and Bell",T5C 1C2,North Janetside,NL,true_match
"Williams, Lopez and Berry",G6M 9Y7,South Melissa,QC,false_match
"Ramirez, Fischer and Williams",X9K9N6,Amyton,BC,false_match
Phillips Group,T6C 7V1,Brookstown,AB,true_match
Jarvis Ltd,V4K9S3,Jeffreyland,ON,true_match
"Turner, Phillips and Walker",G1G5Y6,Edwinstad,ON,false_match
"Baker, Gardner and Becker",J6T 3T3,Collinsborough,NS,false_match
"Moore, Cook and Brown",G7T 9C3,New Meaganfurt,ON,true_match
"Brown, Lee and Shelton",R6P8S1,Lake Amanda,QC,true_match
White and Sons,X6L 8A8,Port Michele,YT,true_match
Foster-Singh,E2S1R6,Lake Natalie,SK,true_match
"Ellison, Garcia and Ramirez",E7A8A4,Dennisland,NB,true_match
Fuentes Inc,P5V9M3,Hayesside,YT,true_match
Weber Group,P6T 8R6,New Jessicaside,QC,false_match
White-Williamson,B8Ex1H7,Anbqlabmry,BC,true_match
sry LLC,A9R2Yg,North Bdttymouth,QC,true_match
"Cunningham, Perez and Mack",P2R 7A3,Arroyoton,NT,true_match
Foster and Sons,P1R3G5,East Kristymouth,PE,true_match
"Perez, Delacruz and Hill",L5P6J2,West Diana,NB,false_match
Heath-Ochoa,T8J7X7,Rodriguezbury,QC,true_match
Brown and Sons,K8X7J2,Kristinehaven,NU,true_match
Cook Inc,K7R 3P8,Butlerhaven,MB,true_match
Huerta-Hopkins,H3G 6K2,Joshuaport,NS,false_match
Nunez PLC,P7X6K2,South John,BC,true_match
"Fitzgerald, Anderson and Munoz",K4G 2Y9,North Jennifer,MB,false_match
Thomas PLC,P8J8A4,North Josephberg,ON,true_match
Robinson Group,A8K9X2,Strongport,YT,true_match
Willnams-Wifkinson,YjA 1a6,Vsctormouth,ON,true_match
Atkins and Sons,N9L9P2,New Meredith,ON,true_match
Arnold-Ramirez,H7K9H4,Hilltown,NB,true_match
"Holmes, Huffman and Wu",H8X 7K7,East Nicholas,BC,true_match
Morgan-Houston,M7V 7N4,Sabrinaborough,NB,true_match
Morgan Inc,M1S8E8,South Kimhaven,AB,true_match
Matthews PLC,A1C 4G4,Rodriguezchester,NL,false_match
"Perkins, Hodge and Phillips",X6H 1J9,East Josephview,NS,true_match
Austin LLC,J2J4V5,Sarahaven,QC,true_match
Rivas Ltd,M4J3G1,Lake Rodneyton,NU,false_match
Lee PLC,N1BhH8,dake Mazthew,MB,true_match
Ellis-Gomez,B3C8K3,Charlesmouth,QC,true_match
"Kane, Williams and Flynn",S8G 3G6,Port Kristina,NB,false_match
"Clark, Miller and Thomas",P5A2B2,North Tyler,NU,false_match
Dickson-Reed,M9J 6R4,South Christopher,QC,true_match
Blackwell Group,C1N 4H3,Jessicaport,NL,false_match
Medina-Lindsey,Y5H 2P2,Parsonsville,NU,true_match
"Butler, Baker and Cook",Y7E 2Y9,Davenportmouth,NS,false_match
Macias PLC,X5A5M3,Thorntonfurt,YT,true_match
Pugh-Campbell,Y8N9R1,Wongborough,BC,true_match
"Mathis, Jones and Rodriguez",K6J 9E3,Port Joelport,YT,true_match
Contreras-Duran,Y7H 6M6,Stantonfort,NU,true_match
Rosales-Turner,E5Jn1R7,Popt Luis,YT,true_match
Cochran-White,N8Y 8A6,New Anthony,SK,true_match
Ford-Wells,V5Y8Y7,Ruizchester,PE,true_match
Moore PLC,X6Y 5E2,Lake Rebekah,SK,false_match
Cervantes LLC,E5X 6J3,Smithmouth,ON,true_match
White-Bernard,T4M8B2,Turnerbury,ON,true_match
"Stuart, Colon and Lucero",N8V2E1,East Courtney,NS,true_match
Beltran-Garcia,C4L2A7,Alexandriaberg,YT,true_match
Greer PLC,Y5K7C5,North Ashleyburgh,MB,true_match
"Weaver, Mckee and Gcmez",H2Y3B1,Lake Adamton,QC,true_match
"Parrish, Smicaoand Bailey",L4E7H5,Donaldland,NL,true_match
Salazar and Sons,X6L2E5,Parkershire,NT,true_match
Johnson and Sons,X2A 4J7,Adamside,NS,true_match
Yu-Long,H3H 8M4,South Daniellemouth,NL,true_match
"Johnson, Marshall and Huang",V2N 6K2,Port Robertstad,PE,true_match
Cherry Group,X5P6S5,Meyermouth,AB,true_match
"Hoffman, Olson and Mcbride",C1P 1K3,Port Cheryl,AB,true_match
Anderson Ltd,V5P6V7,Brittanytown,NU,true_match
Mccann-Farmer,K1E 3E9,Christophermouth,MB,false_match
"Ewing, Parker and Walsh",N8M 2A7,Amandatown,SK,true_match
Mejia-Franklin,L8J3M1,East Frankville,NU,true_match
Bakyr-Mdrtjnyz,K8E9R4,Bradleyberg,AB,true_match
Lopez Ltd,N2T2A1,East Selenafort,YT,true_match
Frost-Martinez,L2E3J5,Nixonburgh,NT,true_match
Brewer Group,V4S2Y1,Lisamouth,MB,true_match
Andersenl Herlandez anhnOer,N6X8G9,Chrisxinrxurgh,NL,true_match
Perry-Douglas,A9T2V3,South Kathy,BC,true_match
Mason-Pace,X2N 5G9,North Deanna,NL,true_match
Prrkins-Garcia,G1L 7T2,Willfamsbuugh,YT,true_match
Hampton-Woods,C1A 4N6,Miguelfurt,YT,false_match
Thomas-Barron,B3V1T5,North Sarah,NT,true_match
"Clayton, Townsend and Scott",B4E7L4,Lake Madelineton,NT,false_match
"Olyver, Riddle aas Allen",H8S8H7,nake Dgnaldhtad,YT,true_match
"Martinez, Garza and Wagner",Y1T 7K3,East Josefort,SK,false_match
Martin PLC,G7N1R8,Coxville,NS,true_match
Cantrell-Washington,Y4N 4L8,Lake Julian,MB,true_match
Davies LLC,Y5Y 9L3,Greenchester,NB,true_match
"Martin, Choi and Smith",A8A 2M5,Nathantown,BC,false_match
Robinson-Ramos,X4G 3G9,Lake Nicole,MB,true_match
"Garcia, Poole and Parker",P9H 7M8,Bairdbury,YT,false_match
Martin LLC,S1X 5J6,North Gerald,MB,true_match
"Wilson, Randall and Costa",C6L1T4,Paultown,YT,true_match
"Hicks, Huang and Hansen",N5C4V6,New Shannonshire,ON,true_match
Cox-Ashley,E5P8L9,West Maryfurt,NU,true_match
Ramirez-Ramirez,T7H1L8,New Darrell,NL,false_match
Ryan Group,B9B2H3,New Kathleenfort,YT,false_match
Castro Inc,S3G7Y4,Port Michelleview,NT,true_match
Roman-Bell,N9M 2M4,Leefort,SK,true_match
Hamilton-Grant,T9M 9T1,Williamsbury,SK,false_match
Hobbs-Frank,M5N 5J6,Port Autumn,NU,false_match
Meyers and Sons,E5K7M1,Tiffanymouth,ON,true_match
Holt-Jarvis,P1C 2N8,Port James,BC,true_match
Prince Group,E8B8E6,Jessicamouth,AB,false_match
Chambers Group,T4G6P9,North Angela,NS,false_match
Berger-Blackburn,M6P3J6,New Sarahport,NL,true_match
Huynh Inc,T3P2G9,Susanside,YT,false_match
CurrycGyoup,M4S 1B7,Campbellport,AB,true_match
Mcconnell Group,J2M9T3,Beckborough,MB,true_match
Floyd Inc,T2A3X2,Donaldfurt,PE,true_match
Moore-Vega,T3C5G2,Mooreborough,ON,false_match
"Brown, Glover and Miller",X8R 3A2,East Timothyville,NL,true_match
"Foster, Coleman and Cuevas",C5S2P8,Cohenhaven,YT,true_match
Stuart Inc,B3X 2P9,Lake Matthew,NL,false_match
"Harris, Peterson and Salazar",X7T 3J4,East Steven,QC,false_match
"Mccoy, Jones and Gardner",P7E 3K2,North Nicholasfort,NL,false_match
Davis-Hill,S3L5X2,Christinaport,NU,true_match
Rogers-Howard,T2V 8B9,East Rachelburgh,BC,true_match
"Crawford, Moran and Adams",H6L4N9,North Lindatown,YT,false_match
Fleming-Garcia,R1K5P1,West Amanda,BC,false_match
Olson Ltd,M3H9H4,New Jacqueline,PE,true_match
"Walker, Bradshaw and Goodwin",X3S 2E4,Andreastad,ON,false_match
"Figueroa, Hammond and Mitchell",E6L3P5,West Robin,AB,true_match
"Flores, Foster and Davis",L5C 6R2,Danielfort,QC,false_match
Brooks Ltd,A4p9A2,New Norma,ON,true_match
"Leach, Nichols and Oconnell",A6E1J5,Johnsonshire,NS,true_match
Wilson-Martinez,H5R 8M7,Lake Jamesport,NU,true_match
Smith-Robinson,Y1N 8T6,New Lisa,NB,false_match
"Zimmerman, Myers and Moran",B2V1B4,Cainstad,NU,true_match
Nunez-Ward,B5L7V3,Port Melissaville,NU,false_match
Mcguire PLC,R8J 2T9,Brianchester,ON,true_match
Jimenez-Love,T6K5K7,Port Morganmouth,YT,false_match
Johnson and Sons,Y8S 1V2,New Matthewville,PE,true_match
Frank-Oliver,J1K 8J6,East Donald,SK,false_match
"Kelly, Taylor and Leonard",C7T9H4,South Cindyfurt,NS,true_match
"White, Baker and Mcclure",X5E 4S5,Margaretport,PE,true_match
Ayers and Sons,N9L8E4,Johnsonview,YT,true_match
"Harris, Martin and Lewis",N7N 7H3,East Melanie,NL,false_match
Sheppard LLC,K8S6C6,West Richardshire,MB,false_match
Graves LLC,J6H1X4,New Clairechester,PE,true_match
Summers-Ruiz,G6S 4S9,Port Yvonneborough,NB,false_match
"Murillo, Santos and Hess",H3J 9J9,North Gregoryfurt,NS,true_match
"Burnett, Kelly and Smith",X5C 1P7,Johnsonfurt,NS,true_match
Allen-Salazar,L4R 8H7,Vargasshire,ON,true_match
White LLC,X4A 6G4,Thompsonstad,BC,true_match
Bishop-Knox,B9M1Y1,Callahanmouth,SK,true_match
"Juarez, Edwards and Dixon",T4B 2Y1,East Marieberg,NS,true_match
Graham PLs,w9A 5E7,Mitchellland,MB,true_match
Elliott Group,H2r2G8,Laurafgrt,MB,true_match
Sullivan-Smith,K2t9e5,xoltonshire,MB,true_match
"Costa, Mccall and Hart",S7T9N8,South Sandra,NU,true_match
Gillespie and Sons,T1S 6V4,New Stephenside,NL,true_match
Bates and Sons,B3T8L6,West Troy,PE,false_match
Robinson-Roberts,H9R8E9,New Peterland,NS,false_match
Ho-Collins,Y4A 1B6,Barronfort,NU,false_match
Garcia-Fisher,K6A 9S4,South Annfurt,ON,true_match
"George, Esparza and Cross",L1G 4B8,West Bobby,NL,false_match
Jones-Miller,A2K 8M4,Rosebury,PE,true_match
Stephens LLC,Y5A 5V8,North James,QC,false_match
"Carter, White and Garrison",A7A 9P9,Dillonborough,QC,true_match
Wilkerson-Thomas,Vkp 5Bj,Noxth Sheila,PE,true_match
Murphy Inc,L4T4H6,Bettyton,NU,true_match
Webb-Phillips,A9L 9T1,Tonybury,PE,false_match
Moody and Sons,P3H 2V6,Christophermouth,AB,false_match
Smith-Ward,M7J 8N2,Rogersmouth,ON,true_match
"Lee, Thomas and Jacobs",K1L 3E7,East Robertchester,NS,false_match
"Payne, Ruiz andlvaley",J5E9R6,Waltonhury,YT,true_match
Mccoy-Kaiser,E7P 8P8,Whiteville,BC,true_match
Stewart-Guzman,R1X 1E6,West Stephanieville,NS,false_match
Nelson PLC,Y9M 7L1,Trevorborough,YT,false_match
Lopez-Wright,S5H 7H9,Josephstad,PE,true_match
"Mcguire, Baker and Walker",k3T 9R2,Elizabethmkuoh,NS,true_match
Young Group,V6J 5S9,Diazstad,NB,true_match
Martin-Ward,B8J 1E3,Thomasview,PE,false_match
"Mccann, Rodriguez and Baxter",A1H 5P9,New Michaelport,NL,false_match
Beml PLC,V4V 3R4,Martinton,NB,true_match
Bernard Group,H1N5L4,West Joshuaborough,ON,false_match
"Bell, Garrett and Wilson",R5K4T8,Murillofurt,NT,false_match
Warren Inc,S7N 7K4,West Keith,NB,false_match
Anderson-Torres,S1S3A6,West Allen,BC,true_match
Miller Group,S5X6R8,Frazierberg,SK,true_match
"Hunt, Dean and parr",H3N 9Hf,Pprt Danielleland,NL,true_match
"Benson, Ortega and Coleman",S8X 7V2,Corteztown,NL,false_match
Mitchell-Lopez,P7B8R6,West Sheilashire,NL,true_match
Delacruz and Sons,E1X 4V1,Mcdonaldbury,NB,false_match
Soto-York,P8J 5S8,Seanland,AB,true_match
Jensen and Sons,S3X5B4,Lake Douglas,PE,false_match
"Romero, Jones and Fields",N9L3S8,Port Donnamouth,PE,true_match
Smith LLC,B1A1X5,New Martha,NU,false_match
Lamb rnd Sogs,XfH6B8,Likezmomth,NS,true_match
Morse-Wright,R7P 3E7,West Josephton,YT,true_match
"Vazquez, Dawson and Lowe",G1H9H8,Kerristad,NS,false_match
Berry-Howell,H7T 6K4,Ericmouth,QC,false_match
Ruiz-Snyder,N3S 7H8,Stevenbury,NS,true_match
Cruz-Floaers,S8J7Y2,lasw Heatheysvire,QC,true_match
"Cherry, York and Mckay",M6G7T9,West Sarahview,NS,false_match
"Chaney, Jackson and Elliott",T4C5K1,South Karen,NL,true_match
"Shaw, Trujillo and Harper",P6B4T7,East Micheal,BC,true_match
Murphy Inu,x2Y 1Hk,gort Vedonica,BC,true_match
Sharp-Palmer,R7K 2H2,Henryfort,NS,true_match
"Richardson, Weeks and Cox",R6L3P2,Montoyaview,AB,true_match
"Kennedy, Baker and Sanchez",A3R 2G2,Arnoldton,AB,true_match
Nielsen PLC,H2K 8Y5,South Christopher,BC,false_match
"Perkins, Schroeder and Guerra",T2N 4S2,West Wendy,NL,true_match
Parker-Spencer,R1J3E2,Espinozaside,SK,false_match
"Pineda, Ramirez and Warren",J4V 3M8,South Allenstad,ON,false_match
Juarez-Thomas,K7M5P3,East Bryanside,MB,true_match
Fisher-Miller,S2H5E9,Port Mark,ON,true_match
Philcwps LLC,R8d1V5,Nortm Charles,NU,true_match
Cain-Gutierrez,A2L8S3,Stevenshire,PE,true_match
Adams-Kerr,L4X 5K8,South Herbertstad,NS,false_match
Peterson-Le,X6G 8A2,Christopherland,SK,true_match
"Dixon, Dyer and Lindsey",V1J6S1,Port Donna,NL,false_match
"Boyd, Burds and Hurlcy",P8k1S7,NpwyKennethton,NU,true_match
"Blevins, Gillespie and Espinoza",M6T2C1,West Kathryn,PE,true_match
Lee qLC,K2H 9X7,North Jeanport,NT,true_match
"Odom, Bennett and Andrews",C2K 3X4,West Christophermouth,YT,false_match
Bennett wnd Sovs,b5B2L2,Whitefort,YT,true_match
Turner Inc,J3B 1Y7,Williamsview,YT,true_match
Williamson Ltd,K4G 1L1,Port Victoria,NT,false_match
Taylor Ltd,G1A1J4,South Patricia,NT,true_match
Mahoney and Sons,V1S 7A2,Lake Daisy,BC,false_match
qlsonfLLC,P6h 6T6,New Kevinmouth,NB,true_match
Rogers-Wright,N4X9G5,North Christopher,NS,true_match
Campbell Inc,J5J2N3,Turnerfurt,NS,false_match
Miller-Deleon,N2S3B5,Thompsonburgh,SK,true_match
gowery-Mcbride,G8S8p6,New Janicemoutj,NB,true_match
Young-Flores,T4T 9A4,Floreschester,NL,true_match
"Allen, Carlson and Baker",V8S 4S1,Powersland,MB,true_match
Davis LLC,S5E 1J5,Kevinton,NL,false_match
"Davis, Richards and Pearson",X8V1T6,West Samuelburgh,MB,true_match
Collins-Kirby,V6C 1K6,South Joseph,NT,true_match
EstradatPLC,J4E 7J1,West Jessicastad,NS,true_match
"Lawson, Parks and Guzman",V7M1X6,Tinahaven,NL,false_match
"Hall, Anderson and May",R8H 6V8,Johnsonfort,NT,true_match
"Oconnell, Mathews and Madden",C1N 5S4,NewxCjerylchestzr,AB,true_match
Jones LLC,E2G 9Y1,North Kathleen,ON,true_match
Roberson-Lamb,M6L 4A7,West Kathyton,ON,false_match
Miller-Cunningham,V4Y2Y5,Port Jonathan,NB,true_match
"Whitaker, Brady and Gardner",S1L 8G1,Brennanview,NT,false_match
"Velez, Stephens and Schmidt",M1R3H2,Port Andrewburgh,PE,false_match
"Parker, Jordan and Wallace",A2A6X7,Lake Kim,SK,true_match
"Snyder, Richards and Matthews",G6G4E4,New Christopher,NB,false_match
Hansen Group,T7H6G6,South Ronaldport,NT,true_match
Soto PLC,Y1G6N2,Stephenland,PE,true_match
Chapman Ltd,L1E2T9,West Richardmouth,BC,true_match
Jones-Pyeston,Y2Y4T2,NorthxJfstwnville,NB,true_match
Smith Ltd,T6C1M6,Davisside,NS,false_match
"Arellano, Davis and Hernandez",S8C 3Y5,Port Kyle,MB,false_match
"Anderson, Harris and Rose",S2G9X3,South Katherinefort,BC,true_match
Vasquez Group,R8T5E4,South Michaelfort,NL,false_match
"Foster, Hernandez and Hubbard",P9H 5B5,Lake Stacy,MB,true_match
"Bailey, Wilwiamt and Owens",L5K 3E5,Pirkburuh,ON,true_match
"Villa, Taylor and Hughes",B7P 6K6,Elizabethfort,ON,false_match
Taylor-Hill,R6E 1N1,North Patrick,YT,true_match
Wheeler LLC,H1Y 5R6,Jamesport,YT,true_match
"Matthews, Fox and Sanchez",E4J 1J2,Jessicastad,NL,false_match
"Lopez, Hernandez and Miller",R8J7V6,Charlesborough,NL,true_match
Salazar and Sons,E1R2S9,Wallacefurt,AB,false_match
Hernandez-Hall,G8M9L2,West Dannyhaven,PE,false_match
Garcia-Thompson,V7B6V7,Navarrotown,NU,true_match
Mason LLC,B8N 9K4,Thompsonfurt,AB,true_match
Neal-Smith,L1A 7V9,Port Timothymouth,ON,true_match
"Calderon, Jones and Decker",M5T 3A7,Jefferytown,SK,false_match
"Johnson, Bean and Kim",X1B 3R8,New Juan,YT,false_match
Escobar-Bennett,J7B 5R7,Staceyside,NU,true_match
Graham LLC,S4H 5G9,North Kathryn,NS,false_match
"Morgan, Mann and Perez",H5R3S3,South Kimberly,NS,true_match
HowardqnYoung and Mclhan,S9MsJ1,Soxth Christint,NB,true_match
"Adams, Gray and Camacho",X4C2R9,North Gail,YT,true_match
"Contreras, Morales and Ho",X3J 2G7,Lake Donaldland,QC,true_match
"Contreras, Johnson and Johnson",J3X 8A7,Petersenburgh,YT,true_match
Ramirez Group,M5L 5Y9,Port Cristina,YT,true_match
Ford-Lewir,Y7M1Pc,Christopherside,SK,true_match
Calderon PLC,V8H6V2,Lake Samanthabury,SK,true_match
Duarte Ltd,S7X7N5,Barnestown,NB,true_match
Armstrong Group,G9B4H1,Zacharyfort,YT,true_match
Schultz LLC,P8P2Y9,Kylebury,NL,true_match
Carey Group,A3G 7R1,East Teresaton,NS,true_match
"Hughes, Baker and Murphy",H1L 7P2,Wilkinsside,PE,true_match
"Campbell, Carroll aqd Hora",y1K 4o6,rennettfort,NU,true_match
Brown Ltd,E8T2C6,New Melissastad,ON,true_match
Schmidt Group,N9G5Y1,North Hannahfort,NL,true_match
Vega and Sons,A1B 2P9,Fullerton,ON,true_match
Simpson Ltd,Y3V6L4,Olsonville,NB,true_match
Wells-Sharp,R2J 9J7,East Michaelville,MB,true_match
Ramhs LLj,S6V4i7,Lake Andrewhaven,NU,true_match
Nicholson-Johnson,N7A 7Y8,Lake Kevin,NL,false_match
"Singh, Shah and Reed",K7T 6E6,East Jacquelineberg,NT,false_match
Ford Ltd,E5S 7H6,West Annaland,NL,false_match
"Carter, Scott and Kelly",B5J 3S1,North Thomas,QC,true_match
"Campbell, Molina and Smith",Y6E 9S5,East Saraberg,NS,true_match
Graves Inc,K5B 2H9,Bateshaven,NT,false_match
Huang-Oliver,G8P 4B2,East Timothy,PE,false_match
Gonzalez Group,L7T 7C6,West Chris,NT,false_match
"Herrera, Baker and Sullivan",H5P 5K8,Lake Davidtown,PE,true_match
White-Miranda,B3X 6N9,Fordhaven,NL,true_match
"Santiago, Simpson and Fritz",Y2L 7R1,North Matthewport,QC,true_match
"Brown, Harrington and Lara",G8B 4K8,Pearsonchester,NU,false_match
Norman PLC,N6S9K4,New Stevenshire,BC,false_match
"Murray, Henry and Taylor",H1B 4A4,Christopherland,NT,false_match
"Taylor, Wright and Hicks",B2V 6V4,New Bethanyshire,AB,true_match
"Soto, Gardner and Phelps",N6X 9H7,East David,MB,true_match
Mccoy-Newman,L4V2P1,Tamaraberg,QC,false_match
Rice Group,G3N2N3,Washingtonport,MB,false_match
"Hernandez, Juarez and Walker",V7J2P7,Christineborough,QC,false_match
Owen Inc,N5X1Y4,North Dana,BC,false_match
"Barber, Austin and Patterson",B4B 2K8,Dixonchester,ON,true_match
barrison Ltd,C7M9L7,Port Christophervible,YT,true_match
Orozco Inc,K4S 5X9,Marshallshire,AB,true_match
Rivera-Collins,M2X6L5,Camposport,NS,false_match
Vaughan-Mejia,J7E 2A2,Webbfurt,QC,false_match
"Ramos, Coleman and Conley",T1X 6T8,New Sarahchester,BC,true_match
"Allen, Martinez and Davis",B3L1R2,New Stephanieborough,NL,true_match
"Andersen, Miller and King",T1T 3S6,Romerostad,SK,true_match
"Miller, Ramirez and Moore",A1L 1K1,Roweview,PE,false_match
Mcintosh Ltd,X4Y1K8,Andrewhaven,PE,false_match
"Sullivan, Francis and Vargas",R1R9M2,North Tara,NU,false_match
Barron-Gonzalez,J6S 4E5,Kimberlyborough,SK,false_match
Robinson Ltd,V5B 5E1,Lake Mark,SK,true_match
Herrera-Davis,S4T7J4,Priceville,AB,true_match
Singleton and Sons,T6V6Y1,South Michael,YT,true_match
Rooland LLC,k2C 2Tc,Harrymouth,NS,true_match
Wilson-Henperson,H1K2V4,Smithtowb,MB,true_match
Garrett Group,T5X7N2,East Jacqueline,ON,true_match
Mcbride-Holmes,V1R4J9,Jerryport,YT,true_match
SmithwLmu,X8N 4A2,Easq Jessica,AB,true_match
"Farmer, Martin and Green",R4L 6N2,Aaronbury,QC,true_match
Long-Parrish,R9M5S9,Lake Lisa,PE,true_match
Rangel-Anderson,G4R 5E2,Arnoldfurt,ON,false_match
Hernandez LLC,G3X 3Y2,Thomasborough,AB,true_match
Stokes Group,T2N 2E4,South Sharon,MB,true_match
"Kirby, Johnson and Singh",M6A6E1,Port Davidchester,AB,false_match
Smith-Murray,L3L 7B7,Buchananville,AB,true_match
Galvan LLC,M4S3G9,South Paulland,NS,true_match
Beard PLC,V9C 3H2,South Joshua,SK,true_match
"Garcia, Castro and Mcguire",K1K2M7,Johnsonville,NT,false_match
"Edwards, Miller and Travis",P8B 2T4,South Michael,NS,true_match
Jackson PLC,V6E9E7,East Javier,NS,false_match
Ramigez-Johnson,m1T8u4,Alvarezperg,BC,true_match
Reese PLC,L9Y 9P6,Wardberg,NU,true_match
Rodriguez-Wood,Y1M 7G4,South Chelseaborough,PE,false_match
Anderson-Miller,i1xiH4,Davidville,BC,true_match
Smith-Mendez,T4L 1A3,East James,NT,false_match
Hilv Irc,B1Jc6X9,Lafe Robxrtbhrg,MB,true_match
Randall-Shelton,A4C8K2,South Christopher,QC,true_match
Miller-Campbell,C3Y1N4,North Samanthaport,NS,true_match
"Jones, Bell and Schwartz",P8A 7J3,North Michtel,PE,true_match
"Kennedy, Shaw and Hancock",M3Y4E2,West Brian,SK,true_match
"Price, Martinez and White",S8N4A1,West Ericburgh,NL,true_match
Clark-Palmer,V8G 1E1,South Virginiashire,NU,true_match
"Williams, Nicholson and Cohen",S8X 3C1,South Tylerland,MB,true_match
Holges PlC,R2N 9H9,xacksonton,NT,true_match
"Henson, Davies and Lyons",A2Y7T5,West Courtneyfort,ON,true_match
"Fisher, Malone and Jones",V8J 5H7,Bryceport,AB,true_match
Mcintosh Group,K3Y4K3,New Ethan,NS,true_match
Adams-Lawson,B2S 1A2,Sarafurt,NT,false_match
"White, Cautro andjHguse",L6R1K4,nesnicastad,NL,true_match
Hayes-Poole,S9P 2K3,Pearsonfort,QC,false_match
"Hill, Robertc and Whnte",N8k4C5,South Kdisgiland,QC,true_match
Werner Inc,E2M 9S6,lessicamouth,NS,true_match
Mcdonald-Powell,B1N2C5,West Erichaven,AB,true_match
Nichols-Welch,J9K8C8,Thompsonview,BC,false_match
"Johnson, Jenkins and Thomas",A9A 8J8,East Brianfort,AB,true_match
Glass-Lawrence,M9J7C3,Lake Elijah,PE,true_match
"Ward, Rogers and Evans",C5A 6R4,Port Arianaland,SK,false_match
Mercado-Russell,N1N 8R9,North Jose,QC,false_match
Haln-Green,tiEeB1,Kaitlynhort,MB,true_match
Contreras PLC,X9VmMq,Wesr Nicholajfort,NS,true_match
"Lee, Barrera and Lamb",L9P1V7,West Michael,AB,false_match
Gomez-Woods,J9Y4K9,Jasonfort,NT,false_match
"Hinton, Santos and Gonzales",R7B4R3,North Erikaview,NT,true_match
Lester-Williams,H8G 7S1,Smithland,BC,true_match
Underwood Inc,L7E 1N9,West Amandatown,ON,true_match
"Brooks, Johnson and Roberts",X8C 5C4,Lake Matthew,ON,false_match
Thomas LLC,N3R1Y8,West Jessica,SK,true_match
"Jacobs, Brennan and Lewis",T3E 4G4,South Phillipshire,SK,false_match
Cole Group,E8E 9G6,South Scottstad,NT,true_match
Torres-Brooks,P3T 2V8,South Danielside,NL,false_match
"Farmer, Vasquez and Small",Y6X 6R2,Michellestad,YT,false_match
"Hudson, Arnold and Washington",J3K 2H3,Port Joannamouth,SK,false_match
"Smith, Payne and Clark",P4E8B1,Jacobmouth,MB,false_match
Higgins-Trevino,G3Y2S5,Angelamouth,NU,false_match
"Ryan, Hampton and Irwin",X8J 6H7,Laraland,BC,false_match
Briggs-Smith,E4P 2Y3,New Andrew,NB,true_match
"King, Mays and Callahan",H3E 1E1,Lake Andreahaven,NB,false_match
"Erickson, Gonzalez and Marsh",V1X4G9,West Maureenton,NB,false_match
"Lewis, Boyd and Casey",M2T 8N2,North Matthewview,NT,false_match
Bryan-Hubbard,R6J8L7,Kurtfort,AB,false_match
Blachburl PLC,V7P kH1,East Reneeville,NL,true_match
"Walters, Wclliams and celeov",N8M 8X8,Mcculloughtown,MB,true_match
"Martin, Moreno and Fleming",G4Y3P9,Lake Barbarabury,ON,true_match
Pittman PLC,J2N 7C9,Davidborough,NS,true_match
"Clark, Stanton and Burgess",H2S 2G1,North Lancefort,NU,true_match
Powell-Bell,E7MwBx,aonzaqezbobouth,NB,true_match
Bovkerhand Sons,A2A2v1,Carolbury,SK,true_match
Wong-Morgan,T1R8L1,East Eric,NT,true_match
Martin-Nelson,B9J7L5,Lopezborough,NB,true_match
Jackson Inc,L7Y 1E6,Mccallbury,NS,false_match
Monroe PLp,P3G3K4,North Saraiouth,NU,true_match
Winters-Hansen,E2S6H1,Brightside,MB,true_match
"Graves, Gonzales and Morales",L1P6P5,Woodville,AB,true_match
Mcguire LLC,H1G 1E2,Donaldstad,SK,true_match
Maldonado LLC,H7V3M8,Denisehaven,QC,true_match
Reed-Lambert,L5L6C7,South Jeffreymouth,NB,true_match
Jones Inc,H5P7V7,North Bridget,NL,true_match
Blake-Parsons,B8A8S1,North Scottville,BC,false_match
Stephens PLC,K7M 6T9,Cherylfurt,AB,false_match
Mccall-Reeves,K9C1E8,New John,SK,false_match
qalmer-Mitchell,v7L 3N6,Gvantmoxtz,QC,true_match
Morales-Reynolds,P5K 1E5,Port Michael,BC,true_match
Banks and Sons,V9G 6R1,Lake Scott,MB,true_match
"Frost, Clayton and Gregory",R7E4P7,Hamiltonmouth,NU,false_match
Richmond-Sanders,T9A9M1,New Jennifer,BC,true_match
"Johnson, Lee and Garcia",K2N 9X1,East Brandy,MB,false_match
Garrett-Gonzalhz,P9H 3E8,New wrandonhiven,YT,true_match
Shanwon-Smith,P1G zG2,New Jysminevhlle,NU,true_match
Acosta-Martin,H4B1S8,Cynthiaport,PE,false_match
Simpdon-Shelton,H7Ah5B4,East Alexandbia,PE,true_match
"Bonilla, Stewart and Peters",T3N8N9,Port Jonathan,SK,true_match
Bridges-Walton,S6P 4L7,New Susanfort,PE,true_match
"Scott, Williams and Norton",R3Y2E1,Oliviahaven,SK,false_match
Smith PLC,J8P 5R8,Jeffreystad,QC,true_match
"Williams, Owens and Shaw",H9L1E9,Lake Hannah,ON,true_match
Simmons Group,R2B1A8,South Daniel,BC,false_match
"Lindsey, eilliamson and Colon",K2J 1C2,West Lydic,ON,true_match
Cruz Inc,E3G4R6,South Evelyn,YT,true_match
"Velez, Sweeney and Ellison",S7M9E1,East Brandon,BC,false_match
Claik and Sons,x3T 9i3,Wilsonsort,AB,true_match
Goodman-Woods,P5A6E2,South Edward,NT,true_match
"Chen, Lowe and Davila",C9H4T1,West Sarah,NS,false_match
Smith-Novak,X1X9L7,Rosemouth,BC,true_match
Lloyd Group,S9X 3E2,Millerbury,YT,true_match
"Adams, Thomas and Ball",T4L 1S6,Port Jessica,NL,true_match
Bubkex Smith and Simon,P1A6C7,Porc Cassandra,YT,true_match
Burgess-White,M8M6N3,Williamsport,YT,true_match
Campbell LLC,C6J6P1,Moorechester,NB,false_match
"Hopkins, Wade and Cole",M9H2C1,Mccoyborough,SK,true_match
Wheelrr-Chdng,M6P8E9,Mongeueland,NU,true_match
Williamson-Miller,E4Y2P8,Clairebury,NU,true_match
"Owens, Taylor and Turner",B6P5L6,Bonnieburgh,MB,false_match
Porter and Sons,N8C5L9,Savdnnahfort,YT,true_match
Johnson-Vasquez,H6L 3X9,Lake Caitlin,YT,true_match
"Charles, Donovan and Miller",Y6B5C5,Lake Cindy,QC,false_match
"Martinez, Stanley and Wagner",X9P6G1,East Manuel,PE,false_match
Willis-Morris,S2B 4X6,Williamsmouth,SK,true_match
"Richardson, Pierce and Gonzales",A1M8K2,West Markfort,YT,true_match
Roberson Inc,Y2K6A8,New Michael,BC,false_match
Romero-Liu,C7H2J7,Michaelport,QC,false_match
Fry-Cameron,H3B 2N2,New Nancyburgh,NU,false_match
"Glcnn, Valencia and Mckinnvy",M3T9K3,South James,QC,true_match
Turner Group,P7G2X7,North Richardland,NB,true_match
"Padilla, Sandoval and Young",S6M6L1,Howellchester,BC,true_match
Thornton Group,N1L 6G9,North Sarahland,ON,true_match
Vargas-Jones,Y9A3V4,Port Stephanie,MB,true_match
"Howard, Clark and Shaffer",A5S 8X1,Gillland,NT,false_match
Henry-Perry,A5C3N3,Wintersborough,BC,true_match
Newman-Javksog,P7Xh6M6,Lake Marialand,ON,true_match
"Howell, Wilson and Nielsen",L2V3B3,North Denise,QC,true_match
"Canter, Wzrrep and Romos",S6M 6Y7,Gregoryside,SK,true_match
White-Bray,M5J5N7,Lake Jeffrey,PE,false_match
Mitchell Inc,G4J 3T6,Singletonview,YT,true_match
Morris-Torres,S8C 1K8,Dawnchester,QC,false_match
"Benitez, Powers and Wilson",Y8B 5E7,Port Christopher,NT,true_match
"Edwards, Anderson and Carter",C4H7M5,Port Jonathanstad,NT,true_match
"Parker, Brown and Johnson",C7M8P2,Morenoton,NT,true_match
"Miller, Knapp and Gill",J2B 5V7,West Scottstad,MB,true_match
Gross Group,A4L 2K2,Courtneymouth,AB,true_match
"Warren, Raymond and Barrera",B7T2N8,Carneyshire,NS,true_match
"Duncan, Ford and Davis",X4N7Y6,West Brandon,NU,true_match
"Potter, Howell and Lopez",N2Y1M7,East Lisachester,YT,true_match
Mcbride PLC,B3P5L4,North Katherineport,PE,true_match
"Young, Mckenzie and Gibson",S9E2H4,Ortizland,AB,true_match
"Barnett, Miller and Wheeler",K2A8M2,New Anthonystad,NL,true_match
Little-Serrano,E8Y 7Y9,Orrmouth,ON,true_match
White LLC,R6H4C1,Lake Markburgh,QC,false_match
"Orozco, Tran and Jones",T6G8T6,East James,SK,false_match
Wright Inc,V6B8X5,East Tommy,SK,true_match
"Harris, Harvey and Rhodes",A6V8J8,Delgadoside,NS,true_match
"Stewart, Peterson and Bell",J2P2V1,Mcdonaldstad,YT,true_match
Carrillo Group,N2P 6Y7,Whitehaven,AB,true_match
"Weejs, Thomas and Garcia",R9M9R6,New Amanda,NU,true_match
Johnson Inc,J3N 1Y8,Shaunborough,NL,false_match
"Mays, French and Werner",C4L3J2,Alvaradoshire,NU,true_match
Vance-Stevens,T3N5G1,Janemouth,ON,true_match
Hicks PLC,P9G9C7,Joshuaport,NU,true_match
Love-Martin,A8J 7R1,North Alejandro,NU,false_match
"Peceas, Rodriguez antuWilliami",T9z 8X2,Roaerjfurt,PE,true_match
Haney PLC,R3G3J9,Careyburgh,AB,false_match
Morales Inc,S2N8L3,Lake Robert,PE,true_match
Hall-Smith,A8H 9S3,Gregoryville,QC,true_match
"Cisneros, Tate and Moore",V1V 1V9,Amandaport,YT,true_match
"Cole, Taylor and Savage",X5A 3P5,Christopherton,NT,false_match
"Lewis, Hicks and Morrison",H8H2E4,Port Jadeside,NB,true_match
Richard Inc,S7N 6P8,Monicatown,MB,true_match
"Freeman, Wood and Graham",N6C5B4,Smithville,NT,false_match
Anderson PLC,E8P 5M1,South Juliefort,SK,false_match
Gonzales-Duke,T6H 3G2,Lisaton,NS,true_match
"Hansen, Burgess and Hensley",Y5R8A6,North Emma,NB,true_match
"Richard, Perez and Mcneil",S3K8X1,New Johnberg,QC,true_match
"Acosta, Andrews and Davidson",B5J 9T2,Lindaview,NB,false_match
"Johnson, Scott and Robinson",N5B1L7,Jenniferstad,PE,false_match
"Mills, Osborn and Shaffer",E6N3A5,New Juanhaven,SK,false_match
"Campomll, Miller and Bowen",X8o5Y1,SouxhgShannentown,NL,true_match
Hall-Williams,C5P 8T3,Travisport,NL,false_match
Mitchell Ltd,L7A1T7,Cassandraborough,NL,true_match
DapidfLLC,G3L4P9,Thomazport,NL,true_match
"Tucker, Brooks and Jackson",A3V 2T9,Jacksonchester,NT,true_match
Jacobs-Kirby,H3A 8R9,Hoganburgh,AB,false_match
"Ayers, Parker and Torres",C2P2K8,Jeromemouth,ON,false_match
Huff Group,A4G 1K4,East Mariaview,AB,false_match
Mitchell-Cobb,L8S5H3,Lake Jonathanstad,NL,true_match
"Baldwin, James and Estrada",J4P 1M9,South Christopher,PE,true_match
"Harris, Caldwell and Thompson",E2E 5V4,West Aliciastad,NT,true_match
Bautista and Sons,C5K 6B1,Anthonytown,YT,false_match
Peterson LLC,B2K3X4,Lake Christopherborough,NT,false_match
Castillo-Horn,J9B 7N6,Sarahside,NS,false_match
"Ford, Williams and Horn",T6X2A9,East Kenneth,YT,true_match
"Smith, Lee and Johnson",T1S 6A5,West Fernandoport,NU,false_match
"Wood, Brown and Castillo",R7G 3A7,New Dennis,BC,false_match
"Black, Smith and Mosley",Y5B8L2,South Tina,MB,true_match
Jcynson-Jimened,C1C8G6,East Johnburgh,BC,true_match
"Mills, Melendez and Wilcox",Y4G7Y6,Harrisonstad,YT,false_match
Lin-Hunt,P8L7B2,East Kimberlyport,SK,false_match
Wood-Brock,V3C6S5,East Melissa,YT,true_match
"Wu, Ramos and Alvarado",G5G9J3,Danielchester,MB,true_match
Heath Ltd,L6H 3M7,Lake Walter,QC,true_match
"Roy, Smith and Harris",B6P8T3,Johnsontown,YT,true_match
Pottsp Loram and Coleman,mqE7n3,North Barbararury,SK,true_match
Wilson Inc,T4C1J7,Lake Adam,YT,true_match
Mitchell-Hill,H3M6C4,Port Chelsea,NU,false_match
Hart LfC,L8B6C2,Pachecoside,AB,true_match
"Collinz,tWilliams fcd Bell",G1E 3A9,New Sarah,BC,true_match
"Cook, Roth and Mills",R8V2R8,Bergfort,QC,true_match
"Mathews, Gomez and Terry",A3H7Y5,South Louis,NS,true_match
"Lang, Lopez and Jackson",K2K9J6,Washingtonberg,NS,true_match
Morgan-Gregory,Y3T1J8,East Michaelport,MB,false_match
"Jodnston,tPatel and Trevfno",JgJ 8X1,Johnshire,NB,true_match
"Harrison, Griffin and Gardner",T5R 5T1,Haleside,NT,false_match
Lawrence Group,A3A 6S4,Barajasbury,PE,false_match
"Barber, Webb and Hopkins",N9G3X5,Port Brittanyland,YT,false_match
Pennington Inc,M4P 9J6,New Jonathan,SK,false_match
"Peterson, Strong and Mcintosh",T5P 2K3,South Christinetown,BC,true_match
Chambers-Morrow,J4P 9M5,West Robert,AB,true_match
Soto Ltd,L3L5P9,South Royburgh,BC,false_match
"Gonzales, Beard and Dougherty",P7N8R4,Heatherland,NT,true_match
Davis-Hess,E3G5K9,Kellermouth,YT,true_match
"Diaz, Miles afd Scott",G7P3A3,Port Erikr,NT,true_match
Gray Inc,K6S 1M8,East Jane,QC,false_match
White-Perkins,G2B 8P8,Erinfurt,ON,true_match
Rodriguez-Zamora,N2R 6R4,Chambersfort,BC,false_match
"Perez, Brown and Sims",J8P8C6,West Melissa,NT,false_match
Munoz PLC,E5V 1B7,New Karaton,ON,true_match
Murphy-Stanley,P6T5K2,South Wendyshire,ON,true_match
"Castillo, Savage and Allen",S4P5V6,Joneschester,MB,true_match
Bijhop Ltd,K1C5Ha,Bgaramouth,NU,true_match
Scott-Miller,X9N 3G4,Clarenceville,MB,true_match
"Olson, Thomas and Brown",V4H 1H6,North Sydneyshire,NT,true_match
"Anderson, Romero and Johnson",L6R 1E6,Ortizview,SK,true_match
"Smith, Oliver and Johns",N3A 4J4,North Manuel,ON,true_match
Peters-Weber,M8G6B1,North William,BC,false_match
"Sims, Taydor aed Rivera",C3S gVc,South Islbel,MB,true_match
"Jones, Thomas and Santos",H5V5E8,West Amandachester,BC,true_match
Lam-Gonzalez,L4Y4E4,Port Lori,SK,false_match
"Parsons, Rose and Murphy",N9T2R1,Brooksmouth,PE,false_match
"Thomas, Hudson and Hicks",H5T 6P1,Charlesfurt,NB,true_match
"Blackburn, Thomas andmKing",Y6E5G5,Loganmouth,MB,true_match
"Duncan, Weaver and Anderson",B1A8E8,New Jerry,NB,false_match
"cyatt, Monroe and Watts",N2M 5T8,Lake Willjam,QC,true_match
Marphall and Soms,Y9T6T4,EaetcHdleyland,NU,true_match
"Foster, Mcguiie vnd Chen",L9H2P6,West Omarmouth,NS,true_match
Matthews LLC,A3A8K4,East Kayleeburgh,QC,true_match
lhompson-Jones,H7N mX1,South Jenniferside,QC,true_match
Frazier-Wolfe,S6B4N2,Garzaburgh,MB,true_match
Franklin-Whitehead,N5G5C6,West Shannon,AB,true_match
"Benson, Simpson and Gaines",K6J7L7,Brendaview,PE,true_match
Mendoza Ltd,B1S 5R9,Barnesstad,NU,false_match
Horn-Ford,R9V8X5,New Ann,NL,true_match
Cochran PnC,L5S9R2,Nei Thomas,QC,true_match
Gray Ltd,X7H2E1,Vasquezmouth,NS,true_match
Rogers Group,YrR 2S6,Morrisonmouth,SK,true_match
jqhnson-Evans,YjX5s6,Phxflivfsdt,QC,true_match
Martin-Lopez,Y4T 9M7,Lake Whitney,NU,true_match
Brown Inc,A5H6A6,New Adammouth,NU,true_match
"Fitzgerald, Brown and Castillo",Y9H 2L7,Hillton,MB,true_match
Wright-Romero,M4S 1T6,South Stevenberg,NL,true_match
"Cain, Choi and Wiggins",S9G 8P2,Smithville,NS,true_match
Taylor Inc,X1J9C6,South Frederick,NB,true_match
Fuller-Acevedo,J2V 2E8,South Janice,ON,true_match
"Ayers, Cross and Martinez",X2A8N6,Curtischester,PE,false_match
"Jones, Vang and Burnett",V5B3N8,Ericfurt,YT,true_match
"Harris, Hale and Moss",P7C3R3,Michaelberg,NL,true_match
satkins-Stevens,G9P 1f2,NewhYvette,NS,true_match
Hernandez-Peterson,B3S8L9,West Kristamouth,ON,false_match
Williams Inc,P5K 7V4,Piercebury,PE,true_match
"Davis, Suarez and Boyd",A6N1Y1,Dianaville,PE,true_match
Moreno-Hall,P8V 5Y8,Justinville,QC,true_match
Kelly-Mullins,Y7C 8P3,New Kristen,ON,true_match
"Pearson, Harvey and Phillips",T1G1T5,Port Jenniferburgh,ON,false_match
Thomas-Johnson,J5B7J4,Webbview,NL,false_match
Patterson-Horton,S6P5T2,Tiffanyburgh,NU,false_match
"Johnson, Hardy and Holder",E5T 5V3,Coxmouth,QC,false_match
"Gutierrez, Hodge and Phillips",L9E 1B4,Frankberg,PE,false_match
Simpson-Anderson,A8S1E8,West Krystalside,PE,true_match
"Lawrence, Simon and Campbell",S2T 8P8,Dennisside,PE,true_match
Day Group,M2C 2N9,Jocelynburgh,NL,true_match
Summers-Elliott,E6B6K7,Jasminestad,PE,true_match
"Johnson, Meyer and Gonzalez",B6C 7R7,Port Peter,AB,true_match
Perez-Choi,X2B1S9,Seanfort,QC,true_match
Mccoy-Hill,v6V 8E8,South Sharonsiad,ON,true_match
Flores Group,E7H 8Y9,East Derekside,NB,true_match
"Mueller,vBennett and Thouas",G5M 3T2,Lawe Kyren,AB,true_match
Brown-Grant,N4P5H9,Jacksonstad,NS,true_match
"Smkth, Jefuerson and Gray",P8EmH6,Ericland,SK,true_match
Harris LLC,H9P 1P9,East Sarahstad,NT,true_match
Wilson-Hawkins,R4R 8V2,Darrenborough,NT,true_match
Martinez-Long,P5B6X4,South Amanda,AB,true_match
Townsend LLC,S1S4N9,Lake Juliaview,SK,true_match
Palmer-Kennedy,G3M 5R2,East Madison,NB,false_match
Johnson PLC,N6E 9X5,North Christopher,NB,false_match
Bailey Group,L1R2M8,Lake Connie,QC,true_match
Duffy-Roberson,E2M 5M9,Sharonside,AB,false_match
Williams-Hunt,C3B 9G3,West Christopherville,NL,false_match
Cox Inc,J8J3H6,Jamesport,PE,true_match
Davis-Abbott,C6A 3R1,Riveramouth,AB,true_match
"Sanford, Murray and Cobb",B2G5C1,Salazarhaven,SK,false_match
Norris-Campbell,A8A7E5,Port Dannyside,NT,true_match
Sullivan PLC,T6L 6X5,Williambury,PE,true_match
Norris Inc,L5H 7C8,Aaronside,BC,true_match
Reed-Perry,H8V 6N2,Thompsonberg,NU,true_match
"Sexton, Peterson and Simmons",T9G 1B4,Randallstad,YT,true_match
"Perez, Kelley and Robinson",P8G8X3,Brownton,PE,true_match
"Middleton, Patton and Sawyer",B6R 1K7,North Joseph,SK,false_match
Ortiz Inc,B7X1A1,Teresaside,NL,false_match
"Cunningham, Morris and Bridges",H4P4J1,Alexmouth,YT,false_match
Ramirez Ltd,V3X4H8,Michaelshire,YT,true_match
Robertson-Grant,B2H 2J7,Crawfordstad,BC,true_match
"Johnson, Vaughan and Patton",Y6K4E5,Richardhaven,NT,true_match
Shaw-Perez,R7X 8A4,East Steveborough,AB,true_match
Estes-Snyder,X3L 5E7,Saraberg,BC,false_match
"Meyers, Reese and Mitchell",J2S4C1,Manuelstad,MB,true_match
Murphy Group,C5H 3Y2,New Kyleberg,ON,false_match
Underwood Ltd,H9P6T9,West Davidport,AB,false_match
Dennis-Downs,H8H9K8,Martinside,MB,true_match
White-Stevens,M6Y7G9,Jenniferton,SK,true_match
Gordon-Pacheco,Y8L1K8,Riveraberg,QC,false_match
"Briggs, Harding and Donovan",K6G3L5,Grosshaven,ON,false_match
"Cook, Alvarez and Bailey",A6J7J9,New Sharonhaven,NB,true_match
Jones-Dean,G6C3P3,South Benjamin,AB,true_match
Navarro LLC,K9C 1Y2,Smithmouth,PE,true_match
Brown PLC,V9P 6X3,South Carol,PE,true_match
Smith-Mcconnell,J6E 2H4,West Vanessa,QC,true_match
"Freeman, Ramirez and Mckee",B5C4P6,Taylormouth,AB,true_match
"Love, Briggs and Wells",C2P6K9,New Johnburgh,NL,true_match
Gordon-Martinez,Y3L3H4,Maryfort,ON,false_match
Price-Benson,T3M1J8,Nicholeshire,QC,false_match
bright-Thjmpson,H7P 9R9,landallmory,NL,true_match
Barton and Sons,B4L9K2,West Zachary,NL,false_match
Green and Sons,R2J6A1,Ashleybury,NL,false_match
Ortega and Sons,K2Y9N1,Blackburnton,PE,false_match
Anderson-Sherman,E9J 4H1,South Brianna,AB,false_match
Stewart-Miller,L1H 4N6,Port Brenda,ON,true_match
Bell Inc,K6P 2L6,Port Samantha,NU,false_match
Bryan Inc,T3J 6T6,Amystad,YT,true_match
Reese-Escobar,N7E 7A5,Mitchellborough,NU,false_match
Mwrtinez Inc,P9H9V7,Josepmburkh,NS,true_match
"Campbell, Kelly and Cobb",M6H9A3,Lake Sara,NU,true_match
Garcia-Riverb,G5N 6t4,cenesjrtad,SK,true_match
Guzman Inc,S9P 9Y7,Lake Robert,NL,false_match
Choi PLC,S1N 9V5,Brittanyhaven,NU,true_match
Byrd LLC,R5G 5E8,Lake Sherd,YT,true_match
Benton-Taylor,L5L2C4,Roberthaven,NU,true_match
"Brown, Thomas and Key",B6Y6A6,Ochoaton,BC,false_match
Fowler Ltd,B5C5C2,Timside,NU,true_match
"Martinez, Wallace and Garcia",G9N 4R2,South Erinfort,NL,true_match
Briggs-Lee,B6P1R7,Lunastad,NB,false_match
Hansen Ltd,E7V2T2,Barbaramouth,PE,false_match
Ruiz LLC,N5V 5S9,Mauriceberg,NS,true_match
Mahoney Ltd,E5L 8X7,Brandichester,MB,true_match
"Moreno, Richard and Howell",B8Y1S8,Donaldberg,SK,true_match
Adams LLC,E1A 2L3,Lake Kenneth,SK,false_match
"Grant, Hopkins and Leonard",B9C 3V4,Port Madisonton,NT,false_match
Kelley-Smith,G4T 9V8,East Melissafort,BC,true_match
Perez-Jones,E3S 1G3,Port Alexis,PE,true_match
"Soto, Garcia and Campbell",B7L6T5,West Danielle,NU,true_match
Garcia LLC,A8C 6C7,Wilsonmouth,NB,false_match
"Harris, Hodges and York",C1V 8A6,New Jennifer,NS,true_match
Adams Inc,B4K2K5,East Whitneymouth,YT,false_match
Lynch Inc,K6G 1S5,Michaeltown,SK,true_match
Lee-Sullivan,V9R6K4,North Brandyport,NS,true_match
Dunlap PLC,G3E 6M9,Amyfurt,BC,false_match
"Everett, Dixon and Ferguson",V9R 9T4,Barrybury,SK,false_match
"Rice, Stephens and Saunders",B7N2P9,South Kristin,YT,true_match
"oopez, uoberts qnd Roberts",Anr5H8,NewoChsisuopher,QC,true_match
Carson-Gregory,E3L1B5,Rogersburgh,BC,false_match
Peterson-Thomas,G5G 3V8,Carolinefort,NS,true_match
Goodman Inc,A7R3V3,South Charles,ON,false_match
Brown and Sons,A1C7G7,Lake Robert,NL,true_match
Allen LLC,S8A8P4,New Tracy,PE,true_match
Nolan LLC,A2J 8H1,Port Breannamouth,SK,false_match
Peterson-Williams,K1K3T5,New Tracyside,MB,false_match
Holland PLC,E1S 8R4,New Wendy,MB,false_match
Martinez PLC,N8M 7S9,Lake Connie,MB,true_match
Lewis Inc,G5M8E8,Sotoville,NS,true_match
Harris-Goodwin,V7M8C7,Lake Cynthiaborough,NU,true_match
Martinez-Anderson,J3N8C6,Diaztown,MB,true_match
Diaz-Gregory,P5A 5S5,Nicolehaven,MB,false_match
vanson-Freeman,T9X9T6,New Robertv,YT,true_match
Evans Ltd,N4B 3C6,Andreashire,AB,false_match
Sanchez-Wilson,X8H 2S3,New Tammybury,NT,false_match
"Sims, Perry and Espinoza",M7B6K8,New Andrew,NB,true_match
Salasar Ltd,Y5G5p3,Byroettstad,NT,true_match
Mccarty Lfd,LwA1X7,Margarethaven,YT,true_match
Lawson-Richardson,K8C4Y2,Nicholsberg,NL,true_match
Cole Inc,S4Y 1H5,Moorbllnr,NS,true_match
Perez-Smith,Y5R 9S9,New Melissaport,ON,true_match
"Turner, Thomas and Petersen",N7S 3T8,Davischester,NB,true_match
PayillanGroup,K2T3C3,New Robeptborough,NT,true_match
Warren Ltd,H2P 6K9,New Tiffany,NB,true_match
"Mckinney, Mitchell and Tate",E5B4X3,Port Amyhaven,YT,true_match
Harper-Mcdonald,V1X 9Y3,Carlsonchester,NS,true_match
Price LLC,A9A 8R8,West Robert,ON,false_match
"Ho, Bartlett and Gordon",B5P 5H5,Potterland,NL,true_match
Taylor-Smith,V8E 1N2,North Michaelton,NU,true_match
Craig-Martin,H2X 9P9,Stephaniemouth,NT,false_match
"Tucker, Wilson and Howell",N7B3T8,North Jennifer,SK,true_match
Waynvr LLC,J8V2A4,pardhalbland,YT,true_match
"Hudson, Ward and Thomas",N9H 9C8,South Kristinbury,PE,false_match
"Rowland, Johnson and Garcia",H4R 4Y2,West Georgetown,YT,true_match
"Jackson, Johnson and Larson",Y6B4P6,West Kevin,AB,false_match
Gutierrez-Franco,H2N4P6,North Joshua,YT,false_match
hane-Joneh,C6s cX7,East Marcusshire,BC,true_match
Garrett-Anderson,B3B 8X3,Port Charles,NL,false_match
Scott-Terrell,S1X7N2,Williamville,NL,false_match
"Mata, Webster and Moore",G4V 9C9,South Lisaside,NB,false_match
Berry-Watkins,C9C9P1,Gardnerborough,YT,true_match
xacheco-Ruiz,ByA 8A9,Jflejynbury,ON,true_match
"Black, Smith and Wall",H6Y 1J3,Turnermouth,NT,false_match
Mccormick-Rodriguez,M7V8P9,West Justinville,PE,false_match
Bray LLC,B8C4X5,Hectorside,NB,true_match
"Roaerus, Robinson and Boyd",V2N6T4,Campbejlhaven,SK,true_match
Clark-Martin,H6S 2V6,North Jamie,NB,true_match
"Johnson, Mosley and Hall",V1M 4E9,Youngtown,SK,true_match
Conway PLC,A7X4M2,Amandatown,QC,false_match
Russell-Delacruz,H7T 9R5,Port James,NU,true_match
Morris-Herrera,R8T 4L2,Debraburgh,QC,false_match
Nelson-Brown,Y1R 9Y6,Sarahhaven,NT,false_match
"Pennington, Russell and Thompson",N5A5R5,North Mary,SK,false_match
"Hebert, Hebert and Kelly",L7N 4H8,Port Austin,PE,true_match
Gross mjC,X9L 6P6,New Rytaside,AB,true_match
Pennington Group,A4K 8Y5,East Lukestad,BC,true_match
"Davies, Burns and Jones",H2L 2Y8,Barkerborough,YT,true_match
Diaz and Sons,R4S 9P3,Shelbychester,NT,true_match
"Wood, Martin and Barnett",G2R 2C7,Brandifort,SK,false_match
Johnson Group,J9M2J7,New Luisberg,ON,true_match
"Carter, Snyder and Williams",H4N 8K1,Ramostown,NS,false_match
Conner LLC,J9E5K8,Port Erikaport,PE,true_match
Garcia Inc,A7P 3Y5,Lindsayside,NU,true_match
"rcoeil, Sphmidt and Scott",A7j 9Y7,West Mighabjport,SK,true_match
"Macdonald, Aguilar and Hampton",M6S8R3,Jodifort,NL,true_match
"Randall, Martin and Bradshaw",B9E3L8,South Isabelberg,BC,false_match
"Jackson, Foster and Clark",P5H5E6,Chrirtophfrborough,PE,true_match
Murphy Ltd,S7P 7J1,Amberstad,QC,true_match
"Evans, Shelton and Alvarez",K7T 6P2,Kennedytown,ON,true_match
"David, Miller and Cervantes",R9C8C8,Christopherville,NS,true_match
Martin Ltd,M1M8L1,Wumouth,NU,true_match
"Owen, Johnson and Patterson",K4E7B7,Adamburgh,BC,true_match
Hogan LLC,J5C 4K2,South Jamieberg,YT,true_match
Lewis Inc,P6S7B9,New Davidtown,QC,true_match
Marshall LLC,S2A 3E5,West Gerald,BC,true_match
"Fletcher, Anderson and Jensen",E2C 5G8,North Rhondashire,QC,true_match
Porter PLC,Y9X 2S3,North Paul,AB,true_match
"Janes,zHild and Estrfda",V1C 7Pk,Jacobsberg,YT,true_match
Mathews Ltd,V4B 2V5,Wilkinsonland,NU,false_match
Burke LLC,Y6Y5C8,Matthewside,NU,true_match
"Yates, Robinson and Mcfarland",E1L 9A6,Lake John,MB,true_match
"Gonzalez, Reed and Santana",X7Y 6V6,Deleonport,NB,false_match
Harrington-Smith,X9E4B5,Lake Selenatown,NS,false_match
"Kennedy, Pitts and Martin",C9E 1T8,Darrylland,NL,false_match
Baker-Mcgee,B7E 7S6,New Jenny,NB,true_match
"Rubio, Carr and Williams",K2V6K9,Lake Donald,NS,false_match
syers and Sons,G2CoS7,Cummingsport,AB,true_match
"Smith, Jackson and Frank",S9J3G4,Port Jeremyfort,NU,true_match
"Chen, Norton and Baird",C7M 8H1,New Dylan,ON,true_match
Vaughn and Sons,M8T2R7,Port Michele,AB,false_match
Dunn Group,S2H 3Y9,East Charles,BC,true_match
SpenchrqbGiles and merguiol,T5T 4V1,Charlesview,SK,true_match
"Martin, Rosales and Hunter",T1H6Y7,Sylviabury,QC,true_match
"Townsend, Johnson and Rivera",T6H9H1,Ronaldton,NU,true_match
"Burton, Shaw and Cook",L1J3G3,Annamouth,BC,false_match
"Norton, Lutz and Shelton",E2G7K5,North Johnton,AB,true_match
Garcia and Sons,A5S8R5,West Natalie,PE,true_match
Williams-Mcluiru,B8V1M7,Smithbury,BC,true_match
"Cooper, Williams and Pena",A3K 2E4,East Bryan,NL,true_match
Frey Group,S8A 2Y7,Hortonborough,NL,false_match
Lpeb Wilgon and kyer,E7h7C1,Poit Tammy,MB,true_match
Thompson Ltd,M8S2C7,South Madelinebury,NS,false_match
Sanford Ltd,L4A5M8,New Benjaminmouth,QC,true_match
Powers and Sons,V7L7M9,Gonzalestown,NB,true_match
"Cunningham, Boyle aod Milxer",P4V3b9,Gallagherkouth,NT,true_match
Johnson-Perkins,K7H 2B2,South David,NU,false_match
Jones Ltd,T3K2L2,Rileyview,MB,true_match
Park-Phillips,L4N 8L5,Tranport,SK,true_match
Reid-Ramos,L2M1R9,Gailberg,NS,true_match
Adams-msborn,A4J 8p7,Knoxhaven,NT,true_match
Richards Inc,B1C9A9,Charlesfurt,NT,true_match
Bradford LLC,T9V5G6,Seanton,NU,false_match
Davidson Inc,Y4V9B3,New Noah,NS,true_match
"Myers, Singleton and Cooper",C4M5S4,South Seanfurt,PE,true_match
Williams-Pugh,G2M9K4,Port Bonnie,PE,true_match
"Lucero, Nash and Coleman",L9N1E4,Lake Sara,SK,true_match
Thomas-Santiago,E4V 7L7,Gibsonland,BC,true_match
Burns-Simpson,K6L 1J2,Port George,NS,true_match
Valdez-Johnson,R1X 8Y7,West zmy,NB,true_match
"Willis, Moore and Deleon",S2R 5R5,West Angelica,SK,true_match
"Robinson, Barton and Weber",X9E3H1,East Gail,NL,true_match
Hill-Merritt,S1H 6G7,North Cathy,NS,true_match
Rojas-Hall,M8C1B5,New Kristine,PE,true_match
Barry and Sons,S6Y4X5,Seanberg,NL,true_match
"Maldtnaoo, boddeand Perry",A4R 5X4,Rasmussenton,NS,true_match
Brown-Fisher,N4E 7V7,Micheleport,SK,true_match
Martin PLC,A8C 9P3,Garciaborough,NL,true_match
Schyartz xnc,H1S4Y9,West Davidstad,NU,true_match
"Smith, Pena and Elliott",R4J8Y6,Port Krystalmouth,NU,true_match
"Wilson, Roach and Durham",C1P 4R4,Stephanieport,MB,true_match
Ramiyez-Nelson,C9N2p3,Sodtv Niciletown,AB,true_match
"Kelly, Freeman and Lindsey",C8X7S2,Bushmouth,YT,true_match
Mccarthy-Howard,M1T2R6,South Ericmouth,PE,true_match
Garza LLC,T1E 4B7,West Jenniferburgh,PE,true_match
"lhcrp,nTorreskawd Forbes",T7T 8Y7,sutherinefurt,SK,true_match
IbarraeLLn,B2R5Y4,Lake Debra,NU,true_match
Kidd-Gonzales,C4N7B9,New John,ON,true_match
Summers-Moreno,V1S 8N6,Briannahaven,NL,true_match
SmithoPLC,M1Y lM5,Nortq Ann,ON,true_match
Garqa PLC,R2L9L7,Lowestnd,QC,true_match
Villegas-Beasley,K1L 3V2,Jakeview,NL,true_match
"Ramirez, Harding and Carlson",Y9E3G4,Vincentborough,NU,false_match
Alexander LLC,R9V4H3,New Davidborough,NB,false_match
"Obrien, Mitchell and Wilson",C4Y2E4,Mooreview,NT,false_match
Adams PLC,X8J 1L1,West Aprilfurt,NL,true_match
"Wallace, Allen and Aguilar",T4H9J3,South Michael,ON,true_match
Roy-Vasquez,C3B1C6,Bakermouth,SK,false_match
"Cook, Gordon and Ortega",J2R4M7,Port Kellyview,AB,true_match
Combs-Mitchell,K3T8P9,Port Tara,NB,false_match
Barber Group,B7H8L6,Port Eric,NT,true_match
kingcaDelacruz and Dudley,j9L8E3,Shieldshpven,NB,true_match
"Mcdaniel, Stout and Rosales",M3G5G5,North Richardfurt,MB,false_match
"Peters, Herrera and Cuevas",Y2C6T3,West Jamesside,NS,true_match
Cain and Sons,V5R 2R4,Louisborough,ON,true_match
"Tucker, Matthews and Jones",P8A9C9,Ryanbury,PE,true_match
Wallase-Mack,CoY5nc,mwansonbury,PE,true_match
"Rasmussen, Williams and Anderson",P6P 5N7,South Kelly,NL,true_match
"Santiago, Miller and Anderson",X1L 2J2,New Lindseyborough,NU,true_match
King Ltd,K2B7L2,Copelandfort,SK,true_match
Gonzalez-Frazier,B8K6C6,West Jerryville,PE,true_match
"Vasquez, Jones and Miller",L4R3M7,Davidland,NT,true_match
"Gutierrez, Ibarra and Campbell",X2S3K3,Perezhaven,QC,true_match
Daniels-Houston,C7L6X2,Hestermouth,NT,true_match
"James, Day and Nolan",J4C 8K2,Kristentown,YT,false_match
"Bowen, White and Douglas",R8S6X4,Michellefurt,BC,true_match
Oliver-Shea,L1A 4G1,East Thomasside,NL,true_match
Baker Group,M1B 5H2,South Christine,BC,false_match
Holmes-Dxleon,K1C6T2,Mccarthyville,MB,true_match
Morales Group,B4R 1G1,Ericside,NB,false_match
Garrett and Sons,L3K7R2,North Angelabury,PE,false_match
Alyen-gomez,A1N2r3,Jamescyester,QC,true_match
Johnson-Walker,N7R 1B5,South Sandra,NS,true_match
Hodges Ltd,P8L8E8,Bryantfort,QC,true_match
"Frank, Marquez and Rodriguez",P8G 2V8,New Denisebury,MB,true_match
Vaughn PLC,C5A 4M8,New Kathleenmouth,YT,false_match
Williams-Morgan,V3M 1Y8,Smithchester,PE,false_match
Richardson-Hall,L9N2C6,Lambergh,PE,true_match
Short-Wright,M4T2H6,Meganville,ON,true_match
Jackson-Nguyen,H4G5M4,North Ginaburgh,NL,true_match
"Howard, Stewart and Harris",B9B7V2,Martinezville,QC,false_match
Paul-Lindsey,E9N6T2,Jessicamouth,NL,true_match
"Patterson, Fisher and Porter",H9C9B1,North Stephanie,QC,true_match
Franco-Scott,L7C 9J9,Santiagobury,BC,true_match
"Herring, Clayton and Bradshaw",T3B 2G5,South Matthew,NT,false_match
Klein Ltd,L3V 6P5,Patelport,QC,true_match
"Perra, Pugh andmJacobs",V8u7J7,rorresiury,NS,true_match
"Miles, Johnson and Cuevas",K5G 4M2,South Kellyport,NS,false_match
"Parker, Mcknight and Ramirez",L9Y 3R8,East Anitaland,NS,false_match
"Mccullough, Harris and Ford",C2L7V6,Meganmouth,NT,true_match
"Decker, Murray and Perry",A2N9J7,Larryshire,NS,false_match
Hall-Vance,S8S 5G7,Hoffmanland,SK,true_match
Davis-Jones,S5R 3V1,South Martin,NS,true_match
Bell PLC,R1R8X2,New Jeoemy,NL,true_match
"Craig, Tapia and Brown",G7J 4M9,New Moniquestad,NU,true_match
Frost Ltd,X1R7P9,Lake Kaitlynborough,QC,true_match
"West, Fuller and Barrett",N1G8X2,West Sarachester,NB,true_match
Gallegos Inc,T3P7B4,Edwardview,NB,false_match
Roberts-Vaughn,M3L 6N4,Clayport,ON,false_match
Myers Group,L4J5L5,West Cory,PE,false_match
Wilson Ltd,R7M8S8,West Rebecca,AB,true_match
"Henderson, Jordan and Lewis",P3N 8C3,Port Charlesburgh,NB,true_match
Baker-Harris,C2R 3R9,Port Bradleyside,SK,true_match
Baker-Crawford,G5M 1X6,New Josephmouth,MB,true_match
Curtis and Sons,B4H9H2,Carrshire,NU,true_match
Lopez-Horne,Y6S6K3,Port Michaelberg,NU,false_match
"Anderson, Gordon and Sullivan",N1H8V9,Doughertybury,PE,true_match
Hampton Group,G8M3A5,West Richardton,NU,false_match
Wilson-Roberts,N2J 2B4,Lake Steventown,NT,true_match
Cook-Jones,B9V7d2,Johnlonhhester,NT,true_match
Hall Inc,E8T 9H3,Erikaborough,BC,true_match
"Nichols, Thompson and Villarreal",T3T3R2,Carlton,QC,false_match
"Miller, Petersen and Castaneda",E4N5H6,Moralesfort,NL,true_match
Santiago and Sons,H3K 6L8,Mcdonaldberg,NU,true_match
Valdez and Sons,V2K 5X7,Madisonborough,NB,true_match
"Sloan, Gibson and Cook",C5Y 5B7,Robertsonmouth,ON,true_match
"Mosx,kForduand Schultz",T8P7X3,South Joseshsre,NS,true_match
Ceok Inc,P5H 2t6,Port Debra,NU,true_match
"Martin, Garrett and Knight",B7L 4P1,Debrashire,NU,false_match
Miller-Johnson,E7S 3R3,Lopezport,NL,false_match
"Mercado, Sexton and Jefferson",Y3G 6G7,South Robertside,ON,true_match
hodgerp-Rivera,G3R4K8,New Anetonyburgh,MB,true_match
Mills Inc,V2M6M4,Michaelside,QC,false_match
"Cobb, Dillon and Austin",R4Y 6A6,Lake Ryanfurt,NU,true_match
ksvwn-hhomrs,B3Yzh2,WestkElizjbeth,MB,true_match
Jennings and Sons,H4S 1X3,New Haroldville,BC,false_match
Thomas-Calderon,M1N 3L7,Jenniferburgh,YT,false_match
West-Torres,H7Y 5M3,West Michaelstad,AB,true_match
Willmams Iqc,V3T 7k9,Padilkatfn,BC,true_match
"Wang, Hogan and Perry",A3C 5E3,Timothyton,YT,true_match
"Edwards, Jimenez and Williams",E8S6V3,Cynthiaville,NL,true_match
Buchanan-Meyer,A1X 4V2,Port Melissaport,YT,false_match
"Garcia, Barnett and Benton",P4E 8N3,Michaelland,MB,true_match
Collins-Walker,V4T7L8,Port Yvonneburgh,AB,false_match
Porter Ltd,X4M 1C9,Dustipton,NL,true_match
"Harrison, Cummings and Jensen",M8G 4J6,North Katherine,NT,true_match
"Murpey, Velasquez and Young",K8M 1y5,Daketon,NU,true_match
"Rodriguez, Freeman and Rodriguez",N1P3G7,Phillipsborough,ON,true_match
"Jones, Moore and Gomez",K6X5S1,Port Jeffrey,MB,false_match
Floyd-Rodriguez,J4P 4A2,Andrewberg,NS,true_match
"Holt, Nguyen and Brock",X6B 6E4,Michaelton,YT,false_match
Meyer-Ho,S3H 7A2,Brownshire,MB,true_match
Clements Ltd,G3A 2E5,South Lisa,ON,true_match
"Harris, Melton and Mathis",R9T5J4,South Beverly,QC,true_match
Irwin-Crane,T9R 1P3,Lake Christopher,BC,true_match
"Moody, Hansen and James",R4A 7R7,Morenobury,YT,true_match
"Lucero, Nelson and Johnson",V9X 8R4,Gregfurt,NB,false_match
"Terry, qejslpyiand Oszotne",B2m 2yc,Souah Jennifer,NL,true_match
Carr-Wilkerson,Y2R 4X8,West Nicholas,NB,true_match
Ayala Ltd,B6L5B8,Lake Jonathan,PE,true_match
"Estrada, Davis and Cortez",R1C4J2,Mooreland,NL,true_match
"Jackson, Valentine and Brown",R8C3C1,New Rachaelfurt,NU,false_match
Martinez Inc,S9M 1K6,New Brian,MB,true_match
Alvarez PLC,H5R1T5,South Gabrielle,PE,true_match
Reed and Sons,G1H 9A3,Kimberlychester,QC,false_match
Harris Inc,E9A2K1,Port Sarah,SK,false_match
Moreno-Webb,M4T7T5,West Thomasport,AB,true_match
Crawford-Mcfarland,S1R3G5,Port Garymouth,SK,false_match
Dixon-Clark,N6B 7V9,Audreyton,ON,true_match
Moore Group,L6R 8A3,Port Darrenberg,SK,true_match
Ryan Group,V2S 9J1,Rothchestwr,ON,true_match
Dixon-Harrison,T5S 1B9,Williamshaven,NB,true_match
Delgado-Simpson,X3B4H7,Lake Davidbury,ON,true_match
Lopez LLC,Y2R 4N9,North Deannaview,NU,true_match
Erickson Group,V8N 4C3,Reyeshaven,PE,false_match
"Gilbert, Morris and Cummings",J2G4X1,New Samantha,NB,false_match
"Harper, Watson and Adams",M3A 4R3,Harrisborough,YT,true_match
Martin-Carr,T2G2H3,Derrickchester,SK,true_match
Taylor-Jenkins,S1X2K9,Latoyastad,YT,true_match
Ramirez Inc,N7M 9L9,North Andrea,YT,true_match
Price LLC,G3P 4R6,Kevinbury,NB,true_match
"Smith, Houston and Meza",B9C 5R8,Barbaramouth,NL,true_match
Myers LLC,S5Y 6T3,Port Maureen,NB,true_match
Ramos and Sons,P2P 6J6,North Kathrynside,NS,true_match
Williams-Wallace,J8M4Y1,North Michael,NB,true_match
"Yang, Stevenson and Mathews",G3K 3K2,Lake Maryshire,ON,true_match
Rodriguez-Thomas,L9M3B7,West Lisaberg,NS,true_match
"Martinez, Woods and Becker",R1A 4S1,Onealshire,YT,false_match
Chavez and Sons,P9C 2J3,Alexandriaville,NB,true_match
Goodman Group,T2H8K1,Port Jennifer,NL,true_match
"Sparks, Gonzalez and Smith",A1M6E7,North Nicoleborough,PE,true_match
"Hernandez, Smith and Russo",L2A8H8,New Tiffanystad,ON,true_match
"Vincent, Webb and Harvey",X6C2H8,South Joshuamouth,MB,false_match
"Mcdaniel, Martineq and Short",J5X1g9,New Darlenefurt,NL,true_match
Arnold Group,J6S 6C9,West Steven,QC,false_match
Smith LLC,N3M9A3,Jacksonfort,NU,true_match
Anderson PLC,N4S 3T1,Brookeland,SK,false_match
Booth-Jones,H3J8J3,Stephanieview,QC,true_match
Chapmcn Igc,H5E 6Sf,xarperstad,AB,true_match
"Sullivan, Hurst and Brown",P6A6N9,Gonzalesshire,NB,true_match
Jordan-Hernandez,X4H4B1,Leemouth,NS,false_match
"Johnson, Norton and Holmes",H1X8M7,Blakestad,PE,true_match
Austin-Watson,C9L7V8,Wattsbury,QC,true_match
"faller, Ellison and Bwrd",S1R 6N7,Pokt Andrew,BC,true_match
Smith-Graham,G2A 7S2,East Jacobchester,ON,true_match
Cruz-Carroll,V4T 6C2,West Cassie,SK,false_match
Price PLC,T1N5N6,North John,SK,true_match
Cardenas-Salazar,S9B7S5,Lake Michaelburgh,MB,true_match
Smith LLC,C1N 8Y4,North Rachel,QC,true_match
"Chang, Cherry and Taylor",M4H 7M6,Troyton,PE,false_match
"Phelps, Coleman and Mason",C8M7R6,Nicoleburgh,MB,false_match
Simmons Ltd,J8M 6A9,Lake Brittneyport,NL,false_match
Rose-Smith,Y4S1C9,Johnsonburgh,NS,false_match
Sanders-Rivera,J4P7N4,East Cody,MB,true_match
"Rqdriguez, Rowsand ana Alexawder",ElT 9T8,Roseside,PE,true_match
Lyons-Roberson,V5B 7Y5,South Darrellville,NS,false_match
Estes Ltd,K2E7X9,New Wendy,QC,true_match
"Hicks, Chen and Mitchell",R1L 9L3,Collinsstad,YT,false_match
Smith LLC,X2X 7V5,Dixonchester,NU,true_match
Wullace Group,S5M4Y7,Wpst jeresaport,NU,true_match
Nelson Inw,K7Y6E5,Christiefuro,NB,true_match
Martinez-Townsend,R2S 6T7,Gutierrezstad,YT,false_match
Haney-Stevens,R3N3K4,Laurenland,NU,true_match
Doyle PLC,G6E6T6,Colemanport,ON,true_match
"White, Acosta and Cunningham",P5S 6H3,Rodriguezfurt,NU,false_match
Young and Sons,B1L 5G6,Davidmouth,NS,false_match
Bfrgess-cars,E6d wP1,Emilyhaven,MB,true_match
Barnes-Perkins,J8M 5J8,Lake Troyshire,NU,false_match
Moore PLC,A4T3G8,North Seanville,NT,false_match
Snow Group,T1C3E7,Fullerberg,MB,true_match
Martinez Group,M8J 6N3,West Stephanie,NS,false_match
Schneider Group,X1B5V9,Lake Stephanie,QC,false_match
"Hunt, Hayes and Baker",R6Y5T6,East Donnaborough,QC,false_match
Jones Inc,E8A4H7,South Brandonmouth,BC,false_match
"Lopez, Baker and Jones",G6V 3J3,West Rickyport,AB,true_match
Marshall-Joseph,S9R1E1,West Melissaland,PE,false_match
AvihasHarvpy,CrJ 2G4,Stephensstad,NS,true_match
Hudson-Adams,E7L7T3,South Robertmouth,NL,true_match
"Harrison, Rivera and Decker",Y8B 4X3,Robinsonfurt,AB,false_match
"Zhang, Daugherty and Davies",C3E5Y7,East Cynthiachester,NS,true_match
Spencer PLC,T6C 7S4,East Laurenstad,SK,false_match
"Mccoy, Martinez and Allen",R9A1E3,South David,YT,false_match
Glover-Robinson,J2T1J7,Lake Lukebury,NU,false_match
SandecsaCarpkntyr,X5X 8H1,Port Trtceyview,MB,true_match
"Bennett, Bolton and Russell",B3R 7R8,Staceyberg,MB,true_match
Hines-Phelps,V1R3P2,Ashleyshire,NS,false_match
Wilson LLC,K3S6T7,South Elizabeth,SK,true_match
Welch LLC,T3T 9A6,Port Oliviaville,QC,true_match
"Lewis, Hernandez and Robinson",M5C4L1,Port Robertmouth,AB,false_match
Mendoza-Jones,Y5N 3Y3,Grantfort,ON,false_match
"Mcdonald, Jones and Brown",G4T 2X8,Ellenchester,YT,true_match
Robinson-Gonzales,B7P2H1,South Ellen,AB,false_match
Ayers-Ross,J5C 5R9,East Davidborough,NT,true_match
Decoer PLC,C9H 9B2,Lake Andrea,NU,true_match
Ellis Ltd,L2J 3R6,New Hannah,MB,true_match
Rodriguez Group,T7P9Y9,Mcculloughborough,PE,false_match
"Cherry, Ross and Gutierrez",K6R 2Y9,North Tara,YT,true_match
"Williams, Jackson and Davis",G4P4J4,East Kimberlyport,NS,true_match
Jackson-Contreras,L1J7B8,West Edwardview,NB,false_match
"Peterson, Morrow and Flores",Y5J7B2,Jamieview,NL,true_match
"Crosby, Willis and Jones",V3Y 7H7,New Samuel,NS,true_match
"Stevens, Flores and Smith",T2V 3M6,North Ryanview,NL,true_match
"relended, Wagnbr axy Conley",K5Cg5L6,Daviaside,NL,true_match
Johnson PLC,J2M4S7,Traceyside,AB,true_match
Miller Inc,M9R5A8,East Joseph,NU,false_match
"tarcio, runcfn and Johnson",B6T 7A2,EastrJoe,YT,true_match
"Wright, Williamson and Underwood",K6M 8K4,Simonport,AB,true_match
"Brooks, Gonzalez and Phillips",J8R3B9,Johnhaven,NS,true_match
Hayes-May,Y8M3L8,North Jamesberg,BC,true_match
Patterson-Taylor,T5X5L7,Martinborough,YT,true_match
Hughes Ltd,H9T 8X2,Lake Breannaville,YT,false_match
Le PLC,R3L2M7,Webbmouth,NB,true_match
Mathis-Williams,V9A2B4,South Patrickbury,PE,true_match
Gvllagher-Sttin,N4P 3Y4,Etst Kimmerly,QC,true_match
Perez and Sons,N1X 2T9,Sextonport,NS,true_match
"Lewis, Palmer andxSmieh",X1K8T6,Wesr qoahuafort,NL,true_match
Thompson Group,C3Y5P4,North Valerie,NL,true_match
"Hopkins, Watson and Moore",J2C4R1,East John,NU,true_match
Hall-Hawkins,M2B 8S6,Robertsview,NT,true_match
Wilson PLC,B7E 9C2,Krausemouth,MB,true_match
Tate Inc,R4M 1E2,Port Annton,SK,true_match
"Hogan, Dominguez and Burton",P8J4P7,Michaelmouth,SK,true_match
Lutz Inc,N7T 8V1,Calvinborough,MB,true_match
Shaw Group,K9S2G3,Shepherdhaven,PE,true_match
Terry-Vang,V7R 3K5,East Rebecca,NU,true_match
"Moreno, Jones and Lynch",J1S 1Y8,Lake Johnny,PE,false_match
Harris-Nichols,C7V6B7,Brianland,NS,true_match
Frank-Lopez,P5J 9X1,Shawnchester,QC,true_match
Vance LLC,G6B4K7,West Scott,NS,false_match
Wilson PLC,S7R5G3,Payneton,NS,true_match
"Simmonn, Bond and Foster",M1M4V5,Lake Jajon,PE,true_match
"Taylor, Gibson and Wright",V1R 3E1,Port Keith,NU,true_match
"Russell, Smith and Erickson",T5S6K3,Port Michaelview,NU,true_match
Benitez Inc,R4E5B3,New Lindabury,AB,true_match
Pena-Reyes,N4K 4E8,South Brooke,BC,true_match
"Clark, Hicks and Rodriguez",G7A3L3,Webbton,ON,false_match
Olson-Diaz,S2M 9S3,Brandontown,NS,true_match
Livingston Ltd,G1T9V2,Karenmouth,YT,true_match
Sims LLC,K3P1E3,Port Samuel,MB,true_match
"Mason, Jotnson andxcyers",T9B 6L3,Ortizboroukh,PE,true_match
Morris-Johnson,T5B6R6,Michaelchester,NT,true_match
Harris Inc,X3A5G1,Johnsonland,NB,false_match
"Bell, Moore and Yu",P3T 5M1,Lake Tiffany,BC,false_match
Jones-Martinez,K1T2B8,West Keithberg,BC,false_match
Smith Inc,V2S7P8,Stephensville,BC,true_match
Hensley-Mccormick,Y8K 2C8,Travisstad,SK,true_match
"Branch, Weber and Wilson",B2E3K6,Matthewton,ON,true_match
"Weber, Figueroa and Chen",V3G5B2,Barberfurt,QC,true_match
Blevins LLC,J7B6V2,North Amy,NS,true_match
Blake PLC,R1S8V1,Briannaburgh,MB,true_match
Miller and Sons,M4C 8X7,Estradafurt,BC,true_match
Johnson-Fitzpatrick,X1C7S7,Jacksonberg,NL,true_match
Garner-Harvey,X4M6K1,Davidtown,AB,true_match
"Stanton, Keller and Nielsen",T4J8V3,Christopherfurt,NB,false_match
Walker-Guerrero,A5T5P9,Petersonbury,NB,false_match
Clark-Weber,S1B6K3,Port Russell,SK,true_match
Smith-Bartlett,E3S6H9,South Jesseton,BC,true_match
Cox Group,N3Y 2S6,Masontown,BC,false_match
Peterson-Clark,V5P4T5,Ericafurt,NS,true_match
Mtkenzie andcsons,E6V5T5,Oneillton,BC,true_match
Hansen LLC,L6G9N3,West Williamfurt,NL,false_match
Burke-Henry,R4M5C7,Clarkstad,AB,true_match
Villa-Hurley,N4P9H7,Brennanmouth,ON,false_match
Miles Inc,L7X 3H3,Jamieton,NU,true_match
"Holt, Hill and Bautista",M5S 9C9,Julieton,SK,true_match
Brown-Brown,A5C 1M9,Hardyfurt,ON,true_match
Young Ltd,V7K3B9,Port Danielleville,SK,true_match
"Stevens, Watkins and Foley",B1V7B3,Dianachester,PE,true_match
"Phillips,lBrooks and Mcdanirl",S4R 3H9,Soutt Johncaester,YT,true_match
"Stevens, Bates and Medina",Y6B8N9,New Kathyside,NL,false_match
Collins Inc,B3E 9G7,North Maryhaven,QC,true_match
Zamora PLC,S1R 8X6,South Waynemouth,ON,false_match
"Klein, Garcia and Garcia",C5X9K9,Elizabethberg,YT,false_match
"Perry, Clayton and Moreno",R7G 3P5,North Jessicaborough,NB,true_match
Davis-Harvey,R5R2M1,Milesland,PE,false_match
"Spence, Lane and Marquez",A4G 4T9,Natalieview,NS,true_match
Smith LLC,A3L 5G3,Port Davidton,MB,false_match
Gomee-dayo,X9T5P6,Davisbegg,NU,true_match
"Huynh, Duncan and Jackson",B2A5K1,Michaelhaven,ON,false_match
Williams PLC,E9H5P6,Destinymouth,AB,true_match
Adami-Broco,A3C 9N5,South Oscar,NU,true_match
Torres-Taylor,P9H4N8,Julieburgh,ON,false_match
"Bright, Martin and Lee",L3J5M9,Lake Lindsay,YT,true_match
"Hall, Lee and Becker",T5P 8G1,Steveberg,NB,true_match
"Villarreal, Barry and Murphy",H6S3A1,Stewartport,BC,true_match
Dawson-Herman,M3R7X2,North Garymouth,SK,true_match
Thomas Inc,R7A7K8,Suarezfort,BC,false_match
Stone-Sullivan,V9H1A2,North Erika,NU,false_match
Jones-lhcrch,H6Sy5L3,West Alyssa,ON,true_match
Torres Ltd,P6G4E4,Lake Nancy,BC,false_match
Harvey Inc,E4M9T1,West Kristyshire,AB,true_match
"Thompson, Peck and Ho",R8B9G8,Stephensfort,QC,false_match
Cole Inc,H7A 1S1,Jenniferville,MB,false_match
"Skinner, Dayis and Harris",Y3X 4A8,Barbarafodl,YT,true_match
Parker Ltd,L7B 6A4,Emilyborough,MB,false_match
Hopkins-Johnson,C4P 8A1,Scottbury,NU,true_match
Richards and Sons,X6P1X6,Swansonburgh,NU,true_match
Dunn-Martinez,A6r 9Y7,Norto Sarahburgi,NS,true_match
Martinez Ltd,R5A 6V2,North Isaacport,NB,true_match
"Shields, Black and Baker",A6T1A4,Kirbyhaven,ON,true_match
Reilly Inc,T2X 2E9,South Katieview,NU,true_match
"Johnson, Harper and Lowery",H1N 5P6,Port Cheyennefurt,YT,false_match
"Hood, Jones and Reynolds",H8G 7C5,Brianton,MB,false_match
Thomas-Allison,J6E3H1,Dudleymouth,NT,false_match
"Torres, Wu and Rodriguez",Y7M 4K9,Clarkestad,NL,true_match
Norton-Alvarez,R5Y5V2,Mendozaland,NS,false_match
"Davidson, Yates and Davidson",K8G 7A2,Melissaville,NS,true_match
Russell PLC,T4P 1V7,West Juanland,NS,true_match
Watkins Inc,E8K 5C1,Grantmouth,NB,true_match
Gonzazxz-Aqvartz,N2Y4K3,Mccormickport,NL,true_match
Reese LLC,N3T6X6,Lindseyfurt,YT,false_match
Vasquez Ltd,M4V7S3,Lake Emily,NL,false_match
